{"type":"FeatureCollection","features":[{"type":"Feature","properties":{"ubigeo":"070101","nombre":"Callao"},"geometry":{"type":"Polygon","coordinates":[[[-77.09348,-12.03843],[-77.09914,-12.04024],[-77.0984,-12.04841],[-77.08161,-12.04695],[-77.07812,-12.05004],[-77.08766,-12.05173],[-77.1208,-12.0582],[-77.13427,-12.05969],[-77.13296,-12.06785],[-77.13259,-12.07049],[-77.15113,-12.06703],[-77.15642,-12.06792],[-77.1584,-12.0666],[-77.1446,-12.05243],[-77.14676,-12.0393],[-77.14362,-12.02045],[-77.1381,-12.00687],[-77.13678,-11.99069],[-77.13329,-11.97918],[-77.13441,-11.95951],[-77.13832,-11.93924],[-77.1285,-11.93759],[-77.12022,-11.95096],[-77.11593,-11.97068],[-77.10971,-11.97616],[-77.1185,-11.99176],[-77.10713,-11.99931],[-77.10334,-11.99759],[-77.08731,-12.01563],[-77.0963,-12.03364],[-77.09348,-12.03843]]]}},{"type":"Feature","properties":{"ubigeo":"070102","nombre":"Bellavista"},"geometry":{"type":"Polygon","coordinates":[[[-77.10466,-12.06326],[-77.13296,-12.06785],[-77.13427,-12.05969],[-77.1208,-12.0582],[-77.08766,-12.05173],[-77.08711,-12.06152],[-77.10466,-12.06326]]]}},{"type":"Feature","properties":{"ubigeo":"070103","nombre":"Carmen de la Legua Reynoso"},"geometry":{"type":"Polygon","coordinates":[[[-77.09348,-12.03843],[-77.08303,-12.03632],[-77.08161,-12.04695],[-77.0984,-12.04841],[-77.09914,-12.04024],[-77.09348,-12.03843]]]}},{"type":"Feature","properties":{"ubigeo":"070104","nombre":"La Perla"},"geometry":{"type":"Polygon","coordinates":[[[-77.13259,-12.07049],[-77.13296,-12.06785],[-77.10466,-12.06326],[-77.10606,-12.07422],[-77.11149,-12.07951],[-77.13259,-12.07049]]]}},{"type":"Feature","properties":{"ubigeo":"070105","nombre":"La Punta"},"geometry":{"type":"Polygon","coordinates":[[[-77.15642,-12.06792],[-77.16279,-12.07528],[-77.17012,-12.07206],[-77.1584,-12.0666],[-77.15642,-12.06792]]]}},{"type":"Feature","properties":{"ubigeo":"070106","nombre":"Ventanilla"},"geometry":{"type":"Polygon","coordinates":[[[-77.11509,-11.84172],[-77.12057,-11.84875],[-77.12978,-11.85352],[-77.12919,-11.86176],[-77.12264,-11.86537],[-77.11082,-11.85371],[-77.10622,-11.85646],[-77.10729,-11.86605],[-77.09691,-11.87091],[-77.09243,-11.88308],[-77.09302,-11.8918],[-77.08947,-11.90009],[-77.09762,-11.91629],[-77.09727,-11.92431],[-77.1025,-11.92782],[-77.10328,-11.93521],[-77.09533,-11.94521],[-77.09524,-11.94966],[-77.12076,-11.94502],[-77.1285,-11.93759],[-77.13832,-11.93924],[-77.14649,-11.90167],[-77.15125,-11.89247],[-77.15683,-11.8743],[-77.16268,-11.86154],[-77.17369,-11.84479],[-77.1812,-11.8454],[-77.18796,-11.82856],[-77.17479,-11.82551],[-77.15695,-11.82581],[-77.14711,-11.81928],[-77.12635,-11.81973],[-77.11641,-11.83122],[-77.11509,-11.84172]]]}},{"type":"Feature","properties":{"ubigeo":"070107","nombre":"Mi Perú"},"geometry":{"type":"Polygon","coordinates":[[[-77.11509,-11.84172],[-77.11082,-11.85371],[-77.12264,-11.86537],[-77.12919,-11.86176],[-77.12978,-11.85352],[-77.12057,-11.84875],[-77.11509,-11.84172]]]}}]}