{"type":"FeatureCollection","features":[{"type":"Feature","properties":{"ubigeo":"110101","nombre":"Ica"},"geometry":{"type":"Polygon","coordinates":[[[-75.72767,-14.05189],[-75.71892,-14.07555],[-75.71727,-14.08343],[-75.71909,-14.10495],[-75.72823,-14.1315],[-75.73044,-14.15175],[-75.72896,-14.16312],[-75.73467,-14.16391],[-75.74121,-14.17121],[-75.74197,-14.18398],[-75.7452,-14.1895],[-75.75089,-14.18917],[-75.75658,-14.17907],[-75.76467,-14.18061],[-75.77445,-14.19728],[-75.77813,-14.21527],[-75.78143,-14.22204],[-75.79468,-14.23471],[-75.79942,-14.23428],[-75.80379,-14.22532],[-75.80946,-14.22339],[-75.828,-14.24237],[-75.84706,-14.24561],[-75.85,-14.26121],[-75.86269,-14.2672],[-75.8671,-14.27424],[-75.86214,-14.27945],[-75.8643,-14.29229],[-75.87126,-14.30073],[-75.89308,-14.30969],[-75.90324,-14.32007],[-75.90089,-14.32654],[-75.89372,-14.32897],[-75.8913,-14.33645],[-75.89637,-14.34406],[-75.89612,-14.35064],[-75.9066,-14.35804],[-75.90797,-14.38305],[-75.91387,-14.39162],[-75.92753,-14.40047],[-75.93221,-14.40954],[-75.93377,-14.42109],[-75.93335,-14.43875],[-75.9415,-14.44736],[-75.94737,-14.44947],[-75.94569,-14.4613],[-75.96158,-14.47621],[-75.96645,-14.49006],[-75.97226,-14.48148],[-75.97228,-14.4705],[-75.98552,-14.45801],[-76.01145,-14.44439],[-76.01604,-14.43674],[-76.03668,-14.42605],[-76.02342,-14.40532],[-76.01318,-14.40369],[-76.0035,-14.39021],[-76.00535,-14.37966],[-76.00393,-14.36894],[-75.98833,-14.34499],[-75.98848,-14.33916],[-75.98225,-14.32535],[-75.98152,-14.30719],[-75.98618,-14.29632],[-76.0075,-14.28741],[-76.01749,-14.27854],[-76.02142,-14.27097],[-76.03312,-14.27662],[-76.04651,-14.265],[-76.05199,-14.25363],[-76.07171,-14.23271],[-76.06934,-14.21774],[-76.07149,-14.20689],[-76.06821,-14.19794],[-76.05788,-14.18216],[-76.04815,-14.15896],[-76.0348,-14.14378],[-76.02184,-14.12451],[-76.0207,-14.11818],[-76.02634,-14.1079],[-76.0045,-14.10888],[-75.99501,-14.11644],[-75.981,-14.11623],[-75.97798,-14.11041],[-75.95777,-14.10689],[-75.94891,-14.10179],[-75.93856,-14.09091],[-75.92779,-14.07081],[-75.92235,-14.06493],[-75.91402,-14.06371],[-75.90317,-14.06601],[-75.8944,-14.07432],[-75.87574,-14.07565],[-75.85856,-14.06803],[-75.84552,-14.0661],[-75.83573,-14.06972],[-75.82406,-14.07007],[-75.81998,-14.06487],[-75.79895,-14.05577],[-75.77616,-14.05055],[-75.76422,-14.04582],[-75.75713,-14.04777],[-75.73921,-14.03504],[-75.73564,-14.04256],[-75.72878,-14.04278],[-75.72767,-14.05189]]]}},{"type":"Feature","properties":{"ubigeo":"110102","nombre":"La Tinguiña"},"geometry":{"type":"Polygon","coordinates":[[[-75.60684,-14.03722],[-75.61425,-14.0441],[-75.63002,-14.04548],[-75.65175,-14.04102],[-75.65993,-14.04113],[-75.67454,-14.04786],[-75.6787,-14.04088],[-75.69401,-14.03661],[-75.71003,-14.04579],[-75.7126,-14.04054],[-75.72767,-14.05189],[-75.72878,-14.04278],[-75.72949,-14.00346],[-75.73105,-13.99626],[-75.7223,-13.97079],[-75.71135,-13.97524],[-75.71317,-13.97776],[-75.69313,-13.98574],[-75.68254,-13.99578],[-75.67254,-13.9866],[-75.67112,-13.97874],[-75.65399,-13.97579],[-75.64724,-13.97881],[-75.64254,-13.97613],[-75.62703,-13.97513],[-75.6116,-13.97882],[-75.60018,-13.96962],[-75.59661,-13.97289],[-75.60365,-13.97994],[-75.61228,-13.99482],[-75.6208,-13.99909],[-75.63084,-13.99994],[-75.64164,-14.00793],[-75.649,-14.01927],[-75.6347,-14.01959],[-75.61715,-14.0295],[-75.60684,-14.03722]]]}},{"type":"Feature","properties":{"ubigeo":"110103","nombre":"Los Aquijes"},"geometry":{"type":"Polygon","coordinates":[[[-75.71909,-14.10495],[-75.71727,-14.08343],[-75.71892,-14.07555],[-75.70174,-14.07723],[-75.70229,-14.07303],[-75.6872,-14.06792],[-75.67929,-14.06991],[-75.67818,-14.05446],[-75.67454,-14.04786],[-75.65993,-14.04113],[-75.65175,-14.04102],[-75.63002,-14.04548],[-75.61425,-14.0441],[-75.60684,-14.03722],[-75.5981,-14.03977],[-75.58242,-14.03857],[-75.57559,-14.03351],[-75.56163,-14.04033],[-75.55663,-14.06547],[-75.56317,-14.07292],[-75.57104,-14.06943],[-75.57827,-14.0749],[-75.58687,-14.07103],[-75.59632,-14.07406],[-75.59743,-14.08011],[-75.62158,-14.09792],[-75.63223,-14.09842],[-75.6323,-14.10667],[-75.63921,-14.11077],[-75.6533,-14.11287],[-75.66329,-14.10825],[-75.67211,-14.11776],[-75.681,-14.11229],[-75.69327,-14.11296],[-75.69829,-14.10424],[-75.70759,-14.1091],[-75.71909,-14.10495]]]}},{"type":"Feature","properties":{"ubigeo":"110104","nombre":"Ocucaje"},"geometry":{"type":"Polygon","coordinates":[[[-75.96645,-14.49006],[-75.96158,-14.47621],[-75.94569,-14.4613],[-75.94737,-14.44947],[-75.9415,-14.44736],[-75.93335,-14.43875],[-75.93377,-14.42109],[-75.93221,-14.40954],[-75.92753,-14.40047],[-75.91387,-14.39162],[-75.90797,-14.38305],[-75.9066,-14.35804],[-75.89612,-14.35064],[-75.89637,-14.34406],[-75.8913,-14.33645],[-75.89372,-14.32897],[-75.90089,-14.32654],[-75.90324,-14.32007],[-75.89308,-14.30969],[-75.87126,-14.30073],[-75.8643,-14.29229],[-75.86214,-14.27945],[-75.73646,-14.27601],[-75.7269,-14.27642],[-75.71491,-14.27268],[-75.70441,-14.27277],[-75.69631,-14.28318],[-75.68387,-14.29319],[-75.68104,-14.3195],[-75.68986,-14.33184],[-75.67215,-14.33129],[-75.66967,-14.3267],[-75.66496,-14.33236],[-75.63029,-14.36401],[-75.61314,-14.38534],[-75.60326,-14.38836],[-75.60166,-14.41183],[-75.59172,-14.41108],[-75.58579,-14.41481],[-75.58262,-14.42537],[-75.59679,-14.45558],[-75.59285,-14.46891],[-75.59608,-14.47956],[-75.59355,-14.48856],[-75.58543,-14.49493],[-75.58744,-14.50227],[-75.58405,-14.51095],[-75.58246,-14.53004],[-75.58516,-14.53982],[-75.58405,-14.56188],[-75.58893,-14.57474],[-75.60363,-14.56363],[-75.62221,-14.56552],[-75.64498,-14.55346],[-75.65042,-14.5469],[-75.65817,-14.53056],[-75.66259,-14.52801],[-75.67451,-14.54169],[-75.68021,-14.56038],[-75.68688,-14.56399],[-75.69303,-14.57533],[-75.68453,-14.59367],[-75.68146,-14.60794],[-75.68964,-14.6125],[-75.69137,-14.61794],[-75.68847,-14.64125],[-75.69057,-14.65263],[-75.68492,-14.66538],[-75.6989,-14.67769],[-75.70532,-14.68838],[-75.71334,-14.68869],[-75.71693,-14.68372],[-75.72936,-14.68349],[-75.75441,-14.67273],[-75.75689,-14.68123],[-75.75135,-14.68686],[-75.75884,-14.69562],[-75.77547,-14.70009],[-75.78647,-14.68662],[-75.79686,-14.68677],[-75.80701,-14.69612],[-75.81558,-14.7083],[-75.82515,-14.71424],[-75.85581,-14.7157],[-75.84972,-14.71202],[-75.84937,-14.70456],[-75.85576,-14.69444],[-75.87797,-14.67886],[-75.89833,-14.66969],[-75.91646,-14.65918],[-75.92146,-14.648],[-75.92746,-14.64312],[-75.92349,-14.63193],[-75.92778,-14.61611],[-75.93227,-14.60966],[-75.9264,-14.60082],[-75.93204,-14.58947],[-75.93342,-14.57954],[-75.92939,-14.57541],[-75.93205,-14.56828],[-75.94599,-14.55591],[-75.95636,-14.54265],[-75.9562,-14.53857],[-75.9742,-14.52525],[-75.96941,-14.51083],[-75.96485,-14.50554],[-75.96645,-14.49006]]]}},{"type":"Feature","properties":{"ubigeo":"110105","nombre":"Pachacutec"},"geometry":{"type":"Polygon","coordinates":[[[-75.5921,-14.18112],[-75.63307,-14.18088],[-75.655,-14.17885],[-75.68255,-14.17972],[-75.68857,-14.17051],[-75.69764,-14.17225],[-75.69777,-14.16656],[-75.69864,-14.16044],[-75.69122,-14.16027],[-75.69457,-14.15331],[-75.69384,-14.14351],[-75.69015,-14.13736],[-75.68613,-14.1303],[-75.67508,-14.13139],[-75.6678,-14.12786],[-75.65779,-14.14953],[-75.64301,-14.14095],[-75.63659,-14.13989],[-75.60271,-14.1627],[-75.5921,-14.18112]]]}},{"type":"Feature","properties":{"ubigeo":"110106","nombre":"Parcona"},"geometry":{"type":"Polygon","coordinates":[[[-75.71892,-14.07555],[-75.72767,-14.05189],[-75.7126,-14.04054],[-75.71003,-14.04579],[-75.69401,-14.03661],[-75.6787,-14.04088],[-75.67454,-14.04786],[-75.67818,-14.05446],[-75.67929,-14.06991],[-75.6872,-14.06792],[-75.70229,-14.07303],[-75.70174,-14.07723],[-75.71892,-14.07555]]]}},{"type":"Feature","properties":{"ubigeo":"110107","nombre":"Pueblo Nuevo"},"geometry":{"type":"Polygon","coordinates":[[[-75.63659,-14.13989],[-75.64301,-14.14095],[-75.65779,-14.14953],[-75.6678,-14.12786],[-75.67508,-14.13139],[-75.68613,-14.1303],[-75.69015,-14.13736],[-75.70684,-14.13895],[-75.71186,-14.13733],[-75.72823,-14.1315],[-75.71909,-14.10495],[-75.70759,-14.1091],[-75.69829,-14.10424],[-75.69327,-14.11296],[-75.681,-14.11229],[-75.67211,-14.11776],[-75.66329,-14.10825],[-75.6533,-14.11287],[-75.63921,-14.11077],[-75.62737,-14.11359],[-75.62957,-14.12402],[-75.62483,-14.13226],[-75.63659,-14.13989]]]}},{"type":"Feature","properties":{"ubigeo":"110108","nombre":"Salas"},"geometry":{"type":"Polygon","coordinates":[[[-75.71321,-13.92997],[-75.73338,-13.93096],[-75.74275,-13.93386],[-75.75271,-13.95037],[-75.7539,-13.95734],[-75.7435,-13.97766],[-75.73916,-13.98281],[-75.74336,-13.98546],[-75.75505,-14.00884],[-75.76172,-14.00698],[-75.78588,-14.00868],[-75.79621,-14.00792],[-75.82184,-14.01777],[-75.8392,-14.01474],[-75.84469,-14.01078],[-75.8668,-14.01527],[-75.88418,-14.01722],[-75.92593,-14.00929],[-75.94302,-14.01617],[-75.94851,-14.00995],[-75.9659,-14.01351],[-75.98965,-14.02631],[-75.99772,-14.02776],[-76.00284,-14.01827],[-76.01629,-14.012],[-76.02545,-14.00503],[-76.02242,-13.99777],[-76.02744,-13.99004],[-76.02271,-13.97138],[-76.02505,-13.95923],[-76.0302,-13.95194],[-76.04491,-13.93744],[-76.05595,-13.9293],[-76.0603,-13.91633],[-76.06133,-13.90476],[-76.04914,-13.89157],[-76.04533,-13.8826],[-76.04118,-13.86107],[-76.02798,-13.84012],[-76.01696,-13.84431],[-76.00133,-13.83833],[-75.99194,-13.83341],[-75.98884,-13.84046],[-75.95743,-13.84771],[-75.95376,-13.84538],[-75.94623,-13.84997],[-75.93735,-13.85009],[-75.92296,-13.84175],[-75.89556,-13.84748],[-75.88454,-13.85517],[-75.86423,-13.8468],[-75.85322,-13.83705],[-75.83928,-13.83779],[-75.83563,-13.84273],[-75.81401,-13.85306],[-75.78914,-13.85646],[-75.7738,-13.84312],[-75.76295,-13.8463],[-75.75258,-13.84261],[-75.74888,-13.83537],[-75.7259,-13.8361],[-75.71161,-13.82925],[-75.70165,-13.8172],[-75.67466,-13.81394],[-75.67566,-13.82074],[-75.66865,-13.84651],[-75.67391,-13.85052],[-75.6739,-13.86271],[-75.67904,-13.87033],[-75.68625,-13.87295],[-75.68772,-13.87977],[-75.69913,-13.88855],[-75.70708,-13.90146],[-75.70546,-13.90706],[-75.71321,-13.92997]]]}},{"type":"Feature","properties":{"ubigeo":"110109","nombre":"San José de Los Molinos"},"geometry":{"type":"Polygon","coordinates":[[[-75.52488,-13.8179],[-75.53498,-13.82397],[-75.54381,-13.83551],[-75.56338,-13.84086],[-75.56619,-13.85405],[-75.5595,-13.86327],[-75.56008,-13.87093],[-75.5555,-13.87905],[-75.54962,-13.88201],[-75.5455,-13.88948],[-75.52206,-13.88511],[-75.51106,-13.89219],[-75.50224,-13.90141],[-75.49927,-13.90059],[-75.49747,-13.91076],[-75.50805,-13.91099],[-75.52105,-13.9167],[-75.52887,-13.92926],[-75.54876,-13.93956],[-75.5541,-13.95092],[-75.5543,-13.95783],[-75.56333,-13.96785],[-75.57385,-13.97161],[-75.59661,-13.97289],[-75.60018,-13.96962],[-75.6116,-13.97882],[-75.62703,-13.97513],[-75.64254,-13.97613],[-75.64724,-13.97881],[-75.65399,-13.97579],[-75.67112,-13.97874],[-75.67254,-13.9866],[-75.68254,-13.99578],[-75.69313,-13.98574],[-75.71317,-13.97776],[-75.71135,-13.97524],[-75.7223,-13.97079],[-75.70286,-13.94386],[-75.70797,-13.93216],[-75.71321,-13.92997],[-75.70546,-13.90706],[-75.70708,-13.90146],[-75.69913,-13.88855],[-75.68772,-13.87977],[-75.68625,-13.87295],[-75.67904,-13.87033],[-75.6739,-13.86271],[-75.67391,-13.85052],[-75.66865,-13.84651],[-75.67566,-13.82074],[-75.67466,-13.81394],[-75.66236,-13.8124],[-75.648,-13.80744],[-75.64138,-13.79922],[-75.63089,-13.79581],[-75.61544,-13.78613],[-75.60846,-13.78596],[-75.59794,-13.7743],[-75.59075,-13.75778],[-75.58166,-13.75247],[-75.57658,-13.75347],[-75.56812,-13.74219],[-75.56321,-13.74758],[-75.55458,-13.74957],[-75.54872,-13.75691],[-75.53759,-13.7624],[-75.5382,-13.77676],[-75.54153,-13.78144],[-75.53836,-13.79282],[-75.52752,-13.79696],[-75.52488,-13.8179]]]}},{"type":"Feature","properties":{"ubigeo":"110110","nombre":"San Juan Bautista"},"geometry":{"type":"Polygon","coordinates":[[[-75.72878,-14.04278],[-75.73564,-14.04256],[-75.73921,-14.03504],[-75.74116,-14.02502],[-75.75505,-14.00884],[-75.74336,-13.98546],[-75.73916,-13.98281],[-75.7435,-13.97766],[-75.7539,-13.95734],[-75.75271,-13.95037],[-75.74275,-13.93386],[-75.73338,-13.93096],[-75.71321,-13.92997],[-75.70797,-13.93216],[-75.70286,-13.94386],[-75.7223,-13.97079],[-75.73105,-13.99626],[-75.72949,-14.00346],[-75.72878,-14.04278]]]}},{"type":"Feature","properties":{"ubigeo":"110111","nombre":"Santiago"},"geometry":{"type":"Polygon","coordinates":[[[-75.69777,-14.16656],[-75.69764,-14.17225],[-75.68857,-14.17051],[-75.68255,-14.17972],[-75.655,-14.17885],[-75.63307,-14.18088],[-75.5921,-14.18112],[-75.56922,-14.2562],[-75.57055,-14.26786],[-75.56008,-14.26748],[-75.55095,-14.27128],[-75.5395,-14.26822],[-75.532,-14.25928],[-75.50098,-14.25832],[-75.48755,-14.26416],[-75.48124,-14.27053],[-75.47419,-14.27252],[-75.46945,-14.28056],[-75.45982,-14.27939],[-75.43836,-14.28289],[-75.43199,-14.26655],[-75.42632,-14.2652],[-75.41758,-14.25197],[-75.40267,-14.25126],[-75.39422,-14.24748],[-75.37815,-14.24696],[-75.37002,-14.23431],[-75.35944,-14.22895],[-75.34788,-14.22868],[-75.33724,-14.21738],[-75.32923,-14.21987],[-75.31892,-14.22767],[-75.30924,-14.22545],[-75.28397,-14.22788],[-75.26267,-14.22467],[-75.25086,-14.22456],[-75.24471,-14.2088],[-75.23538,-14.20079],[-75.23699,-14.21466],[-75.22938,-14.23179],[-75.2315,-14.25947],[-75.23112,-14.27021],[-75.23575,-14.28264],[-75.23262,-14.28971],[-75.23896,-14.30637],[-75.23979,-14.32078],[-75.23687,-14.32845],[-75.23788,-14.3426],[-75.23547,-14.34801],[-75.21838,-14.35281],[-75.22474,-14.36549],[-75.22792,-14.39541],[-75.23282,-14.40566],[-75.23955,-14.41048],[-75.24015,-14.4166],[-75.24973,-14.42831],[-75.24467,-14.4396],[-75.25281,-14.44463],[-75.26495,-14.44663],[-75.26763,-14.45746],[-75.28031,-14.45597],[-75.28803,-14.46533],[-75.30125,-14.47254],[-75.31002,-14.48768],[-75.31285,-14.5112],[-75.31685,-14.53078],[-75.32094,-14.53686],[-75.33557,-14.54367],[-75.33778,-14.54869],[-75.3521,-14.56222],[-75.36,-14.56579],[-75.36369,-14.58209],[-75.36835,-14.59264],[-75.36862,-14.6069],[-75.36089,-14.62073],[-75.3671,-14.62498],[-75.37088,-14.63658],[-75.37653,-14.63924],[-75.39954,-14.6269],[-75.41343,-14.63132],[-75.42358,-14.63766],[-75.42634,-14.64306],[-75.41973,-14.64984],[-75.41452,-14.66367],[-75.41062,-14.68524],[-75.41747,-14.69727],[-75.42418,-14.70329],[-75.42644,-14.71012],[-75.4236,-14.71677],[-75.42732,-14.73537],[-75.43267,-14.74996],[-75.43165,-14.75769],[-75.42123,-14.7668],[-75.41608,-14.77474],[-75.41577,-14.78814],[-75.42571,-14.81368],[-75.42591,-14.83371],[-75.43241,-14.84816],[-75.43791,-14.87096],[-75.43839,-14.88216],[-75.44364,-14.88781],[-75.44,-14.89492],[-75.45856,-14.90934],[-75.46373,-14.91671],[-75.47371,-14.92326],[-75.48147,-14.92182],[-75.49404,-14.92966],[-75.50979,-14.91077],[-75.54002,-14.88772],[-75.57452,-14.8678],[-75.63349,-14.83879],[-75.67994,-14.81782],[-75.70563,-14.79812],[-75.73638,-14.78255],[-75.73733,-14.7772],[-75.74877,-14.76919],[-75.78436,-14.74829],[-75.85581,-14.7157],[-75.82515,-14.71424],[-75.81558,-14.7083],[-75.80701,-14.69612],[-75.79686,-14.68677],[-75.78647,-14.68662],[-75.77547,-14.70009],[-75.75884,-14.69562],[-75.75135,-14.68686],[-75.75689,-14.68123],[-75.75441,-14.67273],[-75.72936,-14.68349],[-75.71693,-14.68372],[-75.71334,-14.68869],[-75.70532,-14.68838],[-75.6989,-14.67769],[-75.68492,-14.66538],[-75.69057,-14.65263],[-75.68847,-14.64125],[-75.69137,-14.61794],[-75.68964,-14.6125],[-75.68146,-14.60794],[-75.68453,-14.59367],[-75.69303,-14.57533],[-75.68688,-14.56399],[-75.68021,-14.56038],[-75.67451,-14.54169],[-75.66259,-14.52801],[-75.65817,-14.53056],[-75.65042,-14.5469],[-75.64498,-14.55346],[-75.62221,-14.56552],[-75.60363,-14.56363],[-75.58893,-14.57474],[-75.58405,-14.56188],[-75.58516,-14.53982],[-75.58246,-14.53004],[-75.58405,-14.51095],[-75.58744,-14.50227],[-75.58543,-14.49493],[-75.59355,-14.48856],[-75.59608,-14.47956],[-75.59285,-14.46891],[-75.59679,-14.45558],[-75.58262,-14.42537],[-75.58579,-14.41481],[-75.59172,-14.41108],[-75.60166,-14.41183],[-75.60326,-14.38836],[-75.61314,-14.38534],[-75.63029,-14.36401],[-75.66496,-14.33236],[-75.66967,-14.3267],[-75.67215,-14.33129],[-75.68986,-14.33184],[-75.68104,-14.3195],[-75.68387,-14.29319],[-75.69631,-14.28318],[-75.70441,-14.27277],[-75.71491,-14.27268],[-75.7269,-14.27642],[-75.73646,-14.27601],[-75.86214,-14.27945],[-75.8671,-14.27424],[-75.86269,-14.2672],[-75.85,-14.26121],[-75.84706,-14.24561],[-75.828,-14.24237],[-75.80946,-14.22339],[-75.80379,-14.22532],[-75.79942,-14.23428],[-75.79468,-14.23471],[-75.78143,-14.22204],[-75.77813,-14.21527],[-75.77445,-14.19728],[-75.76467,-14.18061],[-75.75658,-14.17907],[-75.75089,-14.18917],[-75.7452,-14.1895],[-75.74197,-14.18398],[-75.74121,-14.17121],[-75.73467,-14.16391],[-75.72896,-14.16312],[-75.73044,-14.15175],[-75.72823,-14.1315],[-75.71186,-14.13733],[-75.7151,-14.14829],[-75.71203,-14.16371],[-75.70158,-14.16846],[-75.69777,-14.16656]]]}},{"type":"Feature","properties":{"ubigeo":"110112","nombre":"Subtanjalla"},"geometry":{"type":"Polygon","coordinates":[[[-75.73921,-14.03504],[-75.75713,-14.04777],[-75.76422,-14.04582],[-75.77616,-14.05055],[-75.79895,-14.05577],[-75.81998,-14.06487],[-75.82406,-14.07007],[-75.83573,-14.06972],[-75.84552,-14.0661],[-75.85856,-14.06803],[-75.87574,-14.07565],[-75.8944,-14.07432],[-75.90317,-14.06601],[-75.91402,-14.06371],[-75.92235,-14.06493],[-75.92779,-14.07081],[-75.93856,-14.09091],[-75.94891,-14.10179],[-75.95777,-14.10689],[-75.97798,-14.11041],[-75.981,-14.11623],[-75.99501,-14.11644],[-76.0045,-14.10888],[-76.02634,-14.1079],[-76.01633,-14.09633],[-76.00062,-14.09062],[-75.99342,-14.08405],[-75.98654,-14.06949],[-76.00508,-14.03975],[-76.00313,-14.03087],[-75.99772,-14.02776],[-75.98965,-14.02631],[-75.9659,-14.01351],[-75.94851,-14.00995],[-75.94302,-14.01617],[-75.92593,-14.00929],[-75.88418,-14.01722],[-75.8668,-14.01527],[-75.84469,-14.01078],[-75.8392,-14.01474],[-75.82184,-14.01777],[-75.79621,-14.00792],[-75.78588,-14.00868],[-75.76172,-14.00698],[-75.75505,-14.00884],[-75.74116,-14.02502],[-75.73921,-14.03504]]]}},{"type":"Feature","properties":{"ubigeo":"110113","nombre":"Tate"},"geometry":{"type":"Polygon","coordinates":[[[-75.69777,-14.16656],[-75.70158,-14.16846],[-75.71203,-14.16371],[-75.7151,-14.14829],[-75.71186,-14.13733],[-75.70684,-14.13895],[-75.69015,-14.13736],[-75.69384,-14.14351],[-75.69457,-14.15331],[-75.69122,-14.16027],[-75.69864,-14.16044],[-75.69777,-14.16656]]]}},{"type":"Feature","properties":{"ubigeo":"110114","nombre":"Yauca del Rosario"},"geometry":{"type":"Polygon","coordinates":[[[-75.21919,-14.04893],[-75.21055,-14.05044],[-75.21722,-14.06258],[-75.23321,-14.0728],[-75.23972,-14.08405],[-75.22944,-14.08917],[-75.22446,-14.10055],[-75.22617,-14.12641],[-75.23353,-14.13081],[-75.24087,-14.14046],[-75.24304,-14.15243],[-75.23813,-14.15722],[-75.22968,-14.17293],[-75.23077,-14.19062],[-75.23538,-14.20079],[-75.24471,-14.2088],[-75.25086,-14.22456],[-75.26267,-14.22467],[-75.28397,-14.22788],[-75.30924,-14.22545],[-75.31892,-14.22767],[-75.32923,-14.21987],[-75.33724,-14.21738],[-75.34788,-14.22868],[-75.35944,-14.22895],[-75.37002,-14.23431],[-75.37815,-14.24696],[-75.39422,-14.24748],[-75.40267,-14.25126],[-75.41758,-14.25197],[-75.42632,-14.2652],[-75.43199,-14.26655],[-75.43836,-14.28289],[-75.45982,-14.27939],[-75.46945,-14.28056],[-75.47419,-14.27252],[-75.48124,-14.27053],[-75.48755,-14.26416],[-75.50098,-14.25832],[-75.532,-14.25928],[-75.5395,-14.26822],[-75.55095,-14.27128],[-75.56008,-14.26748],[-75.57055,-14.26786],[-75.56922,-14.2562],[-75.5921,-14.18112],[-75.60271,-14.1627],[-75.63659,-14.13989],[-75.62483,-14.13226],[-75.62957,-14.12402],[-75.62737,-14.11359],[-75.63921,-14.11077],[-75.6323,-14.10667],[-75.63223,-14.09842],[-75.62158,-14.09792],[-75.59743,-14.08011],[-75.59632,-14.07406],[-75.58687,-14.07103],[-75.57827,-14.0749],[-75.57104,-14.06943],[-75.56317,-14.07292],[-75.55663,-14.06547],[-75.56163,-14.04033],[-75.57559,-14.03351],[-75.58242,-14.03857],[-75.5981,-14.03977],[-75.60684,-14.03722],[-75.61715,-14.0295],[-75.6347,-14.01959],[-75.649,-14.01927],[-75.64164,-14.00793],[-75.63084,-13.99994],[-75.6208,-13.99909],[-75.61228,-13.99482],[-75.60365,-13.97994],[-75.59661,-13.97289],[-75.57385,-13.97161],[-75.56333,-13.96785],[-75.5543,-13.95783],[-75.5541,-13.95092],[-75.54876,-13.93956],[-75.52887,-13.92926],[-75.52105,-13.9167],[-75.50805,-13.91099],[-75.49747,-13.91076],[-75.49927,-13.90059],[-75.47517,-13.91272],[-75.46059,-13.90884],[-75.45755,-13.90546],[-75.44567,-13.90966],[-75.44399,-13.91296],[-75.43382,-13.9139],[-75.41543,-13.92737],[-75.40536,-13.94357],[-75.39588,-13.9447],[-75.38169,-13.96276],[-75.35922,-13.9715],[-75.35886,-13.98414],[-75.35344,-13.99243],[-75.35568,-13.99577],[-75.34762,-14.0049],[-75.33323,-14.01598],[-75.31905,-14.019],[-75.30978,-14.01557],[-75.28542,-14.0115],[-75.27778,-14.00859],[-75.27089,-14.01063],[-75.25268,-13.99815],[-75.23233,-14.00477],[-75.23652,-14.01442],[-75.25959,-14.03787],[-75.25853,-14.04317],[-75.21919,-14.04893]]]}},{"type":"Feature","properties":{"ubigeo":"110201","nombre":"Chincha Alta"},"geometry":{"type":"Polygon","coordinates":[[[-75.96206,-13.31972],[-75.95917,-13.33322],[-75.97586,-13.34446],[-75.97699,-13.35019],[-75.99847,-13.35819],[-76.00215,-13.36616],[-76.00833,-13.36752],[-76.02055,-13.37931],[-76.02985,-13.37536],[-76.03865,-13.38004],[-76.04529,-13.39011],[-76.04517,-13.39738],[-76.06019,-13.40748],[-76.06395,-13.41282],[-76.0928,-13.42624],[-76.09972,-13.43711],[-76.11177,-13.44003],[-76.12435,-13.43773],[-76.13573,-13.44235],[-76.14065,-13.44014],[-76.13645,-13.42416],[-76.14425,-13.41509],[-76.1399,-13.40456],[-76.12738,-13.41145],[-76.12143,-13.40834],[-76.08899,-13.36245],[-76.0871,-13.35734],[-76.07512,-13.34326],[-76.07043,-13.33253],[-76.06399,-13.32806],[-76.07189,-13.31527],[-76.08091,-13.31052],[-76.08064,-13.30161],[-76.08442,-13.29848],[-76.07873,-13.291],[-76.07893,-13.28133],[-76.06757,-13.26067],[-76.05626,-13.2533],[-76.03001,-13.24376],[-76.01891,-13.23672],[-76.01305,-13.22718],[-76.00829,-13.22642],[-75.99534,-13.2158],[-75.98385,-13.21296],[-75.97855,-13.21447],[-75.97361,-13.22286],[-75.97855,-13.25034],[-75.97084,-13.25658],[-75.95991,-13.27238],[-75.94664,-13.27841],[-75.95601,-13.29182],[-75.96206,-13.31972]]]}},{"type":"Feature","properties":{"ubigeo":"110202","nombre":"Alto Laran"},"geometry":{"type":"Polygon","coordinates":[[[-75.79845,-13.3712],[-75.80117,-13.38051],[-75.80782,-13.38414],[-75.80939,-13.39685],[-75.8068,-13.40081],[-75.81669,-13.39795],[-75.83394,-13.39751],[-75.83883,-13.41016],[-75.85858,-13.41485],[-75.86687,-13.42586],[-75.88111,-13.4242],[-75.88957,-13.42761],[-75.91528,-13.42788],[-75.92471,-13.41923],[-75.93956,-13.41854],[-75.9471,-13.42316],[-75.95651,-13.42092],[-75.96868,-13.43664],[-75.98367,-13.44925],[-76.02591,-13.46827],[-76.03159,-13.46763],[-76.05147,-13.47164],[-76.07857,-13.47925],[-76.08311,-13.47913],[-76.08621,-13.46821],[-76.09758,-13.46434],[-76.10904,-13.46357],[-76.13699,-13.46667],[-76.13573,-13.44235],[-76.12435,-13.43773],[-76.11177,-13.44003],[-76.09972,-13.43711],[-76.0928,-13.42624],[-76.06395,-13.41282],[-76.06019,-13.40748],[-76.04517,-13.39738],[-76.04529,-13.39011],[-76.03865,-13.38004],[-76.02985,-13.37536],[-76.02055,-13.37931],[-76.00833,-13.36752],[-76.00215,-13.36616],[-75.99847,-13.35819],[-75.97699,-13.35019],[-75.97586,-13.34446],[-75.95917,-13.33322],[-75.96206,-13.31972],[-75.95542,-13.31851],[-75.94806,-13.32288],[-75.93648,-13.31787],[-75.92683,-13.32333],[-75.92037,-13.32343],[-75.91353,-13.31473],[-75.90961,-13.30401],[-75.89886,-13.29728],[-75.8968,-13.29077],[-75.87096,-13.27837],[-75.8662,-13.27195],[-75.86306,-13.2576],[-75.85134,-13.26827],[-75.84511,-13.26995],[-75.84075,-13.28037],[-75.83575,-13.28445],[-75.83428,-13.2939],[-75.8282,-13.30283],[-75.82278,-13.31662],[-75.81751,-13.31758],[-75.81322,-13.33163],[-75.8058,-13.33859],[-75.796,-13.3394],[-75.786,-13.33123],[-75.78261,-13.33166],[-75.78764,-13.33479],[-75.7954,-13.35566],[-75.79845,-13.3712]]]}},{"type":"Feature","properties":{"ubigeo":"110203","nombre":"Chavin"},"geometry":{"type":"Polygon","coordinates":[[[-75.80206,-13.06043],[-75.8046,-13.07819],[-75.81642,-13.08],[-75.82581,-13.08597],[-75.8323,-13.08103],[-75.83935,-13.08436],[-75.84089,-13.09471],[-75.85476,-13.10644],[-75.86004,-13.10753],[-75.87436,-13.13088],[-75.87804,-13.14366],[-75.89228,-13.14973],[-75.90212,-13.15169],[-75.90235,-13.16099],[-75.89875,-13.17244],[-75.90315,-13.18432],[-75.90227,-13.19464],[-75.90675,-13.20721],[-75.90555,-13.21529],[-75.91298,-13.22536],[-75.91368,-13.23549],[-75.92804,-13.24186],[-75.93075,-13.26344],[-75.94664,-13.27841],[-75.95991,-13.27238],[-75.97084,-13.25658],[-75.97855,-13.25034],[-75.97361,-13.22286],[-75.97855,-13.21447],[-75.98385,-13.21296],[-75.99534,-13.2158],[-76.00247,-13.20614],[-76.0123,-13.20289],[-76.01926,-13.19612],[-76.02303,-13.18359],[-76.01997,-13.17489],[-76.03429,-13.17811],[-76.04996,-13.17913],[-76.05688,-13.17082],[-76.06258,-13.17006],[-76.06507,-13.15481],[-76.06383,-13.14235],[-76.07118,-13.14498],[-76.08512,-13.13902],[-76.07239,-13.12827],[-76.06763,-13.12718],[-76.04943,-13.1146],[-76.04193,-13.10575],[-76.02143,-13.09393],[-76.01194,-13.0855],[-76.0038,-13.07351],[-75.98423,-13.05287],[-75.9692,-13.04164],[-75.96817,-13.03214],[-75.96082,-13.02042],[-75.9614,-13.00138],[-75.93768,-12.99132],[-75.91387,-13.00687],[-75.89826,-13.01329],[-75.87878,-13.01599],[-75.87187,-13.02464],[-75.848,-13.0361],[-75.83906,-13.03072],[-75.82689,-13.02941],[-75.82165,-13.03324],[-75.8202,-13.04764],[-75.81648,-13.05347],[-75.80775,-13.05157],[-75.80206,-13.06043]]]}},{"type":"Feature","properties":{"ubigeo":"110204","nombre":"Chincha Baja"},"geometry":{"type":"Polygon","coordinates":[[[-76.13573,-13.44235],[-76.13699,-13.46667],[-76.10904,-13.46357],[-76.09758,-13.46434],[-76.08621,-13.46821],[-76.08311,-13.47913],[-76.09985,-13.48037],[-76.12237,-13.49021],[-76.12578,-13.49635],[-76.13546,-13.49639],[-76.13368,-13.50748],[-76.13894,-13.52496],[-76.13309,-13.53836],[-76.13337,-13.54967],[-76.18693,-13.55354],[-76.18935,-13.49984],[-76.18008,-13.50082],[-76.17934,-13.48766],[-76.17468,-13.47805],[-76.17423,-13.45896],[-76.16705,-13.45423],[-76.17109,-13.44755],[-76.15827,-13.43807],[-76.1463,-13.43746],[-76.14065,-13.44014],[-76.13573,-13.44235]]]}},{"type":"Feature","properties":{"ubigeo":"110205","nombre":"El Carmen"},"geometry":{"type":"Polygon","coordinates":[[[-75.68928,-13.43967],[-75.69754,-13.45216],[-75.70894,-13.45933],[-75.70593,-13.4684],[-75.7102,-13.47401],[-75.72434,-13.48358],[-75.73229,-13.49328],[-75.75559,-13.50053],[-75.75759,-13.50541],[-75.75277,-13.514],[-75.7605,-13.5206],[-75.76275,-13.54316],[-75.77292,-13.55558],[-75.78414,-13.55888],[-75.78456,-13.56728],[-75.79901,-13.57504],[-75.81384,-13.57945],[-75.80547,-13.58988],[-75.80696,-13.60465],[-75.81432,-13.61322],[-75.81446,-13.61956],[-75.83523,-13.62518],[-75.86385,-13.61143],[-75.87317,-13.61259],[-75.88106,-13.61704],[-75.88906,-13.61259],[-75.89549,-13.61504],[-75.89996,-13.62625],[-75.9202,-13.62498],[-75.93488,-13.63145],[-75.94489,-13.61948],[-75.95754,-13.62042],[-75.96292,-13.61254],[-75.96397,-13.59956],[-75.97331,-13.59772],[-75.98507,-13.58115],[-75.98697,-13.57164],[-76.00667,-13.56097],[-76.03412,-13.56131],[-76.04029,-13.56446],[-76.04975,-13.57694],[-76.06675,-13.57278],[-76.07506,-13.56581],[-76.08747,-13.56408],[-76.09156,-13.56722],[-76.12875,-13.5798],[-76.13324,-13.5852],[-76.14253,-13.58574],[-76.15108,-13.59178],[-76.16669,-13.59549],[-76.19183,-13.59378],[-76.18744,-13.56582],[-76.18693,-13.55354],[-76.13337,-13.54967],[-76.13309,-13.53836],[-76.13894,-13.52496],[-76.13368,-13.50748],[-76.13546,-13.49639],[-76.12578,-13.49635],[-76.12237,-13.49021],[-76.09985,-13.48037],[-76.08311,-13.47913],[-76.07857,-13.47925],[-76.05147,-13.47164],[-76.03159,-13.46763],[-76.02591,-13.46827],[-75.98367,-13.44925],[-75.96868,-13.43664],[-75.95651,-13.42092],[-75.9471,-13.42316],[-75.93956,-13.41854],[-75.92471,-13.41923],[-75.91528,-13.42788],[-75.88957,-13.42761],[-75.88111,-13.4242],[-75.86687,-13.42586],[-75.85858,-13.41485],[-75.83883,-13.41016],[-75.83394,-13.39751],[-75.81669,-13.39795],[-75.8068,-13.40081],[-75.79017,-13.40441],[-75.77884,-13.40925],[-75.76977,-13.40972],[-75.76252,-13.41377],[-75.75214,-13.41285],[-75.74494,-13.40479],[-75.73615,-13.40982],[-75.71216,-13.41642],[-75.70947,-13.42177],[-75.70273,-13.42248],[-75.69577,-13.43551],[-75.68928,-13.43967]]]}},{"type":"Feature","properties":{"ubigeo":"110206","nombre":"Grocio Prado"},"geometry":{"type":"Polygon","coordinates":[[[-76.14425,-13.41509],[-76.16922,-13.40926],[-76.18437,-13.41404],[-76.18829,-13.41307],[-76.19536,-13.4169],[-76.20186,-13.39556],[-76.21365,-13.37079],[-76.22269,-13.35507],[-76.24479,-13.32351],[-76.23373,-13.3158],[-76.20732,-13.3061],[-76.19979,-13.2959],[-76.18878,-13.26977],[-76.18583,-13.25933],[-76.17187,-13.24279],[-76.16223,-13.21847],[-76.15525,-13.1922],[-76.13974,-13.18017],[-76.12847,-13.17754],[-76.11452,-13.16513],[-76.10399,-13.16801],[-76.11801,-13.18402],[-76.12907,-13.18608],[-76.13395,-13.19855],[-76.13993,-13.20323],[-76.13961,-13.22003],[-76.1428,-13.22779],[-76.13712,-13.22829],[-76.13571,-13.23795],[-76.13077,-13.24483],[-76.12156,-13.24453],[-76.11472,-13.25453],[-76.11175,-13.26787],[-76.10067,-13.2712],[-76.10337,-13.28624],[-76.1206,-13.29576],[-76.13209,-13.29517],[-76.13649,-13.30088],[-76.1347,-13.31532],[-76.13843,-13.32779],[-76.14807,-13.34463],[-76.1305,-13.37721],[-76.14457,-13.38521],[-76.15308,-13.39325],[-76.1399,-13.40456],[-76.14425,-13.41509]]]}},{"type":"Feature","properties":{"ubigeo":"110207","nombre":"Pueblo Nuevo"},"geometry":{"type":"Polygon","coordinates":[[[-76.1399,-13.40456],[-76.15308,-13.39325],[-76.14457,-13.38521],[-76.1305,-13.37721],[-76.14807,-13.34463],[-76.13843,-13.32779],[-76.1347,-13.31532],[-76.13649,-13.30088],[-76.13209,-13.29517],[-76.1206,-13.29576],[-76.10337,-13.28624],[-76.10067,-13.2712],[-76.11175,-13.26787],[-76.11472,-13.25453],[-76.12156,-13.24453],[-76.13077,-13.24483],[-76.13571,-13.23795],[-76.13712,-13.22829],[-76.1428,-13.22779],[-76.13961,-13.22003],[-76.13993,-13.20323],[-76.13395,-13.19855],[-76.12907,-13.18608],[-76.11801,-13.18402],[-76.10399,-13.16801],[-76.11452,-13.16513],[-76.09962,-13.15421],[-76.09582,-13.14722],[-76.08512,-13.13902],[-76.08512,-13.13902],[-76.07118,-13.14498],[-76.06383,-13.14235],[-76.06507,-13.15481],[-76.06258,-13.17006],[-76.05688,-13.17082],[-76.04996,-13.17913],[-76.03429,-13.17811],[-76.01997,-13.17489],[-76.02303,-13.18359],[-76.01926,-13.19612],[-76.0123,-13.20289],[-76.00247,-13.20614],[-75.99534,-13.2158],[-76.00829,-13.22642],[-76.01305,-13.22718],[-76.01891,-13.23672],[-76.03001,-13.24376],[-76.05626,-13.2533],[-76.06757,-13.26067],[-76.07893,-13.28133],[-76.07873,-13.291],[-76.08442,-13.29848],[-76.08064,-13.30161],[-76.08091,-13.31052],[-76.07189,-13.31527],[-76.06399,-13.32806],[-76.07043,-13.33253],[-76.07512,-13.34326],[-76.0871,-13.35734],[-76.08899,-13.36245],[-76.12143,-13.40834],[-76.12738,-13.41145],[-76.1399,-13.40456]]]}},{"type":"Feature","properties":{"ubigeo":"110208","nombre":"San Juan de Yanac"},"geometry":{"type":"Polygon","coordinates":[[[-75.70785,-13.14272],[-75.69855,-13.14226],[-75.69377,-13.1475],[-75.69463,-13.15694],[-75.70065,-13.16679],[-75.69891,-13.1708],[-75.70634,-13.18676],[-75.69173,-13.20717],[-75.68895,-13.21427],[-75.69696,-13.21888],[-75.70244,-13.22689],[-75.70067,-13.2423],[-75.70532,-13.24626],[-75.70512,-13.27251],[-75.70648,-13.28829],[-75.73093,-13.31031],[-75.74375,-13.31359],[-75.75317,-13.30911],[-75.76044,-13.31732],[-75.78261,-13.33166],[-75.786,-13.33123],[-75.796,-13.3394],[-75.8058,-13.33859],[-75.81322,-13.33163],[-75.81751,-13.31758],[-75.82278,-13.31662],[-75.8282,-13.30283],[-75.83428,-13.2939],[-75.83575,-13.28445],[-75.84075,-13.28037],[-75.84511,-13.26995],[-75.85134,-13.26827],[-75.86306,-13.2576],[-75.8662,-13.27195],[-75.87096,-13.27837],[-75.8968,-13.29077],[-75.89886,-13.29728],[-75.90961,-13.30401],[-75.91353,-13.31473],[-75.92037,-13.32343],[-75.92683,-13.32333],[-75.93648,-13.31787],[-75.94806,-13.32288],[-75.95542,-13.31851],[-75.96206,-13.31972],[-75.95601,-13.29182],[-75.94664,-13.27841],[-75.93075,-13.26344],[-75.92804,-13.24186],[-75.91368,-13.23549],[-75.91298,-13.22536],[-75.90555,-13.21529],[-75.90675,-13.20721],[-75.90227,-13.19464],[-75.90315,-13.18432],[-75.89875,-13.17244],[-75.90235,-13.16099],[-75.90212,-13.15169],[-75.89228,-13.14973],[-75.87804,-13.14366],[-75.87436,-13.13088],[-75.86004,-13.10753],[-75.85476,-13.10644],[-75.84089,-13.09471],[-75.83935,-13.08436],[-75.8323,-13.08103],[-75.82581,-13.08597],[-75.81642,-13.08],[-75.8046,-13.07819],[-75.80044,-13.08348],[-75.81175,-13.1087],[-75.80946,-13.11644],[-75.81464,-13.13318],[-75.8154,-13.14799],[-75.80542,-13.16478],[-75.80173,-13.16396],[-75.77535,-13.17375],[-75.76689,-13.17337],[-75.75754,-13.16604],[-75.74243,-13.16152],[-75.73003,-13.15086],[-75.71934,-13.15032],[-75.70785,-13.14272]]]}},{"type":"Feature","properties":{"ubigeo":"110209","nombre":"San Pedro de Huacarpana"},"geometry":{"type":"Polygon","coordinates":[[[-75.65799,-13.08233],[-75.66677,-13.07536],[-75.68058,-13.07036],[-75.67517,-13.05654],[-75.67631,-13.0427],[-75.68146,-13.04056],[-75.69275,-13.04896],[-75.69564,-13.05823],[-75.69496,-13.07479],[-75.70552,-13.08044],[-75.70509,-13.08719],[-75.71877,-13.10976],[-75.71213,-13.11617],[-75.70827,-13.13245],[-75.70785,-13.14272],[-75.71934,-13.15032],[-75.73003,-13.15086],[-75.74243,-13.16152],[-75.75754,-13.16604],[-75.76689,-13.17337],[-75.77535,-13.17375],[-75.80173,-13.16396],[-75.80542,-13.16478],[-75.8154,-13.14799],[-75.81464,-13.13318],[-75.80946,-13.11644],[-75.81175,-13.1087],[-75.80044,-13.08348],[-75.8046,-13.07819],[-75.80206,-13.06043],[-75.79341,-13.05584],[-75.78235,-13.04433],[-75.77248,-13.03786],[-75.76459,-13.01824],[-75.75215,-13.02816],[-75.744,-13.02542],[-75.72546,-13.03812],[-75.70701,-13.03959],[-75.69055,-13.03511],[-75.68607,-13.02532],[-75.67036,-13.02261],[-75.6649,-13.01202],[-75.66874,-13.00351],[-75.66324,-12.99404],[-75.65161,-12.99416],[-75.63424,-12.98539],[-75.6375,-12.97324],[-75.62632,-12.96629],[-75.61439,-12.96493],[-75.60901,-12.96847],[-75.60261,-12.98018],[-75.61021,-12.99687],[-75.60841,-13.00299],[-75.61947,-13.0137],[-75.62098,-13.01967],[-75.62834,-13.02003],[-75.63859,-13.02997],[-75.6363,-13.0437],[-75.62861,-13.05707],[-75.65324,-13.07091],[-75.65799,-13.08233]]]}},{"type":"Feature","properties":{"ubigeo":"110210","nombre":"Sunampe"},"geometry":{"type":"Polygon","coordinates":[[[-76.14065,-13.44014],[-76.1463,-13.43746],[-76.15827,-13.43807],[-76.17109,-13.44755],[-76.17764,-13.45079],[-76.18158,-13.43193],[-76.18829,-13.41307],[-76.18437,-13.41404],[-76.16922,-13.40926],[-76.14425,-13.41509],[-76.13645,-13.42416],[-76.14065,-13.44014]]]}},{"type":"Feature","properties":{"ubigeo":"110211","nombre":"Tambo de Mora"},"geometry":{"type":"Polygon","coordinates":[[[-76.18935,-13.49984],[-76.19109,-13.47125],[-76.18766,-13.45896],[-76.19037,-13.43493],[-76.19536,-13.4169],[-76.18829,-13.41307],[-76.18158,-13.43193],[-76.17764,-13.45079],[-76.17109,-13.44755],[-76.16705,-13.45423],[-76.17423,-13.45896],[-76.17468,-13.47805],[-76.17934,-13.48766],[-76.18008,-13.50082],[-76.18935,-13.49984]]]}},{"type":"Feature","properties":{"ubigeo":"110301","nombre":"Nasca"},"geometry":{"type":"Polygon","coordinates":[[[-75.00118,-15.00314],[-75.11363,-15.00407],[-75.19222,-15.00131],[-75.24956,-15.00304],[-75.24989,-14.98901],[-75.25909,-14.98716],[-75.26676,-14.99112],[-75.27545,-14.98399],[-75.28218,-14.9841],[-75.28347,-14.97663],[-75.30135,-14.95511],[-75.3012,-14.94168],[-75.29854,-14.9344],[-75.28674,-14.91897],[-75.26316,-14.89832],[-75.25963,-14.8876],[-75.22929,-14.85681],[-75.22481,-14.84503],[-75.2277,-14.83852],[-75.22461,-14.82769],[-75.21216,-14.81495],[-75.21843,-14.80162],[-75.22069,-14.78586],[-75.22818,-14.77609],[-75.22668,-14.7665],[-75.21646,-14.76646],[-75.20737,-14.7733],[-75.19078,-14.77131],[-75.17579,-14.77235],[-75.1659,-14.77054],[-75.15503,-14.76039],[-75.14193,-14.75224],[-75.14062,-14.74748],[-75.1317,-14.73974],[-75.12194,-14.71513],[-75.10732,-14.72038],[-75.0914,-14.71635],[-75.04422,-14.76514],[-75.02465,-14.78676],[-75.0006,-14.80366],[-74.99626,-14.7956],[-74.99696,-14.77346],[-74.98557,-14.77426],[-74.97429,-14.76623],[-74.97388,-14.76185],[-74.96416,-14.75215],[-74.95849,-14.75599],[-74.94532,-14.74482],[-74.94103,-14.74606],[-74.91992,-14.73637],[-74.9088,-14.73922],[-74.90241,-14.73684],[-74.8967,-14.72923],[-74.89135,-14.72889],[-74.87996,-14.71849],[-74.87911,-14.71303],[-74.86385,-14.70688],[-74.85513,-14.70955],[-74.84384,-14.70311],[-74.84574,-14.70798],[-74.83001,-14.72005],[-74.8274,-14.73403],[-74.81587,-14.73964],[-74.80999,-14.74824],[-74.8027,-14.75215],[-74.79005,-14.73921],[-74.77642,-14.72893],[-74.74358,-14.72601],[-74.73185,-14.71439],[-74.71587,-14.70952],[-74.72758,-14.72031],[-74.73548,-14.73199],[-74.73448,-14.74085],[-74.73853,-14.75373],[-74.75029,-14.76153],[-74.75601,-14.77113],[-74.7561,-14.7836],[-74.76462,-14.7902],[-74.75694,-14.79505],[-74.74646,-14.81362],[-74.73275,-14.81109],[-74.72029,-14.81246],[-74.71598,-14.81941],[-74.72686,-14.82344],[-74.73959,-14.82419],[-74.7515,-14.82755],[-74.75468,-14.83434],[-74.7506,-14.84225],[-74.73221,-14.84237],[-74.73836,-14.84703],[-74.73612,-14.851],[-74.74992,-14.85265],[-74.74992,-14.85886],[-74.75648,-14.85854],[-74.76829,-14.86412],[-74.77614,-14.87399],[-74.79528,-14.87494],[-74.80066,-14.8711],[-74.80949,-14.87266],[-74.82852,-14.86742],[-74.84157,-14.86604],[-74.86167,-14.87378],[-74.87213,-14.87199],[-74.87456,-14.86818],[-74.89205,-14.86652],[-74.89496,-14.87012],[-74.90498,-14.8685],[-74.91354,-14.85702],[-74.915,-14.85134],[-74.92531,-14.84499],[-74.94279,-14.84192],[-74.94296,-14.83739],[-74.95205,-14.83708],[-74.96236,-14.84283],[-74.98282,-14.84513],[-74.97874,-14.87036],[-74.98373,-14.89829],[-74.98795,-14.92913],[-74.98555,-14.96777],[-74.98902,-14.97929],[-74.99519,-14.9863],[-75.00118,-15.00314]]]}},{"type":"Feature","properties":{"ubigeo":"110302","nombre":"Changuillo"},"geometry":{"type":"Polygon","coordinates":[[[-75.14221,-14.67884],[-75.15342,-14.68011],[-75.17036,-14.67365],[-75.17952,-14.67308],[-75.19811,-14.66357],[-75.20104,-14.66874],[-75.20269,-14.69059],[-75.19521,-14.69495],[-75.20204,-14.71992],[-75.21361,-14.72502],[-75.22674,-14.73473],[-75.23966,-14.74154],[-75.22668,-14.7665],[-75.22818,-14.77609],[-75.22069,-14.78586],[-75.21843,-14.80162],[-75.21216,-14.81495],[-75.22461,-14.82769],[-75.2277,-14.83852],[-75.22481,-14.84503],[-75.22929,-14.85681],[-75.25963,-14.8876],[-75.26316,-14.89832],[-75.28674,-14.91897],[-75.29854,-14.9344],[-75.3012,-14.94168],[-75.30135,-14.95511],[-75.28347,-14.97663],[-75.28218,-14.9841],[-75.27545,-14.98399],[-75.26676,-14.99112],[-75.25909,-14.98716],[-75.24989,-14.98901],[-75.24956,-15.00304],[-75.44148,-15.00295],[-75.4753,-14.98416],[-75.5,-14.96697],[-75.50428,-14.95994],[-75.5,-14.9419],[-75.49275,-14.93965],[-75.49404,-14.92966],[-75.48147,-14.92182],[-75.47371,-14.92326],[-75.46373,-14.91671],[-75.45856,-14.90934],[-75.44,-14.89492],[-75.44364,-14.88781],[-75.43839,-14.88216],[-75.43791,-14.87096],[-75.43241,-14.84816],[-75.42591,-14.83371],[-75.42571,-14.81368],[-75.41577,-14.78814],[-75.41608,-14.77474],[-75.42123,-14.7668],[-75.43165,-14.75769],[-75.43267,-14.74996],[-75.42732,-14.73537],[-75.4236,-14.71677],[-75.42644,-14.71012],[-75.42418,-14.70329],[-75.41747,-14.69727],[-75.41062,-14.68524],[-75.41452,-14.66367],[-75.41973,-14.64984],[-75.42634,-14.64306],[-75.42358,-14.63766],[-75.41343,-14.63132],[-75.39954,-14.6269],[-75.37653,-14.63924],[-75.37088,-14.63658],[-75.3671,-14.62498],[-75.36089,-14.62073],[-75.36862,-14.6069],[-75.36835,-14.59264],[-75.36369,-14.58209],[-75.36102,-14.58531],[-75.36286,-14.59668],[-75.36013,-14.59944],[-75.33888,-14.60848],[-75.3303,-14.61536],[-75.29345,-14.59969],[-75.2773,-14.59863],[-75.27349,-14.59422],[-75.2489,-14.58806],[-75.2392,-14.59102],[-75.22912,-14.60644],[-75.22556,-14.62135],[-75.2264,-14.6447],[-75.21877,-14.64639],[-75.18558,-14.63689],[-75.17565,-14.65355],[-75.15485,-14.67702],[-75.14221,-14.67884]]]}},{"type":"Feature","properties":{"ubigeo":"110303","nombre":"El Ingenio"},"geometry":{"type":"Polygon","coordinates":[[[-74.78817,-14.61556],[-74.79676,-14.6243],[-74.81045,-14.63161],[-74.81814,-14.63982],[-74.82863,-14.65622],[-74.84658,-14.66615],[-74.8487,-14.67349],[-74.84593,-14.68938],[-74.83792,-14.69634],[-74.84384,-14.70311],[-74.85513,-14.70955],[-74.86385,-14.70688],[-74.87911,-14.71303],[-74.87996,-14.71849],[-74.89135,-14.72889],[-74.8967,-14.72923],[-74.90241,-14.73684],[-74.9088,-14.73922],[-74.91992,-14.73637],[-74.94103,-14.74606],[-74.94532,-14.74482],[-74.95849,-14.75599],[-74.96416,-14.75215],[-74.97388,-14.76185],[-74.97429,-14.76623],[-74.98557,-14.77426],[-74.99696,-14.77346],[-74.99626,-14.7956],[-75.0006,-14.80366],[-75.02465,-14.78676],[-75.04422,-14.76514],[-75.0914,-14.71635],[-75.10732,-14.72038],[-75.12194,-14.71513],[-75.1317,-14.73974],[-75.14062,-14.74748],[-75.14193,-14.75224],[-75.15503,-14.76039],[-75.1659,-14.77054],[-75.17579,-14.77235],[-75.19078,-14.77131],[-75.20737,-14.7733],[-75.21646,-14.76646],[-75.22668,-14.7665],[-75.23966,-14.74154],[-75.22674,-14.73473],[-75.21361,-14.72502],[-75.20204,-14.71992],[-75.19521,-14.69495],[-75.20269,-14.69059],[-75.20104,-14.66874],[-75.19811,-14.66357],[-75.17952,-14.67308],[-75.17036,-14.67365],[-75.15342,-14.68011],[-75.14221,-14.67884],[-75.13914,-14.6665],[-75.13352,-14.65854],[-75.13265,-14.64443],[-75.11901,-14.63315],[-75.11605,-14.62761],[-75.09516,-14.62396],[-75.07995,-14.60231],[-75.08971,-14.58915],[-75.089,-14.57666],[-75.08009,-14.56901],[-75.06586,-14.57448],[-75.06184,-14.59721],[-75.06349,-14.6075],[-75.0599,-14.62262],[-75.05199,-14.62672],[-75.03416,-14.61129],[-75.01831,-14.6105],[-75.01003,-14.60616],[-74.99679,-14.61181],[-74.97802,-14.60237],[-74.95892,-14.60645],[-74.94755,-14.58854],[-74.94721,-14.58189],[-74.93322,-14.57664],[-74.92441,-14.56841],[-74.91339,-14.56562],[-74.90368,-14.54781],[-74.89542,-14.54508],[-74.88425,-14.54548],[-74.87534,-14.55527],[-74.88396,-14.57622],[-74.87845,-14.58752],[-74.86807,-14.59689],[-74.86014,-14.60741],[-74.85277,-14.61181],[-74.82924,-14.61259],[-74.81134,-14.61524],[-74.78817,-14.61556]]]}},{"type":"Feature","properties":{"ubigeo":"110304","nombre":"Marcona"},"geometry":{"type":"Polygon","coordinates":[[[-74.76229,-15.09806],[-74.7649,-15.10234],[-74.77783,-15.10768],[-74.79137,-15.12192],[-74.81592,-15.1395],[-74.83605,-15.14558],[-74.85521,-15.15383],[-74.8706,-15.15123],[-74.88852,-15.16123],[-74.89985,-15.17395],[-74.9172,-15.18178],[-74.92931,-15.1924],[-74.93987,-15.20601],[-74.9459,-15.23149],[-74.95902,-15.24605],[-74.96364,-15.2539],[-74.96442,-15.285],[-74.9682,-15.29942],[-74.98241,-15.31683],[-74.99498,-15.32251],[-75.00388,-15.33023],[-75.00703,-15.339],[-75.01656,-15.3511],[-75.01635,-15.36445],[-75.01849,-15.38241],[-75.02892,-15.40428],[-75.04555,-15.43033],[-75.04965,-15.4345],[-75.06111,-15.43528],[-75.07333,-15.44294],[-75.07108,-15.43563],[-75.08257,-15.42369],[-75.09856,-15.42111],[-75.1076,-15.41186],[-75.12448,-15.40565],[-75.1404,-15.40717],[-75.142,-15.3982],[-75.15018,-15.39126],[-75.15818,-15.39292],[-75.1596,-15.38085],[-75.17619,-15.37421],[-75.18589,-15.36724],[-75.19453,-15.36815],[-75.19286,-15.36281],[-75.18307,-15.3549],[-75.16207,-15.35881],[-75.15568,-15.3552],[-75.1512,-15.33894],[-75.15539,-15.32375],[-75.16882,-15.30739],[-75.17908,-15.30351],[-75.19678,-15.29106],[-75.20922,-15.29002],[-75.21554,-15.29248],[-75.21898,-15.28475],[-75.22967,-15.28492],[-75.23062,-15.2772],[-75.24037,-15.27336],[-75.23724,-15.2676],[-75.2478,-15.26139],[-75.24865,-15.2553],[-75.25797,-15.25668],[-75.26188,-15.24979],[-75.24438,-15.25588],[-75.22485,-15.25858],[-75.21892,-15.25017],[-75.21662,-15.23142],[-75.2246,-15.21463],[-75.23221,-15.20277],[-75.23913,-15.19923],[-75.256,-15.1822],[-75.27468,-15.16832],[-75.31687,-15.14993],[-75.32859,-15.14668],[-75.33904,-15.14712],[-75.34337,-15.15615],[-75.3495,-15.15833],[-75.34784,-15.14912],[-75.35567,-15.14045],[-75.36355,-15.14296],[-75.36913,-15.15001],[-75.37302,-15.14715],[-75.36865,-15.14079],[-75.36921,-15.13368],[-75.37569,-15.12103],[-75.38413,-15.11641],[-75.38488,-15.10598],[-75.39293,-15.09873],[-75.39479,-15.08067],[-75.40322,-15.0704],[-75.40921,-15.06799],[-75.40939,-15.06123],[-75.41452,-15.05294],[-75.41357,-15.04312],[-75.42308,-15.03554],[-75.4232,-15.02996],[-75.42998,-15.02871],[-75.43788,-15.01583],[-75.44148,-15.00295],[-75.24956,-15.00304],[-75.19222,-15.00131],[-75.11363,-15.00407],[-75.00118,-15.00314],[-74.90763,-14.99801],[-74.83971,-14.99674],[-74.80642,-15.00154],[-74.76847,-14.99916],[-74.75157,-15.00053],[-74.74013,-14.99795],[-74.72461,-14.98775],[-74.70575,-14.99547],[-74.68146,-15.00078],[-74.67532,-14.99563],[-74.66569,-14.9979],[-74.66449,-15.00273],[-74.66719,-15.02803],[-74.66427,-15.0447],[-74.67097,-15.05497],[-74.68689,-15.06148],[-74.69756,-15.06278],[-74.70453,-15.07104],[-74.72961,-15.0854],[-74.73584,-15.08479],[-74.75748,-15.09258],[-74.76229,-15.09806]]]}},{"type":"Feature","properties":{"ubigeo":"110305","nombre":"Vista Alegre"},"geometry":{"type":"Polygon","coordinates":[[[-74.66569,-14.9979],[-74.67532,-14.99563],[-74.68146,-15.00078],[-74.70575,-14.99547],[-74.72461,-14.98775],[-74.74013,-14.99795],[-74.75157,-15.00053],[-74.76847,-14.99916],[-74.80642,-15.00154],[-74.83971,-14.99674],[-74.90763,-14.99801],[-75.00118,-15.00314],[-74.99519,-14.9863],[-74.98902,-14.97929],[-74.98555,-14.96777],[-74.98795,-14.92913],[-74.98373,-14.89829],[-74.97874,-14.87036],[-74.98282,-14.84513],[-74.96236,-14.84283],[-74.95205,-14.83708],[-74.94296,-14.83739],[-74.94279,-14.84192],[-74.92531,-14.84499],[-74.915,-14.85134],[-74.91354,-14.85702],[-74.90498,-14.8685],[-74.89496,-14.87012],[-74.89205,-14.86652],[-74.87456,-14.86818],[-74.87213,-14.87199],[-74.86167,-14.87378],[-74.84157,-14.86604],[-74.82852,-14.86742],[-74.80949,-14.87266],[-74.80066,-14.8711],[-74.79528,-14.87494],[-74.77614,-14.87399],[-74.76829,-14.86412],[-74.75648,-14.85854],[-74.74992,-14.85886],[-74.74992,-14.85265],[-74.73612,-14.851],[-74.73836,-14.84703],[-74.73221,-14.84237],[-74.72019,-14.83663],[-74.69384,-14.83816],[-74.68982,-14.84818],[-74.68181,-14.85338],[-74.67582,-14.86207],[-74.68107,-14.87308],[-74.67395,-14.87869],[-74.66392,-14.89234],[-74.66345,-14.90793],[-74.67313,-14.91817],[-74.68471,-14.92564],[-74.68548,-14.92947],[-74.66554,-14.9557],[-74.66417,-14.96352],[-74.65402,-14.97431],[-74.64643,-14.97618],[-74.64773,-14.98198],[-74.66569,-14.9979]]]}},{"type":"Feature","properties":{"ubigeo":"110401","nombre":"Palpa"},"geometry":{"type":"Polygon","coordinates":[[[-75.09647,-14.48779],[-75.09074,-14.49544],[-75.09153,-14.52118],[-75.08796,-14.52786],[-75.08952,-14.53227],[-75.09901,-14.53882],[-75.11063,-14.53493],[-75.1216,-14.54605],[-75.14444,-14.55273],[-75.15059,-14.5441],[-75.16537,-14.54423],[-75.17281,-14.55015],[-75.18581,-14.55243],[-75.19635,-14.54596],[-75.21185,-14.54565],[-75.22276,-14.56021],[-75.21805,-14.54216],[-75.20452,-14.5275],[-75.18641,-14.51711],[-75.17472,-14.5064],[-75.16759,-14.4942],[-75.17493,-14.48445],[-75.16608,-14.47465],[-75.1556,-14.45771],[-75.15432,-14.44226],[-75.14552,-14.43582],[-75.14037,-14.42475],[-75.13983,-14.41591],[-75.12575,-14.41792],[-75.11914,-14.42113],[-75.1214,-14.42752],[-75.10712,-14.43355],[-75.10127,-14.4332],[-75.08897,-14.42641],[-75.07693,-14.42603],[-75.06824,-14.42897],[-75.06293,-14.42686],[-75.05299,-14.43115],[-75.06508,-14.4457],[-75.07019,-14.44916],[-75.06846,-14.45836],[-75.08177,-14.47113],[-75.09489,-14.47897],[-75.09647,-14.48779]]]}},{"type":"Feature","properties":{"ubigeo":"110402","nombre":"Llipata"},"geometry":{"type":"Polygon","coordinates":[[[-75.14221,-14.67884],[-75.15485,-14.67702],[-75.17565,-14.65355],[-75.18558,-14.63689],[-75.21877,-14.64639],[-75.2264,-14.6447],[-75.22556,-14.62135],[-75.22912,-14.60644],[-75.2392,-14.59102],[-75.2489,-14.58806],[-75.25176,-14.56615],[-75.24261,-14.55656],[-75.23184,-14.56269],[-75.22276,-14.56021],[-75.21185,-14.54565],[-75.19635,-14.54596],[-75.18581,-14.55243],[-75.17281,-14.55015],[-75.16537,-14.54423],[-75.15059,-14.5441],[-75.14444,-14.55273],[-75.1216,-14.54605],[-75.11063,-14.53493],[-75.09901,-14.53882],[-75.08952,-14.53227],[-75.08796,-14.52786],[-75.07874,-14.53165],[-75.0691,-14.52693],[-75.06764,-14.53844],[-75.08067,-14.55118],[-75.07842,-14.55592],[-75.08009,-14.56901],[-75.089,-14.57666],[-75.08971,-14.58915],[-75.07995,-14.60231],[-75.09516,-14.62396],[-75.11605,-14.62761],[-75.11901,-14.63315],[-75.13265,-14.64443],[-75.13352,-14.65854],[-75.13914,-14.6665],[-75.14221,-14.67884]]]}},{"type":"Feature","properties":{"ubigeo":"110403","nombre":"Río Grande"},"geometry":{"type":"Polygon","coordinates":[[[-75.0322,-14.26568],[-75.03766,-14.26978],[-75.03998,-14.27788],[-75.0497,-14.28654],[-75.05517,-14.28719],[-75.06336,-14.29543],[-75.07341,-14.299],[-75.08138,-14.29714],[-75.08638,-14.30895],[-75.09393,-14.31242],[-75.1081,-14.34794],[-75.10509,-14.35878],[-75.11672,-14.37411],[-75.12004,-14.3837],[-75.12596,-14.38854],[-75.13208,-14.39972],[-75.13154,-14.40483],[-75.13983,-14.41591],[-75.14037,-14.42475],[-75.14552,-14.43582],[-75.15432,-14.44226],[-75.1556,-14.45771],[-75.16608,-14.47465],[-75.17493,-14.48445],[-75.16759,-14.4942],[-75.17472,-14.5064],[-75.18641,-14.51711],[-75.20452,-14.5275],[-75.21805,-14.54216],[-75.22276,-14.56021],[-75.23184,-14.56269],[-75.24261,-14.55656],[-75.2463,-14.53816],[-75.24461,-14.52885],[-75.23464,-14.51215],[-75.23363,-14.50155],[-75.22781,-14.49634],[-75.22332,-14.47518],[-75.21622,-14.47116],[-75.2087,-14.43965],[-75.19941,-14.42927],[-75.19443,-14.41303],[-75.19344,-14.38847],[-75.18206,-14.38339],[-75.17635,-14.36821],[-75.16935,-14.36456],[-75.17121,-14.35487],[-75.17008,-14.33272],[-75.17222,-14.32232],[-75.17967,-14.31725],[-75.18631,-14.29794],[-75.19336,-14.29347],[-75.18957,-14.28373],[-75.18942,-14.27402],[-75.1712,-14.25892],[-75.1655,-14.22891],[-75.16785,-14.22392],[-75.1644,-14.21629],[-75.15487,-14.20463],[-75.15836,-14.19483],[-75.13794,-14.18802],[-75.11974,-14.19179],[-75.11465,-14.19715],[-75.10246,-14.20009],[-75.09018,-14.21419],[-75.08872,-14.22982],[-75.07367,-14.23561],[-75.0721,-14.24593],[-75.06487,-14.25232],[-75.05512,-14.25521],[-75.03951,-14.25417],[-75.0322,-14.26568]]]}},{"type":"Feature","properties":{"ubigeo":"110404","nombre":"Santa Cruz"},"geometry":{"type":"Polygon","coordinates":[[[-75.24261,-14.55656],[-75.25176,-14.56615],[-75.2489,-14.58806],[-75.27349,-14.59422],[-75.2773,-14.59863],[-75.29345,-14.59969],[-75.3303,-14.61536],[-75.33888,-14.60848],[-75.36013,-14.59944],[-75.36286,-14.59668],[-75.36102,-14.58531],[-75.36369,-14.58209],[-75.36,-14.56579],[-75.3521,-14.56222],[-75.33778,-14.54869],[-75.33557,-14.54367],[-75.32094,-14.53686],[-75.31685,-14.53078],[-75.31285,-14.5112],[-75.31002,-14.48768],[-75.30125,-14.47254],[-75.28803,-14.46533],[-75.28031,-14.45597],[-75.26763,-14.45746],[-75.26495,-14.44663],[-75.25281,-14.44463],[-75.24467,-14.4396],[-75.24973,-14.42831],[-75.24015,-14.4166],[-75.23955,-14.41048],[-75.23282,-14.40566],[-75.22792,-14.39541],[-75.22474,-14.36549],[-75.21838,-14.35281],[-75.23547,-14.34801],[-75.23788,-14.3426],[-75.23687,-14.32845],[-75.23979,-14.32078],[-75.23896,-14.30637],[-75.23262,-14.28971],[-75.22113,-14.28961],[-75.20927,-14.29373],[-75.19336,-14.29347],[-75.18631,-14.29794],[-75.17967,-14.31725],[-75.17222,-14.32232],[-75.17008,-14.33272],[-75.17121,-14.35487],[-75.16935,-14.36456],[-75.17635,-14.36821],[-75.18206,-14.38339],[-75.19344,-14.38847],[-75.19443,-14.41303],[-75.19941,-14.42927],[-75.2087,-14.43965],[-75.21622,-14.47116],[-75.22332,-14.47518],[-75.22781,-14.49634],[-75.23363,-14.50155],[-75.23464,-14.51215],[-75.24461,-14.52885],[-75.2463,-14.53816],[-75.24261,-14.55656]]]}},{"type":"Feature","properties":{"ubigeo":"110405","nombre":"Tibillo"},"geometry":{"type":"Polygon","coordinates":[[[-75.09018,-14.21419],[-75.10246,-14.20009],[-75.11465,-14.19715],[-75.11974,-14.19179],[-75.13794,-14.18802],[-75.15836,-14.19483],[-75.15487,-14.20463],[-75.1644,-14.21629],[-75.16785,-14.22392],[-75.1655,-14.22891],[-75.1712,-14.25892],[-75.18942,-14.27402],[-75.18957,-14.28373],[-75.19336,-14.29347],[-75.20927,-14.29373],[-75.22113,-14.28961],[-75.23262,-14.28971],[-75.23575,-14.28264],[-75.23112,-14.27021],[-75.2315,-14.25947],[-75.22938,-14.23179],[-75.23699,-14.21466],[-75.23538,-14.20079],[-75.23077,-14.19062],[-75.22968,-14.17293],[-75.23813,-14.15722],[-75.24304,-14.15243],[-75.24087,-14.14046],[-75.23353,-14.13081],[-75.22617,-14.12641],[-75.22446,-14.10055],[-75.22944,-14.08917],[-75.23972,-14.08405],[-75.23321,-14.0728],[-75.21722,-14.06258],[-75.21055,-14.05044],[-75.19163,-14.05294],[-75.18267,-14.0561],[-75.16568,-14.07253],[-75.14917,-14.06442],[-75.12678,-14.05088],[-75.1177,-14.03879],[-75.10884,-14.03288],[-75.10399,-14.05046],[-75.0885,-14.08157],[-75.0696,-14.07985],[-75.06251,-14.09064],[-75.06249,-14.1073],[-75.05743,-14.12395],[-75.05905,-14.12962],[-75.06304,-14.1351],[-75.06741,-14.1512],[-75.07638,-14.16591],[-75.07837,-14.18638],[-75.08577,-14.20961],[-75.09018,-14.21419]]]}},{"type":"Feature","properties":{"ubigeo":"110501","nombre":"Pisco"},"geometry":{"type":"Polygon","coordinates":[[[-76.15327,-13.71292],[-76.19436,-13.71099],[-76.19593,-13.72661],[-76.202,-13.72836],[-76.20632,-13.72011],[-76.2223,-13.72097],[-76.22235,-13.69977],[-76.21953,-13.68072],[-76.21615,-13.67883],[-76.19599,-13.68681],[-76.16872,-13.68971],[-76.15819,-13.68758],[-76.15165,-13.69957],[-76.15327,-13.71292]]]}},{"type":"Feature","properties":{"ubigeo":"110502","nombre":"Huancano"},"geometry":{"type":"Polygon","coordinates":[[[-75.47731,-13.52548],[-75.49582,-13.56705],[-75.50969,-13.56541],[-75.51096,-13.5889],[-75.51948,-13.60285],[-75.51401,-13.61709],[-75.49239,-13.63536],[-75.48487,-13.65097],[-75.48859,-13.6761],[-75.49621,-13.67333],[-75.50165,-13.68713],[-75.50758,-13.68654],[-75.51591,-13.69639],[-75.51946,-13.7192],[-75.52907,-13.72843],[-75.52944,-13.74007],[-75.53737,-13.74588],[-75.54602,-13.74364],[-75.55458,-13.74957],[-75.56321,-13.74758],[-75.56812,-13.74219],[-75.57301,-13.73534],[-75.58129,-13.73067],[-75.58457,-13.71312],[-75.58239,-13.69662],[-75.58917,-13.69356],[-75.59148,-13.68461],[-75.60573,-13.68106],[-75.61008,-13.67009],[-75.61784,-13.67098],[-75.63067,-13.66525],[-75.63689,-13.65865],[-75.64853,-13.65814],[-75.65771,-13.66508],[-75.67028,-13.66335],[-75.67726,-13.66736],[-75.67895,-13.67613],[-75.69256,-13.68531],[-75.70821,-13.67547],[-75.72337,-13.67239],[-75.72646,-13.66835],[-75.74088,-13.66773],[-75.74954,-13.65938],[-75.75035,-13.65183],[-75.75729,-13.64171],[-75.77436,-13.63463],[-75.7822,-13.63364],[-75.78821,-13.63712],[-75.8057,-13.62864],[-75.81446,-13.61956],[-75.81432,-13.61322],[-75.80696,-13.60465],[-75.80547,-13.58988],[-75.81384,-13.57945],[-75.79901,-13.57504],[-75.78456,-13.56728],[-75.78414,-13.55888],[-75.77292,-13.55558],[-75.76275,-13.54316],[-75.7605,-13.5206],[-75.75277,-13.514],[-75.75759,-13.50541],[-75.75559,-13.50053],[-75.73229,-13.49328],[-75.72434,-13.48358],[-75.7102,-13.47401],[-75.70593,-13.4684],[-75.70894,-13.45933],[-75.69754,-13.45216],[-75.68928,-13.43967],[-75.67646,-13.42972],[-75.66576,-13.43033],[-75.65339,-13.42775],[-75.63424,-13.41187],[-75.63049,-13.41485],[-75.61495,-13.4168],[-75.6136,-13.40958],[-75.60786,-13.4043],[-75.59897,-13.38999],[-75.58512,-13.40267],[-75.55785,-13.40292],[-75.54898,-13.40644],[-75.53892,-13.40501],[-75.53047,-13.38917],[-75.52235,-13.39134],[-75.50292,-13.36595],[-75.50324,-13.35277],[-75.49235,-13.3785],[-75.49981,-13.38908],[-75.49139,-13.39607],[-75.48633,-13.4139],[-75.47628,-13.42544],[-75.46578,-13.43216],[-75.47044,-13.44291],[-75.47344,-13.46326],[-75.46963,-13.47425],[-75.47045,-13.48426],[-75.48451,-13.50483],[-75.48372,-13.51419],[-75.49499,-13.52428],[-75.47731,-13.52548]]]}},{"type":"Feature","properties":{"ubigeo":"110503","nombre":"Humay"},"geometry":{"type":"Polygon","coordinates":[[[-75.56812,-13.74219],[-75.57658,-13.75347],[-75.58166,-13.75247],[-75.59075,-13.75778],[-75.59794,-13.7743],[-75.60846,-13.78596],[-75.61544,-13.78613],[-75.63089,-13.79581],[-75.64138,-13.79922],[-75.648,-13.80744],[-75.66236,-13.8124],[-75.67466,-13.81394],[-75.70165,-13.8172],[-75.71161,-13.82925],[-75.7259,-13.8361],[-75.74888,-13.83537],[-75.75258,-13.84261],[-75.76295,-13.8463],[-75.7738,-13.84312],[-75.78914,-13.85646],[-75.81401,-13.85306],[-75.83563,-13.84273],[-75.83928,-13.83779],[-75.85322,-13.83705],[-75.86423,-13.8468],[-75.88454,-13.85517],[-75.89556,-13.84748],[-75.92296,-13.84175],[-75.93735,-13.85009],[-75.94623,-13.84997],[-75.95376,-13.84538],[-75.95743,-13.84771],[-75.98884,-13.84046],[-75.99194,-13.83341],[-76.00133,-13.83833],[-76.00138,-13.82996],[-76.00772,-13.82157],[-76.01425,-13.80531],[-76.02608,-13.78815],[-76.04463,-13.7748],[-76.07962,-13.73226],[-76.08545,-13.69936],[-76.07625,-13.70312],[-76.04571,-13.70945],[-76.01419,-13.71543],[-76.00316,-13.71455],[-75.97452,-13.72322],[-75.95521,-13.73383],[-75.93432,-13.73604],[-75.9228,-13.72634],[-75.92985,-13.7118],[-75.93082,-13.70281],[-75.92118,-13.69053],[-75.92311,-13.67988],[-75.91874,-13.67039],[-75.92399,-13.64782],[-75.93626,-13.6365],[-75.93488,-13.63145],[-75.9202,-13.62498],[-75.89996,-13.62625],[-75.89549,-13.61504],[-75.88906,-13.61259],[-75.88106,-13.61704],[-75.87317,-13.61259],[-75.86385,-13.61143],[-75.83523,-13.62518],[-75.81446,-13.61956],[-75.8057,-13.62864],[-75.78821,-13.63712],[-75.7822,-13.63364],[-75.77436,-13.63463],[-75.75729,-13.64171],[-75.75035,-13.65183],[-75.74954,-13.65938],[-75.74088,-13.66773],[-75.72646,-13.66835],[-75.72337,-13.67239],[-75.70821,-13.67547],[-75.69256,-13.68531],[-75.67895,-13.67613],[-75.67726,-13.66736],[-75.67028,-13.66335],[-75.65771,-13.66508],[-75.64853,-13.65814],[-75.63689,-13.65865],[-75.63067,-13.66525],[-75.61784,-13.67098],[-75.61008,-13.67009],[-75.60573,-13.68106],[-75.59148,-13.68461],[-75.58917,-13.69356],[-75.58239,-13.69662],[-75.58457,-13.71312],[-75.58129,-13.73067],[-75.57301,-13.73534],[-75.56812,-13.74219]]]}},{"type":"Feature","properties":{"ubigeo":"110504","nombre":"Independencia"},"geometry":{"type":"Polygon","coordinates":[[[-76.04571,-13.70945],[-76.05038,-13.70142],[-76.06426,-13.69457],[-76.08665,-13.68668],[-76.09502,-13.67245],[-76.10171,-13.6719],[-76.09911,-13.62529],[-76.09815,-13.58689],[-76.09021,-13.57404],[-76.08747,-13.56408],[-76.07506,-13.56581],[-76.06675,-13.57278],[-76.04975,-13.57694],[-76.04029,-13.56446],[-76.03412,-13.56131],[-76.00667,-13.56097],[-75.98697,-13.57164],[-75.98507,-13.58115],[-75.97331,-13.59772],[-75.96397,-13.59956],[-75.96292,-13.61254],[-75.95754,-13.62042],[-75.94489,-13.61948],[-75.93488,-13.63145],[-75.93626,-13.6365],[-75.92399,-13.64782],[-75.91874,-13.67039],[-75.92311,-13.67988],[-75.92118,-13.69053],[-75.93082,-13.70281],[-75.92985,-13.7118],[-75.9228,-13.72634],[-75.93432,-13.73604],[-75.95521,-13.73383],[-75.97452,-13.72322],[-76.00316,-13.71455],[-76.01419,-13.71543],[-76.04571,-13.70945]]]}},{"type":"Feature","properties":{"ubigeo":"110505","nombre":"Paracas"},"geometry":{"type":"Polygon","coordinates":[[[-75.99772,-14.02776],[-76.00313,-14.03087],[-76.00508,-14.03975],[-75.98654,-14.06949],[-75.99342,-14.08405],[-76.00062,-14.09062],[-76.01633,-14.09633],[-76.02634,-14.1079],[-76.0207,-14.11818],[-76.02184,-14.12451],[-76.0348,-14.14378],[-76.04815,-14.15896],[-76.05788,-14.18216],[-76.06821,-14.19794],[-76.07149,-14.20689],[-76.06934,-14.21774],[-76.07171,-14.23271],[-76.05199,-14.25363],[-76.04651,-14.265],[-76.03312,-14.27662],[-76.02142,-14.27097],[-76.01749,-14.27854],[-76.0075,-14.28741],[-75.98618,-14.29632],[-75.98152,-14.30719],[-75.98225,-14.32535],[-75.98848,-14.33916],[-75.98833,-14.34499],[-76.00393,-14.36894],[-76.00535,-14.37966],[-76.0035,-14.39021],[-76.01318,-14.40369],[-76.02342,-14.40532],[-76.03668,-14.42605],[-76.04125,-14.41624],[-76.05796,-14.3985],[-76.0662,-14.38694],[-76.07975,-14.37772],[-76.09916,-14.36821],[-76.12525,-14.35935],[-76.13186,-14.35426],[-76.13472,-14.34534],[-76.14428,-14.32959],[-76.14224,-14.32746],[-76.11096,-14.32922],[-76.1053,-14.31406],[-76.10995,-14.29269],[-76.12875,-14.26542],[-76.13154,-14.25758],[-76.13009,-14.24814],[-76.14357,-14.22762],[-76.15989,-14.21624],[-76.1633,-14.21791],[-76.16788,-14.21077],[-76.17716,-14.20794],[-76.19075,-14.1975],[-76.19138,-14.18594],[-76.19804,-14.17277],[-76.20463,-14.17479],[-76.21786,-14.16792],[-76.21586,-14.15977],[-76.22096,-14.153],[-76.23053,-14.14912],[-76.25257,-14.15002],[-76.25952,-14.14244],[-76.27136,-14.14273],[-76.25602,-14.1672],[-76.26131,-14.18508],[-76.27171,-14.20009],[-76.27643,-14.19352],[-76.27534,-14.18341],[-76.28884,-14.16422],[-76.29264,-14.16348],[-76.27899,-14.154],[-76.28084,-14.14405],[-76.2855,-14.13869],[-76.28504,-14.1304],[-76.27997,-14.12453],[-76.28633,-14.11349],[-76.28456,-14.09968],[-76.29189,-14.08861],[-76.28565,-14.08955],[-76.27613,-14.08249],[-76.27637,-14.06187],[-76.26438,-14.06228],[-76.26151,-14.05015],[-76.26864,-14.04536],[-76.27051,-14.03615],[-76.26221,-14.02978],[-76.26262,-14.02023],[-76.27279,-14.01189],[-76.28552,-13.99822],[-76.28475,-13.9943],[-76.27507,-13.99248],[-76.27023,-13.98087],[-76.27304,-13.95187],[-76.28512,-13.93685],[-76.29451,-13.93153],[-76.2952,-13.92743],[-76.28252,-13.91805],[-76.28352,-13.90832],[-76.29557,-13.90463],[-76.2984,-13.89329],[-76.31211,-13.89245],[-76.31578,-13.89872],[-76.31635,-13.91464],[-76.33001,-13.92503],[-76.33286,-13.91927],[-76.34367,-13.91496],[-76.35601,-13.9228],[-76.36036,-13.91482],[-76.37265,-13.91023],[-76.39633,-13.9089],[-76.39453,-13.89649],[-76.39836,-13.89207],[-76.39274,-13.88652],[-76.38987,-13.87625],[-76.39033,-13.86213],[-76.38595,-13.84385],[-76.37868,-13.83338],[-76.3707,-13.83204],[-76.36808,-13.82066],[-76.37129,-13.80888],[-76.36544,-13.80328],[-76.35684,-13.80054],[-76.34465,-13.80427],[-76.33612,-13.80115],[-76.32794,-13.79418],[-76.31713,-13.79199],[-76.29622,-13.79347],[-76.28987,-13.79739],[-76.29368,-13.8108],[-76.30459,-13.82529],[-76.3031,-13.83216],[-76.31146,-13.84331],[-76.31007,-13.84679],[-76.30077,-13.83772],[-76.28302,-13.8532],[-76.27133,-13.85658],[-76.27259,-13.86319],[-76.26302,-13.86899],[-76.25051,-13.85284],[-76.25813,-13.83924],[-76.2472,-13.82875],[-76.25111,-13.82363],[-76.25058,-13.81513],[-76.24103,-13.78991],[-76.23738,-13.76638],[-76.23115,-13.75491],[-76.16957,-13.77708],[-76.16772,-13.78189],[-76.1437,-13.82198],[-76.1248,-13.87549],[-76.11823,-13.88103],[-76.06133,-13.90476],[-76.0603,-13.91633],[-76.05595,-13.9293],[-76.04491,-13.93744],[-76.0302,-13.95194],[-76.02505,-13.95923],[-76.02271,-13.97138],[-76.02744,-13.99004],[-76.02242,-13.99777],[-76.02545,-14.00503],[-76.01629,-14.012],[-76.00284,-14.01827],[-75.99772,-14.02776]]]}},{"type":"Feature","properties":{"ubigeo":"110506","nombre":"San Andrés"},"geometry":{"type":"Polygon","coordinates":[[[-76.04463,-13.7748],[-76.02608,-13.78815],[-76.01425,-13.80531],[-76.00772,-13.82157],[-76.00138,-13.82996],[-76.00133,-13.83833],[-76.01696,-13.84431],[-76.02798,-13.84012],[-76.04118,-13.86107],[-76.04533,-13.8826],[-76.04914,-13.89157],[-76.06133,-13.90476],[-76.11823,-13.88103],[-76.1248,-13.87549],[-76.1437,-13.82198],[-76.16772,-13.78189],[-76.16957,-13.77708],[-76.23115,-13.75491],[-76.22274,-13.72699],[-76.2223,-13.72097],[-76.20632,-13.72011],[-76.202,-13.72836],[-76.19593,-13.72661],[-76.19436,-13.71099],[-76.15327,-13.71292],[-76.15787,-13.73489],[-76.04583,-13.77467],[-76.04463,-13.7748]]]}},{"type":"Feature","properties":{"ubigeo":"110507","nombre":"San Clemente"},"geometry":{"type":"Polygon","coordinates":[[[-76.08545,-13.69936],[-76.11987,-13.69007],[-76.13845,-13.69376],[-76.15819,-13.68758],[-76.16872,-13.68971],[-76.19599,-13.68681],[-76.21615,-13.67883],[-76.21953,-13.68072],[-76.20469,-13.64912],[-76.20036,-13.63483],[-76.19183,-13.59378],[-76.16669,-13.59549],[-76.15108,-13.59178],[-76.14253,-13.58574],[-76.13324,-13.5852],[-76.12875,-13.5798],[-76.09156,-13.56722],[-76.08747,-13.56408],[-76.09021,-13.57404],[-76.09815,-13.58689],[-76.09911,-13.62529],[-76.10171,-13.6719],[-76.09502,-13.67245],[-76.08665,-13.68668],[-76.06426,-13.69457],[-76.05038,-13.70142],[-76.04571,-13.70945],[-76.07625,-13.70312],[-76.08545,-13.69936]]]}},{"type":"Feature","properties":{"ubigeo":"110508","nombre":"Tupac Amaru Inca"},"geometry":{"type":"Polygon","coordinates":[[[-76.04463,-13.7748],[-76.04583,-13.77467],[-76.15787,-13.73489],[-76.15327,-13.71292],[-76.15165,-13.69957],[-76.15819,-13.68758],[-76.13845,-13.69376],[-76.11987,-13.69007],[-76.08545,-13.69936],[-76.07962,-13.73226],[-76.04463,-13.7748]]]}}]}