{"type":"FeatureCollection","features":[{"type":"Feature","properties":{"ubigeo":"140101","nombre":"Chiclayo"},"geometry":{"type":"Polygon","coordinates":[[[-79.8256,-6.8326],[-79.82458,-6.81204],[-79.82951,-6.8108],[-79.83361,-6.78419],[-79.85337,-6.7914],[-79.8549,-6.80083],[-79.86755,-6.80188],[-79.87206,-6.78381],[-79.87212,-6.76723],[-79.86655,-6.75741],[-79.85611,-6.75908],[-79.84539,-6.76242],[-79.83133,-6.76357],[-79.80921,-6.75125],[-79.79431,-6.73989],[-79.78012,-6.74338],[-79.78756,-6.74879],[-79.79416,-6.76187],[-79.79301,-6.77294],[-79.80064,-6.79607],[-79.80429,-6.81941],[-79.80125,-6.82905],[-79.80652,-6.83189],[-79.8256,-6.8326]]]}},{"type":"Feature","properties":{"ubigeo":"140102","nombre":"Chongoyape"},"geometry":{"type":"Polygon","coordinates":[[[-79.33597,-6.60281],[-79.34416,-6.60596],[-79.3498,-6.61487],[-79.353,-6.62701],[-79.36233,-6.63354],[-79.35074,-6.63975],[-79.34363,-6.64673],[-79.32536,-6.64066],[-79.32193,-6.64687],[-79.30402,-6.65161],[-79.29815,-6.66282],[-79.29642,-6.67567],[-79.30701,-6.6731],[-79.33598,-6.67786],[-79.34349,-6.68844],[-79.33722,-6.70149],[-79.34071,-6.7123],[-79.33876,-6.72241],[-79.34282,-6.74081],[-79.35077,-6.75113],[-79.36513,-6.76243],[-79.38397,-6.78288],[-79.39741,-6.77568],[-79.39908,-6.77046],[-79.4102,-6.77156],[-79.42814,-6.78261],[-79.43627,-6.78155],[-79.44731,-6.7747],[-79.45515,-6.77796],[-79.49383,-6.78181],[-79.4993,-6.77885],[-79.50084,-6.75606],[-79.49851,-6.74366],[-79.49781,-6.73887],[-79.50579,-6.73509],[-79.50967,-6.72921],[-79.50723,-6.71758],[-79.51112,-6.71149],[-79.5066,-6.69736],[-79.50756,-6.68973],[-79.52082,-6.68587],[-79.52318,-6.67755],[-79.5327,-6.67549],[-79.52884,-6.65993],[-79.52964,-6.65283],[-79.53731,-6.64701],[-79.54348,-6.64965],[-79.56326,-6.64794],[-79.57242,-6.64144],[-79.58232,-6.6299],[-79.59078,-6.62773],[-79.59884,-6.61892],[-79.60438,-6.61725],[-79.60338,-6.60246],[-79.61099,-6.59625],[-79.62113,-6.60254],[-79.62937,-6.58183],[-79.63819,-6.57842],[-79.64148,-6.5729],[-79.64504,-6.55489],[-79.63941,-6.53883],[-79.64121,-6.53094],[-79.62424,-6.51326],[-79.61486,-6.50895],[-79.58454,-6.50665],[-79.56288,-6.50384],[-79.5517,-6.50751],[-79.5366,-6.51887],[-79.52434,-6.52014],[-79.51053,-6.51367],[-79.49466,-6.51811],[-79.48237,-6.51146],[-79.46786,-6.50978],[-79.46738,-6.50354],[-79.46084,-6.4956],[-79.44823,-6.49035],[-79.43889,-6.482],[-79.43388,-6.48127],[-79.42477,-6.48867],[-79.41704,-6.50635],[-79.41948,-6.52643],[-79.42206,-6.53259],[-79.41868,-6.53696],[-79.40328,-6.54073],[-79.39819,-6.53304],[-79.38795,-6.53142],[-79.37944,-6.52272],[-79.36961,-6.5208],[-79.36569,-6.54207],[-79.36699,-6.54952],[-79.36008,-6.55822],[-79.35789,-6.5689],[-79.34973,-6.57186],[-79.34668,-6.5825],[-79.33597,-6.60281]]]}},{"type":"Feature","properties":{"ubigeo":"140103","nombre":"Eten"},"geometry":{"type":"Polygon","coordinates":[[[-79.79687,-7.00384],[-79.81361,-6.9898],[-79.81621,-6.97708],[-79.82823,-6.96494],[-79.85228,-6.93288],[-79.8564,-6.91879],[-79.87392,-6.92242],[-79.87963,-6.91716],[-79.87752,-6.90843],[-79.87694,-6.90025],[-79.86309,-6.90057],[-79.84723,-6.89117],[-79.84476,-6.8821],[-79.83385,-6.88711],[-79.83043,-6.89225],[-79.82184,-6.88348],[-79.81114,-6.88471],[-79.76995,-6.91003],[-79.7696,-6.92609],[-79.77265,-6.94512],[-79.78742,-6.96521],[-79.79371,-6.97807],[-79.79174,-6.98919],[-79.79687,-7.00384]]]}},{"type":"Feature","properties":{"ubigeo":"140104","nombre":"Eten Puerto"},"geometry":{"type":"Polygon","coordinates":[[[-79.87392,-6.92242],[-79.8564,-6.91879],[-79.85228,-6.93288],[-79.82823,-6.96494],[-79.81621,-6.97708],[-79.81361,-6.9898],[-79.83456,-6.97107],[-79.86612,-6.9486],[-79.86414,-6.9454],[-79.86714,-6.93067],[-79.87392,-6.92242]]]}},{"type":"Feature","properties":{"ubigeo":"140105","nombre":"José Leonardo Ortiz"},"geometry":{"type":"Polygon","coordinates":[[[-79.78689,-6.73418],[-79.79431,-6.73989],[-79.80921,-6.75125],[-79.83133,-6.76357],[-79.84539,-6.76242],[-79.85611,-6.75908],[-79.88543,-6.72805],[-79.88215,-6.72401],[-79.86574,-6.71786],[-79.85243,-6.71853],[-79.83349,-6.72329],[-79.82948,-6.72171],[-79.82183,-6.7323],[-79.81474,-6.73672],[-79.80313,-6.73924],[-79.78689,-6.73418]]]}},{"type":"Feature","properties":{"ubigeo":"140106","nombre":"La Victoria"},"geometry":{"type":"Polygon","coordinates":[[[-79.88307,-6.85142],[-79.90093,-6.8492],[-79.90537,-6.85427],[-79.91138,-6.85031],[-79.89443,-6.82027],[-79.8766,-6.81105],[-79.87615,-6.80146],[-79.86755,-6.80188],[-79.8549,-6.80083],[-79.85337,-6.7914],[-79.83361,-6.78419],[-79.82951,-6.8108],[-79.82458,-6.81204],[-79.8256,-6.8326],[-79.82579,-6.8433],[-79.84234,-6.84203],[-79.86953,-6.84528],[-79.87409,-6.84974],[-79.88307,-6.85142]]]}},{"type":"Feature","properties":{"ubigeo":"140107","nombre":"Lagunas"},"geometry":{"type":"Polygon","coordinates":[[[-79.59323,-7.07299],[-79.69062,-7.17713],[-79.68202,-7.153],[-79.68347,-7.1249],[-79.69207,-7.11272],[-79.70726,-7.09507],[-79.73503,-7.0673],[-79.73984,-7.05754],[-79.75364,-7.04341],[-79.79687,-7.00384],[-79.79174,-6.98919],[-79.79371,-6.97807],[-79.78742,-6.96521],[-79.77265,-6.94512],[-79.7696,-6.92609],[-79.76995,-6.91003],[-79.72698,-6.93644],[-79.70647,-6.93311],[-79.69713,-6.93343],[-79.69604,-6.92863],[-79.67831,-6.91205],[-79.6756,-6.90447],[-79.66238,-6.89995],[-79.65912,-6.90132],[-79.65624,-6.91359],[-79.64516,-6.91256],[-79.63502,-6.91694],[-79.62353,-6.93524],[-79.61799,-6.93869],[-79.59294,-6.96854],[-79.58887,-6.9757],[-79.56942,-6.99114],[-79.55054,-6.9891],[-79.54158,-6.99363],[-79.52679,-6.99673],[-79.5209,-6.99377],[-79.53529,-7.01148],[-79.59323,-7.07299]]]}},{"type":"Feature","properties":{"ubigeo":"140108","nombre":"Monsefu"},"geometry":{"type":"Polygon","coordinates":[[[-79.84476,-6.8821],[-79.84723,-6.89117],[-79.86309,-6.90057],[-79.87694,-6.90025],[-79.87752,-6.90843],[-79.90733,-6.87818],[-79.90358,-6.86796],[-79.89659,-6.8582],[-79.8896,-6.85361],[-79.88633,-6.85837],[-79.88307,-6.85142],[-79.87409,-6.84974],[-79.86953,-6.84528],[-79.84234,-6.84203],[-79.82579,-6.8433],[-79.8256,-6.8326],[-79.80652,-6.83189],[-79.80125,-6.82905],[-79.79039,-6.82773],[-79.78319,-6.82002],[-79.77043,-6.82667],[-79.78236,-6.82474],[-79.79004,-6.83549],[-79.79477,-6.83448],[-79.80344,-6.84559],[-79.81118,-6.84953],[-79.82305,-6.8513],[-79.84476,-6.8821]]]}},{"type":"Feature","properties":{"ubigeo":"140109","nombre":"Nueva Arica"},"geometry":{"type":"Polygon","coordinates":[[[-79.32259,-7.02568],[-79.33054,-7.02422],[-79.34232,-7.0108],[-79.35961,-7.00497],[-79.3691,-6.99169],[-79.36999,-6.98537],[-79.37717,-6.98499],[-79.38932,-6.97517],[-79.39232,-6.96491],[-79.4004,-6.96336],[-79.40076,-6.95693],[-79.43085,-6.95337],[-79.43733,-6.94859],[-79.45468,-6.94628],[-79.4562,-6.94128],[-79.46518,-6.93371],[-79.46454,-6.92201],[-79.46963,-6.92041],[-79.47683,-6.90238],[-79.50245,-6.90732],[-79.50298,-6.90156],[-79.49542,-6.90286],[-79.47962,-6.89927],[-79.472,-6.89204],[-79.44101,-6.88757],[-79.42791,-6.88302],[-79.40537,-6.87621],[-79.39564,-6.87907],[-79.38103,-6.8715],[-79.36045,-6.87239],[-79.3508,-6.85807],[-79.332,-6.86142],[-79.32175,-6.86884],[-79.30518,-6.87676],[-79.29729,-6.88596],[-79.30202,-6.89482],[-79.31101,-6.90134],[-79.31014,-6.9254],[-79.30033,-6.93668],[-79.29936,-6.94539],[-79.30504,-6.95389],[-79.30313,-6.96125],[-79.30723,-6.96821],[-79.30094,-6.98899],[-79.30233,-6.99378],[-79.29708,-7.00311],[-79.30724,-7.0074],[-79.3093,-7.01546],[-79.31947,-7.01992],[-79.32259,-7.02568]]]}},{"type":"Feature","properties":{"ubigeo":"140110","nombre":"Oyotun"},"geometry":{"type":"Polygon","coordinates":[[[-79.21909,-6.85169],[-79.22907,-6.86047],[-79.24598,-6.85868],[-79.25192,-6.86187],[-79.26274,-6.85916],[-79.27104,-6.86647],[-79.27147,-6.87362],[-79.27308,-6.87665],[-79.29411,-6.88276],[-79.29729,-6.88596],[-79.30518,-6.87676],[-79.32175,-6.86884],[-79.332,-6.86142],[-79.3508,-6.85807],[-79.36045,-6.87239],[-79.38103,-6.8715],[-79.39564,-6.87907],[-79.40537,-6.87621],[-79.42791,-6.88302],[-79.4395,-6.87371],[-79.4404,-6.86383],[-79.43624,-6.84457],[-79.4359,-6.83162],[-79.42271,-6.82508],[-79.41718,-6.8267],[-79.41076,-6.82106],[-79.401,-6.82693],[-79.39404,-6.82436],[-79.38199,-6.80194],[-79.38397,-6.78288],[-79.36513,-6.76243],[-79.35077,-6.75113],[-79.34282,-6.74081],[-79.33876,-6.72241],[-79.34071,-6.7123],[-79.33722,-6.70149],[-79.34349,-6.68844],[-79.33598,-6.67786],[-79.30701,-6.6731],[-79.29642,-6.67567],[-79.27187,-6.68027],[-79.25074,-6.67722],[-79.24191,-6.67208],[-79.22906,-6.67141],[-79.22165,-6.68821],[-79.21379,-6.69563],[-79.20353,-6.69209],[-79.19553,-6.69683],[-79.19485,-6.70436],[-79.18843,-6.71654],[-79.17601,-6.71042],[-79.17105,-6.7017],[-79.15602,-6.70476],[-79.14273,-6.6999],[-79.14291,-6.71911],[-79.13547,-6.727],[-79.138,-6.74124],[-79.12874,-6.75248],[-79.12889,-6.75968],[-79.12085,-6.77697],[-79.12372,-6.78282],[-79.14428,-6.78861],[-79.15876,-6.80093],[-79.17634,-6.80205],[-79.18181,-6.80505],[-79.18875,-6.8155],[-79.20709,-6.82144],[-79.21844,-6.84025],[-79.21909,-6.85169]]]}},{"type":"Feature","properties":{"ubigeo":"140111","nombre":"Picsi"},"geometry":{"type":"Polygon","coordinates":[[[-79.753,-6.68401],[-79.75127,-6.69145],[-79.75379,-6.70652],[-79.72901,-6.71488],[-79.71393,-6.73867],[-79.72454,-6.75233],[-79.72931,-6.75123],[-79.73636,-6.73783],[-79.74655,-6.74382],[-79.75772,-6.73635],[-79.77111,-6.73694],[-79.77377,-6.73391],[-79.78689,-6.73418],[-79.80313,-6.73924],[-79.81474,-6.73672],[-79.82183,-6.7323],[-79.82948,-6.72171],[-79.80417,-6.69408],[-79.79054,-6.69203],[-79.78143,-6.67959],[-79.76976,-6.68144],[-79.753,-6.68401]]]}},{"type":"Feature","properties":{"ubigeo":"140112","nombre":"Pimentel"},"geometry":{"type":"Polygon","coordinates":[[[-79.86755,-6.80188],[-79.87615,-6.80146],[-79.8766,-6.81105],[-79.89443,-6.82027],[-79.91138,-6.85031],[-79.90537,-6.85427],[-79.92114,-6.86916],[-79.93157,-6.87361],[-79.93828,-6.84675],[-79.93971,-6.82703],[-79.9424,-6.8205],[-79.91735,-6.77521],[-79.90751,-6.76958],[-79.90074,-6.75923],[-79.89692,-6.74621],[-79.89819,-6.73537],[-79.8952,-6.73104],[-79.88543,-6.72805],[-79.85611,-6.75908],[-79.86655,-6.75741],[-79.87212,-6.76723],[-79.87206,-6.78381],[-79.86755,-6.80188]]]}},{"type":"Feature","properties":{"ubigeo":"140113","nombre":"Reque"},"geometry":{"type":"Polygon","coordinates":[[[-79.84476,-6.8821],[-79.82305,-6.8513],[-79.81118,-6.84953],[-79.80344,-6.84559],[-79.79477,-6.83448],[-79.79004,-6.83549],[-79.78236,-6.82474],[-79.77043,-6.82667],[-79.75181,-6.81539],[-79.75183,-6.82607],[-79.75706,-6.83059],[-79.7616,-6.84343],[-79.7699,-6.85307],[-79.7725,-6.87658],[-79.77224,-6.89546],[-79.76995,-6.91003],[-79.81114,-6.88471],[-79.82184,-6.88348],[-79.83043,-6.89225],[-79.83385,-6.88711],[-79.84476,-6.8821]]]}},{"type":"Feature","properties":{"ubigeo":"140114","nombre":"Santa Rosa"},"geometry":{"type":"Polygon","coordinates":[[[-79.87752,-6.90843],[-79.87963,-6.91716],[-79.89745,-6.90373],[-79.91103,-6.89602],[-79.93157,-6.87361],[-79.92114,-6.86916],[-79.90537,-6.85427],[-79.90093,-6.8492],[-79.88307,-6.85142],[-79.88633,-6.85837],[-79.8896,-6.85361],[-79.89659,-6.8582],[-79.90358,-6.86796],[-79.90733,-6.87818],[-79.87752,-6.90843]]]}},{"type":"Feature","properties":{"ubigeo":"140115","nombre":"Saña"},"geometry":{"type":"Polygon","coordinates":[[[-79.50332,-6.96742],[-79.51473,-6.97858],[-79.51442,-6.98633],[-79.5209,-6.99377],[-79.52679,-6.99673],[-79.54158,-6.99363],[-79.55054,-6.9891],[-79.56942,-6.99114],[-79.58887,-6.9757],[-79.59294,-6.96854],[-79.61799,-6.93869],[-79.62353,-6.93524],[-79.63502,-6.91694],[-79.64516,-6.91256],[-79.65624,-6.91359],[-79.65912,-6.90132],[-79.66238,-6.89995],[-79.6756,-6.90447],[-79.67831,-6.91205],[-79.69604,-6.92863],[-79.69713,-6.93343],[-79.70647,-6.93311],[-79.72698,-6.93644],[-79.76995,-6.91003],[-79.77224,-6.89546],[-79.7725,-6.87658],[-79.7699,-6.85307],[-79.7616,-6.84343],[-79.75706,-6.83059],[-79.75183,-6.82607],[-79.75181,-6.81539],[-79.74085,-6.81252],[-79.73091,-6.82314],[-79.71453,-6.83649],[-79.71012,-6.84448],[-79.69514,-6.84559],[-79.70113,-6.86317],[-79.69064,-6.86781],[-79.683,-6.86262],[-79.675,-6.86564],[-79.65255,-6.86181],[-79.65581,-6.84492],[-79.64371,-6.83116],[-79.65464,-6.82281],[-79.66487,-6.82338],[-79.66869,-6.8072],[-79.65732,-6.80418],[-79.65514,-6.80079],[-79.65038,-6.79812],[-79.62521,-6.79855],[-79.62025,-6.7934],[-79.6016,-6.78688],[-79.59458,-6.78659],[-79.58723,-6.77682],[-79.58181,-6.777],[-79.58111,-6.78315],[-79.5729,-6.78684],[-79.57105,-6.79502],[-79.58047,-6.80859],[-79.58306,-6.81885],[-79.57609,-6.81426],[-79.56638,-6.81317],[-79.56712,-6.81832],[-79.5557,-6.84081],[-79.55908,-6.84849],[-79.56879,-6.85648],[-79.57705,-6.87187],[-79.58951,-6.88576],[-79.59214,-6.89895],[-79.57402,-6.90766],[-79.57116,-6.91628],[-79.56453,-6.9129],[-79.56217,-6.92182],[-79.55508,-6.92756],[-79.56234,-6.93186],[-79.5537,-6.93937],[-79.54421,-6.92791],[-79.54169,-6.9369],[-79.52544,-6.93771],[-79.51614,-6.93169],[-79.50621,-6.93889],[-79.49938,-6.95086],[-79.50331,-6.95666],[-79.50332,-6.96742]]]}},{"type":"Feature","properties":{"ubigeo":"140116","nombre":"Cayalti"},"geometry":{"type":"Polygon","coordinates":[[[-79.42791,-6.88302],[-79.44101,-6.88757],[-79.472,-6.89204],[-79.47962,-6.89927],[-79.49542,-6.90286],[-79.50298,-6.90156],[-79.50245,-6.90732],[-79.47683,-6.90238],[-79.46963,-6.92041],[-79.46454,-6.92201],[-79.46518,-6.93371],[-79.4562,-6.94128],[-79.45468,-6.94628],[-79.46792,-6.96608],[-79.47838,-6.97065],[-79.48763,-6.96708],[-79.49639,-6.97171],[-79.50332,-6.96742],[-79.50331,-6.95666],[-79.49938,-6.95086],[-79.50621,-6.93889],[-79.51614,-6.93169],[-79.52544,-6.93771],[-79.54169,-6.9369],[-79.54421,-6.92791],[-79.5537,-6.93937],[-79.56234,-6.93186],[-79.55508,-6.92756],[-79.56217,-6.92182],[-79.56453,-6.9129],[-79.57116,-6.91628],[-79.57402,-6.90766],[-79.59214,-6.89895],[-79.58951,-6.88576],[-79.57705,-6.87187],[-79.56879,-6.85648],[-79.55908,-6.84849],[-79.5557,-6.84081],[-79.53053,-6.84597],[-79.51487,-6.83756],[-79.50846,-6.83744],[-79.48808,-6.82513],[-79.47279,-6.8231],[-79.47244,-6.83025],[-79.45798,-6.83318],[-79.44677,-6.82271],[-79.43842,-6.82433],[-79.4359,-6.83162],[-79.43624,-6.84457],[-79.4404,-6.86383],[-79.4395,-6.87371],[-79.42791,-6.88302]]]}},{"type":"Feature","properties":{"ubigeo":"140117","nombre":"Patapo"},"geometry":{"type":"Polygon","coordinates":[[[-79.66401,-6.76655],[-79.66009,-6.75609],[-79.66216,-6.75037],[-79.67765,-6.74064],[-79.67618,-6.72857],[-79.66868,-6.72459],[-79.66367,-6.71513],[-79.6578,-6.69606],[-79.64111,-6.6947],[-79.62542,-6.70182],[-79.62644,-6.6842],[-79.62238,-6.67881],[-79.62027,-6.66405],[-79.62438,-6.65185],[-79.61122,-6.65562],[-79.6081,-6.64393],[-79.60113,-6.63899],[-79.59357,-6.64009],[-79.59078,-6.62773],[-79.58232,-6.6299],[-79.57242,-6.64144],[-79.56326,-6.64794],[-79.54348,-6.64965],[-79.53731,-6.64701],[-79.52964,-6.65283],[-79.52884,-6.65993],[-79.5327,-6.67549],[-79.52318,-6.67755],[-79.52082,-6.68587],[-79.50756,-6.68973],[-79.5066,-6.69736],[-79.51112,-6.71149],[-79.50723,-6.71758],[-79.50967,-6.72921],[-79.50579,-6.73509],[-79.49781,-6.73887],[-79.49851,-6.74366],[-79.51448,-6.74348],[-79.51817,-6.75041],[-79.53115,-6.75641],[-79.5532,-6.7531],[-79.58368,-6.75623],[-79.58867,-6.75503],[-79.60548,-6.759],[-79.61118,-6.76757],[-79.617,-6.76837],[-79.63319,-6.76488],[-79.6466,-6.76954],[-79.6556,-6.76524],[-79.66401,-6.76655]]]}},{"type":"Feature","properties":{"ubigeo":"140118","nombre":"Pomalca"},"geometry":{"type":"Polygon","coordinates":[[[-79.74085,-6.81252],[-79.75181,-6.81539],[-79.77043,-6.82667],[-79.78319,-6.82002],[-79.79039,-6.82773],[-79.80125,-6.82905],[-79.80429,-6.81941],[-79.80064,-6.79607],[-79.79301,-6.77294],[-79.79416,-6.76187],[-79.78756,-6.74879],[-79.78012,-6.74338],[-79.79431,-6.73989],[-79.78689,-6.73418],[-79.77377,-6.73391],[-79.77111,-6.73694],[-79.75772,-6.73635],[-79.74655,-6.74382],[-79.73636,-6.73783],[-79.72931,-6.75123],[-79.72454,-6.75233],[-79.72821,-6.76342],[-79.72292,-6.76888],[-79.70994,-6.7703],[-79.71075,-6.77801],[-79.70628,-6.77842],[-79.70425,-6.79181],[-79.71014,-6.79709],[-79.70986,-6.80357],[-79.71618,-6.807],[-79.72545,-6.80604],[-79.74085,-6.81252]]]}},{"type":"Feature","properties":{"ubigeo":"140119","nombre":"Pucala"},"geometry":{"type":"Polygon","coordinates":[[[-79.38397,-6.78288],[-79.38199,-6.80194],[-79.39404,-6.82436],[-79.401,-6.82693],[-79.41076,-6.82106],[-79.41718,-6.8267],[-79.42271,-6.82508],[-79.4359,-6.83162],[-79.43842,-6.82433],[-79.44677,-6.82271],[-79.45798,-6.83318],[-79.47244,-6.83025],[-79.47279,-6.8231],[-79.48808,-6.82513],[-79.50846,-6.83744],[-79.51487,-6.83756],[-79.53053,-6.84597],[-79.5557,-6.84081],[-79.56712,-6.81832],[-79.56638,-6.81317],[-79.57609,-6.81426],[-79.58306,-6.81885],[-79.58047,-6.80859],[-79.57105,-6.79502],[-79.5729,-6.78684],[-79.58111,-6.78315],[-79.58181,-6.777],[-79.58723,-6.77682],[-79.59458,-6.78659],[-79.6016,-6.78688],[-79.62025,-6.7934],[-79.62521,-6.79855],[-79.65038,-6.79812],[-79.65514,-6.80079],[-79.65673,-6.79467],[-79.65424,-6.78047],[-79.66256,-6.78056],[-79.66401,-6.76655],[-79.6556,-6.76524],[-79.6466,-6.76954],[-79.63319,-6.76488],[-79.617,-6.76837],[-79.61118,-6.76757],[-79.60548,-6.759],[-79.58867,-6.75503],[-79.58368,-6.75623],[-79.5532,-6.7531],[-79.53115,-6.75641],[-79.51817,-6.75041],[-79.51448,-6.74348],[-79.49851,-6.74366],[-79.50084,-6.75606],[-79.4993,-6.77885],[-79.49383,-6.78181],[-79.45515,-6.77796],[-79.44731,-6.7747],[-79.43627,-6.78155],[-79.42814,-6.78261],[-79.4102,-6.77156],[-79.39908,-6.77046],[-79.39741,-6.77568],[-79.38397,-6.78288]]]}},{"type":"Feature","properties":{"ubigeo":"140120","nombre":"Tuman"},"geometry":{"type":"Polygon","coordinates":[[[-79.66401,-6.76655],[-79.66256,-6.78056],[-79.65424,-6.78047],[-79.65673,-6.79467],[-79.65514,-6.80079],[-79.65732,-6.80418],[-79.66869,-6.8072],[-79.66487,-6.82338],[-79.65464,-6.82281],[-79.64371,-6.83116],[-79.65581,-6.84492],[-79.65255,-6.86181],[-79.675,-6.86564],[-79.683,-6.86262],[-79.69064,-6.86781],[-79.70113,-6.86317],[-79.69514,-6.84559],[-79.71012,-6.84448],[-79.71453,-6.83649],[-79.73091,-6.82314],[-79.74085,-6.81252],[-79.72545,-6.80604],[-79.71618,-6.807],[-79.70986,-6.80357],[-79.71014,-6.79709],[-79.70425,-6.79181],[-79.70628,-6.77842],[-79.71075,-6.77801],[-79.70994,-6.7703],[-79.72292,-6.76888],[-79.72821,-6.76342],[-79.72454,-6.75233],[-79.71393,-6.73867],[-79.72901,-6.71488],[-79.75379,-6.70652],[-79.75127,-6.69145],[-79.753,-6.68401],[-79.72966,-6.68929],[-79.71949,-6.68317],[-79.70846,-6.68407],[-79.69801,-6.67918],[-79.6986,-6.68857],[-79.693,-6.68935],[-79.68433,-6.7001],[-79.66367,-6.71513],[-79.66868,-6.72459],[-79.67618,-6.72857],[-79.67765,-6.74064],[-79.66216,-6.75037],[-79.66009,-6.75609],[-79.66401,-6.76655]]]}},{"type":"Feature","properties":{"ubigeo":"140201","nombre":"Ferreñafe"},"geometry":{"type":"Polygon","coordinates":[[[-79.76976,-6.68144],[-79.78143,-6.67959],[-79.79171,-6.67762],[-79.81138,-6.66159],[-79.82462,-6.65842],[-79.80098,-6.65175],[-79.79145,-6.63593],[-79.80284,-6.62427],[-79.81612,-6.60268],[-79.82221,-6.59718],[-79.84154,-6.5958],[-79.83762,-6.5778],[-79.83005,-6.57677],[-79.8298,-6.5711],[-79.82099,-6.5696],[-79.79351,-6.5765],[-79.78458,-6.58326],[-79.75561,-6.58575],[-79.7616,-6.59441],[-79.7629,-6.6039],[-79.77016,-6.61607],[-79.76246,-6.62899],[-79.7621,-6.64078],[-79.75678,-6.64491],[-79.75901,-6.65798],[-79.7686,-6.6693],[-79.76976,-6.68144]]]}},{"type":"Feature","properties":{"ubigeo":"140202","nombre":"Cañaris"},"geometry":{"type":"Polygon","coordinates":[[[-79.21321,-6.09887],[-79.22712,-6.09156],[-79.2339,-6.09307],[-79.23665,-6.1041],[-79.24328,-6.10579],[-79.25297,-6.12512],[-79.25625,-6.1275],[-79.25918,-6.14018],[-79.27253,-6.14673],[-79.27466,-6.15846],[-79.30329,-6.1545],[-79.30327,-6.14632],[-79.31232,-6.13865],[-79.3226,-6.13926],[-79.33142,-6.14521],[-79.33976,-6.13803],[-79.33795,-6.12547],[-79.34063,-6.10433],[-79.33904,-6.09623],[-79.34783,-6.09038],[-79.34834,-6.08035],[-79.38203,-6.07424],[-79.3903,-6.08393],[-79.40677,-6.08392],[-79.40916,-6.07626],[-79.40673,-6.05535],[-79.40968,-6.05015],[-79.40308,-6.03402],[-79.41124,-6.031],[-79.4206,-6.0154],[-79.41721,-6.00524],[-79.40966,-6.00057],[-79.40322,-5.98498],[-79.39592,-5.97719],[-79.38885,-5.97881],[-79.36471,-5.97639],[-79.34902,-5.97969],[-79.34503,-6.00656],[-79.3331,-6.01843],[-79.31911,-6.04254],[-79.3119,-6.03907],[-79.31134,-6.03347],[-79.32031,-6.02137],[-79.32243,-6.00037],[-79.31771,-5.99256],[-79.30632,-5.98563],[-79.29398,-5.98666],[-79.28945,-5.99143],[-79.26434,-6.00246],[-79.26342,-6.01574],[-79.26648,-6.02268],[-79.26288,-6.02781],[-79.24769,-6.02991],[-79.24087,-6.02863],[-79.2357,-6.04505],[-79.22399,-6.05501],[-79.21851,-6.05364],[-79.21011,-6.04253],[-79.20396,-6.02406],[-79.19,-6.02477],[-79.1858,-6.02795],[-79.1756,-6.04138],[-79.18319,-6.0486],[-79.18886,-6.05959],[-79.18285,-6.06822],[-79.18393,-6.08044],[-79.18192,-6.08934],[-79.19844,-6.10008],[-79.21321,-6.09887]]]}},{"type":"Feature","properties":{"ubigeo":"140203","nombre":"Incahuasi"},"geometry":{"type":"Polygon","coordinates":[[[-79.24917,-6.22178],[-79.25226,-6.22669],[-79.27268,-6.22576],[-79.27905,-6.22926],[-79.27639,-6.23986],[-79.28474,-6.2545],[-79.30049,-6.26747],[-79.30844,-6.27005],[-79.31234,-6.26527],[-79.32179,-6.26306],[-79.32903,-6.26627],[-79.34569,-6.28314],[-79.34466,-6.28774],[-79.35356,-6.30429],[-79.36381,-6.30355],[-79.37105,-6.29958],[-79.38794,-6.29829],[-79.39993,-6.309],[-79.40899,-6.3121],[-79.41609,-6.3086],[-79.42266,-6.31043],[-79.42768,-6.3174],[-79.42656,-6.3289],[-79.44543,-6.35508],[-79.44438,-6.36149],[-79.45857,-6.3721],[-79.47084,-6.37466],[-79.48576,-6.38623],[-79.49697,-6.38817],[-79.49925,-6.39229],[-79.51305,-6.39986],[-79.52122,-6.40198],[-79.52834,-6.39981],[-79.53336,-6.38305],[-79.53453,-6.37048],[-79.54334,-6.35831],[-79.53329,-6.34842],[-79.51405,-6.34364],[-79.50403,-6.33568],[-79.49286,-6.32314],[-79.47731,-6.32034],[-79.48198,-6.30631],[-79.4733,-6.28164],[-79.47187,-6.26872],[-79.45699,-6.25098],[-79.44586,-6.24247],[-79.43701,-6.24001],[-79.44094,-6.2257],[-79.43611,-6.22159],[-79.43322,-6.20644],[-79.42213,-6.20007],[-79.4155,-6.18458],[-79.40185,-6.17351],[-79.40958,-6.1567],[-79.42818,-6.1481],[-79.43154,-6.14044],[-79.42344,-6.13108],[-79.41401,-6.09966],[-79.41182,-6.08838],[-79.40677,-6.08392],[-79.3903,-6.08393],[-79.38203,-6.07424],[-79.34834,-6.08035],[-79.34783,-6.09038],[-79.33904,-6.09623],[-79.34063,-6.10433],[-79.33795,-6.12547],[-79.33976,-6.13803],[-79.33142,-6.14521],[-79.3226,-6.13926],[-79.31232,-6.13865],[-79.30327,-6.14632],[-79.30329,-6.1545],[-79.27466,-6.15846],[-79.27265,-6.16879],[-79.26573,-6.1793],[-79.2633,-6.19197],[-79.25935,-6.19889],[-79.25413,-6.21655],[-79.24917,-6.22178]]]}},{"type":"Feature","properties":{"ubigeo":"140204","nombre":"Manuel Antonio Mesones Muro"},"geometry":{"type":"Polygon","coordinates":[[[-79.59078,-6.62773],[-79.59357,-6.64009],[-79.60113,-6.63899],[-79.6081,-6.64393],[-79.61122,-6.65562],[-79.62438,-6.65185],[-79.62027,-6.66405],[-79.62238,-6.67881],[-79.62644,-6.6842],[-79.62542,-6.70182],[-79.64111,-6.6947],[-79.6578,-6.69606],[-79.66367,-6.71513],[-79.68433,-6.7001],[-79.693,-6.68935],[-79.6986,-6.68857],[-79.69801,-6.67918],[-79.70846,-6.68407],[-79.71949,-6.68317],[-79.72966,-6.68929],[-79.753,-6.68401],[-79.76976,-6.68144],[-79.7686,-6.6693],[-79.75901,-6.65798],[-79.75678,-6.64491],[-79.7621,-6.64078],[-79.76246,-6.62899],[-79.77016,-6.61607],[-79.7629,-6.6039],[-79.7616,-6.59441],[-79.75561,-6.58575],[-79.73488,-6.59059],[-79.73042,-6.58507],[-79.71909,-6.59067],[-79.70142,-6.58822],[-79.68748,-6.58203],[-79.68,-6.57399],[-79.66717,-6.57175],[-79.66042,-6.55061],[-79.64504,-6.55489],[-79.64148,-6.5729],[-79.63819,-6.57842],[-79.62937,-6.58183],[-79.62113,-6.60254],[-79.61099,-6.59625],[-79.60338,-6.60246],[-79.60438,-6.61725],[-79.59884,-6.61892],[-79.59078,-6.62773]]]}},{"type":"Feature","properties":{"ubigeo":"140205","nombre":"Pitipo"},"geometry":{"type":"Polygon","coordinates":[[[-79.45255,-6.37258],[-79.44667,-6.37672],[-79.44699,-6.38593],[-79.45349,-6.39684],[-79.44631,-6.41504],[-79.4376,-6.41986],[-79.43285,-6.42798],[-79.42859,-6.44242],[-79.42289,-6.45188],[-79.4227,-6.46749],[-79.43388,-6.48127],[-79.43889,-6.482],[-79.44823,-6.49035],[-79.46084,-6.4956],[-79.46738,-6.50354],[-79.46786,-6.50978],[-79.48237,-6.51146],[-79.49466,-6.51811],[-79.51053,-6.51367],[-79.52434,-6.52014],[-79.5366,-6.51887],[-79.5517,-6.50751],[-79.56288,-6.50384],[-79.58454,-6.50665],[-79.61486,-6.50895],[-79.62424,-6.51326],[-79.64121,-6.53094],[-79.63941,-6.53883],[-79.64504,-6.55489],[-79.66042,-6.55061],[-79.66717,-6.57175],[-79.68,-6.57399],[-79.68748,-6.58203],[-79.70142,-6.58822],[-79.71909,-6.59067],[-79.73042,-6.58507],[-79.73488,-6.59059],[-79.75561,-6.58575],[-79.78458,-6.58326],[-79.79351,-6.5765],[-79.82099,-6.5696],[-79.8298,-6.5711],[-79.82998,-6.56141],[-79.82497,-6.54269],[-79.81817,-6.53464],[-79.81426,-6.52484],[-79.81812,-6.5206],[-79.82565,-6.5208],[-79.82468,-6.4991],[-79.81949,-6.49141],[-79.81124,-6.48543],[-79.79921,-6.48243],[-79.79323,-6.47657],[-79.79366,-6.47427],[-79.79529,-6.47001],[-79.80552,-6.46404],[-79.80894,-6.44783],[-79.79997,-6.43207],[-79.77959,-6.44321],[-79.75269,-6.43937],[-79.7207,-6.44773],[-79.69791,-6.45143],[-79.68669,-6.4515],[-79.65191,-6.4554],[-79.64425,-6.45129],[-79.63818,-6.44306],[-79.62898,-6.43833],[-79.61344,-6.42529],[-79.57768,-6.4104],[-79.56657,-6.41187],[-79.55021,-6.40843],[-79.52834,-6.39981],[-79.52122,-6.40198],[-79.51305,-6.39986],[-79.49925,-6.39229],[-79.49697,-6.38817],[-79.48576,-6.38623],[-79.47084,-6.37466],[-79.45857,-6.3721],[-79.45255,-6.37258]]]}},{"type":"Feature","properties":{"ubigeo":"140206","nombre":"Pueblo Nuevo"},"geometry":{"type":"Polygon","coordinates":[[[-79.84241,-6.60136],[-79.84154,-6.5958],[-79.82221,-6.59718],[-79.81612,-6.60268],[-79.80284,-6.62427],[-79.79145,-6.63593],[-79.80098,-6.65175],[-79.82462,-6.65842],[-79.83517,-6.66157],[-79.84277,-6.65034],[-79.85105,-6.64339],[-79.8475,-6.63994],[-79.84845,-6.6298],[-79.84577,-6.61992],[-79.84767,-6.60975],[-79.84241,-6.60136]]]}},{"type":"Feature","properties":{"ubigeo":"140301","nombre":"Lambayeque"},"geometry":{"type":"Polygon","coordinates":[[[-79.82462,-6.65842],[-79.81138,-6.66159],[-79.79171,-6.67762],[-79.78143,-6.67959],[-79.79054,-6.69203],[-79.80417,-6.69408],[-79.82948,-6.72171],[-79.83349,-6.72329],[-79.85243,-6.71853],[-79.86574,-6.71786],[-79.88215,-6.72401],[-79.88543,-6.72805],[-79.8952,-6.73104],[-79.91122,-6.73571],[-79.93329,-6.7331],[-79.97944,-6.75622],[-80,-6.7357],[-80.01204,-6.7273],[-80.02195,-6.7175],[-80.05432,-6.6912],[-80.07489,-6.67552],[-80.11175,-6.65144],[-79.99399,-6.64299],[-79.95276,-6.641],[-79.94976,-6.63829],[-79.96485,-6.61439],[-79.95445,-6.60974],[-79.94726,-6.61419],[-79.9403,-6.61118],[-79.93625,-6.59868],[-79.91813,-6.58984],[-79.90383,-6.59262],[-79.89673,-6.59019],[-79.87775,-6.594],[-79.86883,-6.60132],[-79.85088,-6.60345],[-79.84241,-6.60136],[-79.84767,-6.60975],[-79.84577,-6.61992],[-79.84845,-6.6298],[-79.8475,-6.63994],[-79.85105,-6.64339],[-79.84277,-6.65034],[-79.83517,-6.66157],[-79.82462,-6.65842]]]}},{"type":"Feature","properties":{"ubigeo":"140302","nombre":"Chochope"},"geometry":{"type":"Polygon","coordinates":[[[-79.5709,-6.19028],[-79.58191,-6.197],[-79.59009,-6.19091],[-79.61069,-6.18447],[-79.6147,-6.18629],[-79.62795,-6.17883],[-79.63628,-6.17836],[-79.63819,-6.1736],[-79.66552,-6.17015],[-79.67008,-6.17601],[-79.68874,-6.16357],[-79.684,-6.14182],[-79.67358,-6.13577],[-79.65977,-6.14146],[-79.65552,-6.1346],[-79.63447,-6.1304],[-79.63035,-6.12248],[-79.61438,-6.12951],[-79.60629,-6.13729],[-79.59782,-6.13385],[-79.59244,-6.12609],[-79.57613,-6.12723],[-79.56401,-6.12704],[-79.5505,-6.12339],[-79.54541,-6.13133],[-79.54466,-6.13968],[-79.56302,-6.15286],[-79.5678,-6.16226],[-79.56606,-6.16824],[-79.5709,-6.19028]]]}},{"type":"Feature","properties":{"ubigeo":"140303","nombre":"Illimo"},"geometry":{"type":"Polygon","coordinates":[[[-79.79323,-6.47657],[-79.80715,-6.47514],[-79.81913,-6.47641],[-79.82682,-6.48032],[-79.83222,-6.47858],[-79.83878,-6.4896],[-79.84394,-6.49152],[-79.85732,-6.4882],[-79.85679,-6.48406],[-79.86514,-6.48418],[-79.86981,-6.47762],[-79.89525,-6.47239],[-79.90111,-6.47439],[-79.88137,-6.45178],[-79.87121,-6.45285],[-79.85929,-6.45001],[-79.84438,-6.4572],[-79.8348,-6.4642],[-79.80949,-6.46872],[-79.80269,-6.47461],[-79.79366,-6.47427],[-79.79323,-6.47657]]]}},{"type":"Feature","properties":{"ubigeo":"140304","nombre":"Jayanca"},"geometry":{"type":"Polygon","coordinates":[[[-79.70806,-6.29285],[-79.69915,-6.34198],[-79.70283,-6.34863],[-79.69691,-6.36528],[-79.69281,-6.37049],[-79.69009,-6.38827],[-79.68188,-6.39773],[-79.66835,-6.40644],[-79.65964,-6.4054],[-79.653,-6.40063],[-79.64455,-6.39947],[-79.61762,-6.38359],[-79.60823,-6.37272],[-79.5923,-6.36855],[-79.58999,-6.3637],[-79.57887,-6.3581],[-79.57402,-6.34679],[-79.56296,-6.33929],[-79.5554,-6.34123],[-79.54892,-6.35709],[-79.54334,-6.35831],[-79.53453,-6.37048],[-79.53336,-6.38305],[-79.52834,-6.39981],[-79.55021,-6.40843],[-79.56657,-6.41187],[-79.57768,-6.4104],[-79.61344,-6.42529],[-79.62898,-6.43833],[-79.63818,-6.44306],[-79.64425,-6.45129],[-79.65191,-6.4554],[-79.68669,-6.4515],[-79.69791,-6.45143],[-79.7207,-6.44773],[-79.75269,-6.43937],[-79.77959,-6.44321],[-79.79997,-6.43207],[-79.83061,-6.42271],[-79.83978,-6.41837],[-79.84254,-6.41333],[-79.85026,-6.41213],[-79.85499,-6.40309],[-79.95131,-6.40062],[-79.95356,-6.36697],[-79.95734,-6.33702],[-79.95509,-6.32456],[-79.9568,-6.30794],[-79.96325,-6.27705],[-79.96522,-6.25541],[-79.96147,-6.2299],[-79.96237,-6.21294],[-79.952,-6.18954],[-79.93513,-6.16887],[-79.93127,-6.15641],[-79.92983,-6.14211],[-79.92305,-6.1406],[-79.9128,-6.15568],[-79.90001,-6.16767],[-79.88895,-6.18402],[-79.87075,-6.19938],[-79.86202,-6.19807],[-79.85042,-6.20244],[-79.8461,-6.21096],[-79.84619,-6.21877],[-79.84215,-6.23411],[-79.83143,-6.24537],[-79.80901,-6.24689],[-79.80326,-6.24368],[-79.79233,-6.25207],[-79.80425,-6.26018],[-79.80503,-6.27254],[-79.79936,-6.28065],[-79.7856,-6.29226],[-79.76787,-6.32143],[-79.76544,-6.32845],[-79.75546,-6.32634],[-79.7466,-6.31797],[-79.73745,-6.31357],[-79.73735,-6.30665],[-79.7327,-6.30132],[-79.72424,-6.30044],[-79.70806,-6.29285]]]}},{"type":"Feature","properties":{"ubigeo":"140305","nombre":"Mochumi"},"geometry":{"type":"Polygon","coordinates":[[[-79.84154,-6.5958],[-79.84241,-6.60136],[-79.85088,-6.60345],[-79.86883,-6.60132],[-79.87775,-6.594],[-79.89673,-6.59019],[-79.90383,-6.59262],[-79.91813,-6.58984],[-79.93625,-6.59868],[-79.9403,-6.61118],[-79.94726,-6.61419],[-79.95445,-6.60974],[-79.96485,-6.61439],[-79.96319,-6.61177],[-79.93867,-6.55079],[-79.94204,-6.53482],[-79.94019,-6.53068],[-79.90262,-6.52632],[-79.88901,-6.52857],[-79.88451,-6.52363],[-79.86041,-6.52866],[-79.84386,-6.52796],[-79.83788,-6.52337],[-79.82565,-6.5208],[-79.81812,-6.5206],[-79.81426,-6.52484],[-79.81817,-6.53464],[-79.82497,-6.54269],[-79.82998,-6.56141],[-79.8298,-6.5711],[-79.83005,-6.57677],[-79.83762,-6.5778],[-79.84154,-6.5958]]]}},{"type":"Feature","properties":{"ubigeo":"140306","nombre":"Morrope"},"geometry":{"type":"Polygon","coordinates":[[[-79.90111,-6.47439],[-79.91072,-6.47634],[-79.92177,-6.49096],[-79.92675,-6.50833],[-79.93701,-6.51512],[-79.94257,-6.52812],[-79.94204,-6.53482],[-79.93867,-6.55079],[-79.96319,-6.61177],[-79.96485,-6.61439],[-79.94976,-6.63829],[-79.95276,-6.641],[-79.99399,-6.64299],[-80.11175,-6.65144],[-80.17732,-6.60604],[-80.25648,-6.56083],[-80.28864,-6.54308],[-80.40892,-6.48178],[-80.5,-6.43342],[-80.55403,-6.40642],[-80.60179,-6.38443],[-80.62713,-6.37208],[-80.62706,-6.37187],[-80.61738,-6.37347],[-80.50223,-6.38725],[-80.49175,-6.38812],[-80.29099,-6.4128],[-80.21235,-6.42171],[-80.18471,-6.42534],[-80.0401,-6.44299],[-80.01637,-6.44556],[-79.97891,-6.45204],[-79.93319,-6.45895],[-79.91167,-6.46825],[-79.90111,-6.47439]]]}},{"type":"Feature","properties":{"ubigeo":"140307","nombre":"Motupe"},"geometry":{"type":"Polygon","coordinates":[[[-79.57613,-6.12723],[-79.59244,-6.12609],[-79.59782,-6.13385],[-79.60629,-6.13729],[-79.61438,-6.12951],[-79.63035,-6.12248],[-79.63447,-6.1304],[-79.65552,-6.1346],[-79.65977,-6.14146],[-79.67358,-6.13577],[-79.684,-6.14182],[-79.68874,-6.16357],[-79.67008,-6.17601],[-79.66552,-6.17015],[-79.63819,-6.1736],[-79.63628,-6.17836],[-79.62795,-6.17883],[-79.6147,-6.18629],[-79.61069,-6.18447],[-79.59009,-6.19091],[-79.58191,-6.197],[-79.5709,-6.19028],[-79.55215,-6.19478],[-79.56669,-6.20151],[-79.57596,-6.20973],[-79.59371,-6.23131],[-79.60002,-6.24184],[-79.61706,-6.25254],[-79.62365,-6.25322],[-79.63327,-6.25996],[-79.64017,-6.25843],[-79.65333,-6.26319],[-79.6606,-6.26204],[-79.67735,-6.26911],[-79.69969,-6.28795],[-79.70806,-6.29285],[-79.72424,-6.30044],[-79.7327,-6.30132],[-79.73735,-6.30665],[-79.73745,-6.31357],[-79.7466,-6.31797],[-79.75546,-6.32634],[-79.76544,-6.32845],[-79.76787,-6.32143],[-79.7856,-6.29226],[-79.79936,-6.28065],[-79.80503,-6.27254],[-79.80425,-6.26018],[-79.79233,-6.25207],[-79.80326,-6.24368],[-79.80281,-6.23096],[-79.81284,-6.21687],[-79.81446,-6.19701],[-79.81083,-6.1881],[-79.81762,-6.17307],[-79.82841,-6.16676],[-79.82491,-6.1603],[-79.82546,-6.15046],[-79.83029,-6.1453],[-79.8257,-6.14219],[-79.8211,-6.12781],[-79.81196,-6.12052],[-79.80739,-6.11218],[-79.79573,-6.10919],[-79.77842,-6.09975],[-79.77767,-6.09025],[-79.76873,-6.09049],[-79.75491,-6.08424],[-79.74823,-6.08474],[-79.73358,-6.07581],[-79.72483,-6.06506],[-79.72087,-6.06479],[-79.71959,-6.05666],[-79.71242,-6.04614],[-79.71419,-6.02843],[-79.71224,-6.02119],[-79.6953,-6.02108],[-79.69174,-6.0107],[-79.68223,-6.00442],[-79.66647,-6.00997],[-79.65405,-6.00002],[-79.63989,-5.99776],[-79.64358,-6.01688],[-79.63996,-6.02899],[-79.62793,-6.04238],[-79.62508,-6.07242],[-79.63088,-6.0793],[-79.62479,-6.08915],[-79.61443,-6.08849],[-79.60885,-6.09568],[-79.60223,-6.09724],[-79.59263,-6.10955],[-79.58358,-6.11523],[-79.57613,-6.12723]]]}},{"type":"Feature","properties":{"ubigeo":"140308","nombre":"Olmos"},"geometry":{"type":"Polygon","coordinates":[[[-79.60132,-5.93954],[-79.59951,-5.94789],[-79.59296,-5.95914],[-79.60532,-5.96717],[-79.60823,-5.98301],[-79.62116,-5.98288],[-79.62824,-5.99326],[-79.63989,-5.99776],[-79.65405,-6.00002],[-79.66647,-6.00997],[-79.68223,-6.00442],[-79.69174,-6.0107],[-79.6953,-6.02108],[-79.71224,-6.02119],[-79.71419,-6.02843],[-79.71242,-6.04614],[-79.71959,-6.05666],[-79.72087,-6.06479],[-79.72483,-6.06506],[-79.73358,-6.07581],[-79.74823,-6.08474],[-79.75491,-6.08424],[-79.76873,-6.09049],[-79.77767,-6.09025],[-79.77842,-6.09975],[-79.79573,-6.10919],[-79.80739,-6.11218],[-79.81196,-6.12052],[-79.8211,-6.12781],[-79.8257,-6.14219],[-79.83029,-6.1453],[-79.82546,-6.15046],[-79.82491,-6.1603],[-79.82841,-6.16676],[-79.81762,-6.17307],[-79.81083,-6.1881],[-79.81446,-6.19701],[-79.81284,-6.21687],[-79.80281,-6.23096],[-79.80326,-6.24368],[-79.80901,-6.24689],[-79.83143,-6.24537],[-79.84215,-6.23411],[-79.84619,-6.21877],[-79.8461,-6.21096],[-79.85042,-6.20244],[-79.86202,-6.19807],[-79.87075,-6.19938],[-79.88895,-6.18402],[-79.90001,-6.16767],[-79.9128,-6.15568],[-79.92305,-6.1406],[-79.92983,-6.14211],[-79.93127,-6.15641],[-79.93513,-6.16887],[-79.952,-6.18954],[-79.96237,-6.21294],[-79.96147,-6.2299],[-79.96522,-6.25541],[-79.96325,-6.27705],[-79.9568,-6.30794],[-79.95509,-6.32456],[-79.95734,-6.33702],[-79.95356,-6.36697],[-79.95131,-6.40062],[-79.93319,-6.45895],[-79.97891,-6.45204],[-80.01637,-6.44556],[-80.0401,-6.44299],[-80.18471,-6.42534],[-80.21235,-6.42171],[-80.29099,-6.4128],[-80.49175,-6.38812],[-80.50223,-6.38725],[-80.61738,-6.37347],[-80.62706,-6.37187],[-80.62468,-6.36831],[-80.5288,-6.19802],[-80.47916,-6.11241],[-80.42451,-6.02768],[-80.38815,-5.99613],[-80.36779,-5.99398],[-80.34796,-5.99572],[-80.34496,-6.00096],[-80.33388,-6.00696],[-80.32802,-6.00579],[-80.32706,-5.99453],[-80.34005,-5.987],[-80.34982,-5.9787],[-80.33697,-5.97093],[-80.33016,-5.94987],[-80.31526,-5.93644],[-80.30432,-5.92883],[-80.28743,-5.92074],[-80.25959,-5.91098],[-80.24279,-5.90627],[-80.20103,-5.89105],[-80.18535,-5.88756],[-80.17098,-5.87994],[-80.15535,-5.8798],[-80.13778,-5.88388],[-80.12385,-5.89131],[-80.12036,-5.87257],[-80.10607,-5.86745],[-80.09276,-5.85239],[-80.07999,-5.8353],[-80.06466,-5.82105],[-80.05818,-5.8191],[-80.05298,-5.81124],[-80.07971,-5.80231],[-80.09237,-5.79509],[-80.09521,-5.78312],[-80.10292,-5.76211],[-80.09809,-5.7355],[-80.09115,-5.72686],[-80.08992,-5.71338],[-80.09419,-5.70366],[-80.06996,-5.69763],[-80.06637,-5.69821],[-80.06107,-5.6844],[-80.07105,-5.67325],[-80.06621,-5.65614],[-80.06996,-5.64617],[-80.0577,-5.61956],[-80.05555,-5.6082],[-80.05695,-5.57684],[-80.05268,-5.5627],[-80.05312,-5.55503],[-80.05065,-5.54061],[-80.02671,-5.54122],[-80.01881,-5.53506],[-79.98335,-5.52875],[-79.94981,-5.51513],[-79.94587,-5.515],[-79.93874,-5.51666],[-79.93246,-5.50537],[-79.92136,-5.50217],[-79.90305,-5.49145],[-79.90184,-5.48131],[-79.89536,-5.48213],[-79.87903,-5.49927],[-79.87751,-5.50964],[-79.86737,-5.52063],[-79.86231,-5.52129],[-79.85399,-5.53182],[-79.8641,-5.54868],[-79.86442,-5.56342],[-79.85844,-5.57135],[-79.86014,-5.57529],[-79.85381,-5.59911],[-79.83944,-5.63003],[-79.83294,-5.64549],[-79.8276,-5.64494],[-79.82446,-5.65468],[-79.81757,-5.6579],[-79.80501,-5.64641],[-79.78693,-5.64659],[-79.77757,-5.65885],[-79.77015,-5.65921],[-79.76149,-5.66904],[-79.7678,-5.68531],[-79.75437,-5.6885],[-79.76642,-5.70825],[-79.75837,-5.71204],[-79.74927,-5.70967],[-79.74395,-5.71894],[-79.73648,-5.72144],[-79.71728,-5.73935],[-79.71775,-5.75039],[-79.72743,-5.78194],[-79.73455,-5.7874],[-79.73321,-5.79452],[-79.73932,-5.79959],[-79.73815,-5.80883],[-79.74193,-5.81897],[-79.73294,-5.83477],[-79.72309,-5.83877],[-79.71261,-5.83801],[-79.69809,-5.84639],[-79.68271,-5.84645],[-79.66988,-5.83546],[-79.6627,-5.83475],[-79.6594,-5.84735],[-79.66006,-5.86053],[-79.64513,-5.87936],[-79.6451,-5.88932],[-79.63504,-5.89839],[-79.63153,-5.90702],[-79.61743,-5.92659],[-79.61663,-5.93525],[-79.61125,-5.94125],[-79.60132,-5.93954]]]}},{"type":"Feature","properties":{"ubigeo":"140309","nombre":"Pacora"},"geometry":{"type":"Polygon","coordinates":[[[-79.79366,-6.47427],[-79.80269,-6.47461],[-79.80949,-6.46872],[-79.8348,-6.4642],[-79.84438,-6.4572],[-79.85929,-6.45001],[-79.87121,-6.45285],[-79.88137,-6.45178],[-79.90111,-6.47439],[-79.91167,-6.46825],[-79.93319,-6.45895],[-79.95131,-6.40062],[-79.85499,-6.40309],[-79.85026,-6.41213],[-79.84254,-6.41333],[-79.83978,-6.41837],[-79.83061,-6.42271],[-79.79997,-6.43207],[-79.80894,-6.44783],[-79.80552,-6.46404],[-79.79529,-6.47001],[-79.79366,-6.47427]]]}},{"type":"Feature","properties":{"ubigeo":"140310","nombre":"Salas"},"geometry":{"type":"Polygon","coordinates":[[[-79.41721,-6.00524],[-79.4206,-6.0154],[-79.41124,-6.031],[-79.40308,-6.03402],[-79.40968,-6.05015],[-79.40673,-6.05535],[-79.40916,-6.07626],[-79.40677,-6.08392],[-79.41182,-6.08838],[-79.41401,-6.09966],[-79.42344,-6.13108],[-79.43154,-6.14044],[-79.42818,-6.1481],[-79.40958,-6.1567],[-79.40185,-6.17351],[-79.4155,-6.18458],[-79.42213,-6.20007],[-79.43322,-6.20644],[-79.43611,-6.22159],[-79.44094,-6.2257],[-79.43701,-6.24001],[-79.44586,-6.24247],[-79.45699,-6.25098],[-79.47187,-6.26872],[-79.4733,-6.28164],[-79.48198,-6.30631],[-79.47731,-6.32034],[-79.49286,-6.32314],[-79.50403,-6.33568],[-79.51405,-6.34364],[-79.53329,-6.34842],[-79.54334,-6.35831],[-79.54892,-6.35709],[-79.5554,-6.34123],[-79.56296,-6.33929],[-79.57402,-6.34679],[-79.57887,-6.3581],[-79.58999,-6.3637],[-79.5923,-6.36855],[-79.60823,-6.37272],[-79.61762,-6.38359],[-79.64455,-6.39947],[-79.653,-6.40063],[-79.65964,-6.4054],[-79.66835,-6.40644],[-79.68188,-6.39773],[-79.69009,-6.38827],[-79.69281,-6.37049],[-79.69691,-6.36528],[-79.70283,-6.34863],[-79.69915,-6.34198],[-79.70806,-6.29285],[-79.69969,-6.28795],[-79.67735,-6.26911],[-79.6606,-6.26204],[-79.65333,-6.26319],[-79.64017,-6.25843],[-79.63327,-6.25996],[-79.62365,-6.25322],[-79.61706,-6.25254],[-79.60002,-6.24184],[-79.59371,-6.23131],[-79.57596,-6.20973],[-79.56669,-6.20151],[-79.55215,-6.19478],[-79.5709,-6.19028],[-79.56606,-6.16824],[-79.5678,-6.16226],[-79.56302,-6.15286],[-79.54466,-6.13968],[-79.54541,-6.13133],[-79.5505,-6.12339],[-79.56401,-6.12704],[-79.57613,-6.12723],[-79.58358,-6.11523],[-79.59263,-6.10955],[-79.60223,-6.09724],[-79.60885,-6.09568],[-79.61443,-6.08849],[-79.62479,-6.08915],[-79.63088,-6.0793],[-79.62508,-6.07242],[-79.62793,-6.04238],[-79.63996,-6.02899],[-79.64358,-6.01688],[-79.63989,-5.99776],[-79.62824,-5.99326],[-79.62116,-5.98288],[-79.60823,-5.98301],[-79.60532,-5.96717],[-79.59296,-5.95914],[-79.59951,-5.94789],[-79.60132,-5.93954],[-79.59375,-5.93381],[-79.58696,-5.93842],[-79.58119,-5.93525],[-79.57154,-5.93779],[-79.56382,-5.93387],[-79.55242,-5.93746],[-79.55168,-5.93293],[-79.54299,-5.9251],[-79.53153,-5.9207],[-79.52886,-5.91382],[-79.50885,-5.89583],[-79.49959,-5.89553],[-79.48392,-5.88811],[-79.47072,-5.89682],[-79.45735,-5.89549],[-79.45039,-5.90501],[-79.45184,-5.91305],[-79.43932,-5.92359],[-79.4246,-5.92702],[-79.40875,-5.9254],[-79.39578,-5.92082],[-79.39295,-5.91639],[-79.37462,-5.90768],[-79.36186,-5.89774],[-79.35137,-5.89818],[-79.33544,-5.89397],[-79.35465,-5.91296],[-79.36741,-5.93722],[-79.38022,-5.94013],[-79.39836,-5.94993],[-79.42051,-5.9721],[-79.41741,-5.98105],[-79.41721,-6.00524]]]}},{"type":"Feature","properties":{"ubigeo":"140311","nombre":"San José"},"geometry":{"type":"Polygon","coordinates":[[[-79.9424,-6.8205],[-79.9562,-6.79165],[-79.96385,-6.7838],[-79.97944,-6.75622],[-79.93329,-6.7331],[-79.91122,-6.73571],[-79.8952,-6.73104],[-79.89819,-6.73537],[-79.89692,-6.74621],[-79.90074,-6.75923],[-79.90751,-6.76958],[-79.91735,-6.77521],[-79.9424,-6.8205]]]}},{"type":"Feature","properties":{"ubigeo":"140312","nombre":"Tucume"},"geometry":{"type":"Polygon","coordinates":[[[-79.82565,-6.5208],[-79.83788,-6.52337],[-79.84386,-6.52796],[-79.86041,-6.52866],[-79.88451,-6.52363],[-79.88901,-6.52857],[-79.90262,-6.52632],[-79.94019,-6.53068],[-79.94204,-6.53482],[-79.94257,-6.52812],[-79.93701,-6.51512],[-79.92675,-6.50833],[-79.92177,-6.49096],[-79.91072,-6.47634],[-79.90111,-6.47439],[-79.89525,-6.47239],[-79.86981,-6.47762],[-79.86514,-6.48418],[-79.85679,-6.48406],[-79.85732,-6.4882],[-79.84394,-6.49152],[-79.83878,-6.4896],[-79.83222,-6.47858],[-79.82682,-6.48032],[-79.81913,-6.47641],[-79.80715,-6.47514],[-79.79323,-6.47657],[-79.79921,-6.48243],[-79.81124,-6.48543],[-79.81949,-6.49141],[-79.82468,-6.4991],[-79.82565,-6.5208]]]}}]}