{"type":"FeatureCollection","features":[{"type":"Feature","properties":{"ubigeo":"180101","nombre":"Moquegua"},"geometry":{"type":"Polygon","coordinates":[[[-70.90003,-17.14694],[-70.89626,-17.15603],[-70.88767,-17.16751],[-70.89303,-17.17222],[-70.91229,-17.17893],[-70.9013,-17.19502],[-70.89317,-17.19367],[-70.87511,-17.18565],[-70.86913,-17.18776],[-70.8626,-17.19604],[-70.85498,-17.19513],[-70.84393,-17.18287],[-70.82965,-17.1759],[-70.81657,-17.16282],[-70.80658,-17.16305],[-70.79397,-17.15654],[-70.78692,-17.15637],[-70.77249,-17.16366],[-70.76166,-17.17422],[-70.75415,-17.17678],[-70.7496,-17.17301],[-70.73895,-17.17465],[-70.72856,-17.17075],[-70.71579,-17.17413],[-70.71176,-17.17819],[-70.70366,-17.17783],[-70.68905,-17.17249],[-70.66192,-17.17134],[-70.64442,-17.17409],[-70.58908,-17.18687],[-70.58233,-17.19228],[-70.57251,-17.19411],[-70.57658,-17.19838],[-70.59916,-17.21038],[-70.60998,-17.2145],[-70.61887,-17.20917],[-70.63003,-17.21397],[-70.63355,-17.21084],[-70.65241,-17.2095],[-70.66644,-17.21421],[-70.67113,-17.21979],[-70.68422,-17.22498],[-70.68832,-17.23964],[-70.69298,-17.24118],[-70.7012,-17.2546],[-70.70428,-17.26721],[-70.71592,-17.27365],[-70.71227,-17.28748],[-70.70592,-17.28961],[-70.71587,-17.30177],[-70.7208,-17.31103],[-70.73001,-17.31823],[-70.73811,-17.33062],[-70.74614,-17.34953],[-70.75168,-17.37048],[-70.7524,-17.38057],[-70.74266,-17.39629],[-70.7356,-17.40123],[-70.73931,-17.41196],[-70.75115,-17.42238],[-70.75463,-17.43758],[-70.76357,-17.44052],[-70.77071,-17.44834],[-70.77998,-17.4506],[-70.78767,-17.46028],[-70.80285,-17.47532],[-70.81041,-17.48644],[-70.82036,-17.49315],[-70.84376,-17.52466],[-70.85603,-17.5316],[-70.86676,-17.54738],[-70.87965,-17.55524],[-70.88408,-17.58164],[-70.89316,-17.59285],[-70.89708,-17.61232],[-70.9026,-17.6195],[-70.90514,-17.64351],[-70.90781,-17.64722],[-70.91834,-17.64945],[-70.92987,-17.64437],[-70.93392,-17.63806],[-70.94638,-17.63282],[-70.9563,-17.63161],[-70.99278,-17.62268],[-70.9966,-17.62079],[-71.01654,-17.60097],[-71.02278,-17.59774],[-71.03116,-17.58566],[-71.03614,-17.55802],[-71.05155,-17.54111],[-71.07288,-17.5247],[-71.07395,-17.48747],[-71.0644,-17.48502],[-71.06051,-17.47582],[-71.04774,-17.46008],[-71.04189,-17.43889],[-71.0318,-17.4214],[-71.02545,-17.41429],[-71.0177,-17.39879],[-71.00655,-17.39429],[-70.98537,-17.37373],[-70.98095,-17.36486],[-70.96765,-17.35294],[-70.96041,-17.33257],[-70.95494,-17.32907],[-70.95259,-17.3192],[-70.94449,-17.31215],[-70.94126,-17.29604],[-70.94064,-17.28127],[-70.93493,-17.2653],[-70.92604,-17.25736],[-70.92688,-17.25231],[-70.91287,-17.24526],[-70.91219,-17.23589],[-70.92677,-17.23054],[-70.93837,-17.21984],[-70.93331,-17.20088],[-70.9544,-17.20132],[-70.96677,-17.19739],[-70.96631,-17.1906],[-70.97159,-17.18419],[-70.98461,-17.18439],[-70.98984,-17.17375],[-70.99673,-17.17065],[-71.00346,-17.15983],[-71.01553,-17.15486],[-71.02198,-17.15686],[-71.03269,-17.15429],[-71.04048,-17.15652],[-71.04369,-17.16448],[-71.04212,-17.17737],[-71.04849,-17.18454],[-71.04735,-17.2003],[-71.06316,-17.21222],[-71.08041,-17.21683],[-71.08065,-17.24039],[-71.09207,-17.25738],[-71.10276,-17.26859],[-71.09601,-17.29064],[-71.09801,-17.29515],[-71.09811,-17.32439],[-71.09681,-17.33754],[-71.10367,-17.35012],[-71.09861,-17.35921],[-71.10444,-17.37057],[-71.11954,-17.38572],[-71.12479,-17.40117],[-71.13075,-17.40696],[-71.13583,-17.40602],[-71.14751,-17.41563],[-71.15811,-17.42724],[-71.15358,-17.43708],[-71.14881,-17.43822],[-71.15761,-17.45328],[-71.17356,-17.45348],[-71.18911,-17.44793],[-71.19781,-17.44726],[-71.21587,-17.43467],[-71.23124,-17.43516],[-71.24335,-17.43886],[-71.25935,-17.43995],[-71.27406,-17.42715],[-71.28116,-17.42926],[-71.31155,-17.44956],[-71.31093,-17.43765],[-71.31866,-17.41362],[-71.33068,-17.39805],[-71.31985,-17.39204],[-71.32923,-17.3862],[-71.34303,-17.39031],[-71.3481,-17.37647],[-71.36492,-17.36434],[-71.37634,-17.35128],[-71.37556,-17.33726],[-71.37271,-17.32676],[-71.36671,-17.31894],[-71.36937,-17.31223],[-71.38676,-17.3115],[-71.39549,-17.30452],[-71.39973,-17.28163],[-71.38753,-17.26938],[-71.38657,-17.26434],[-71.40909,-17.26209],[-71.42513,-17.26208],[-71.43438,-17.25966],[-71.44096,-17.25172],[-71.43648,-17.24405],[-71.4217,-17.23463],[-71.41087,-17.21259],[-71.38086,-17.18571],[-71.37044,-17.17417],[-71.35947,-17.15632],[-71.35139,-17.14741],[-71.32698,-17.13649],[-71.31633,-17.12474],[-71.31628,-17.11611],[-71.30584,-17.10367],[-71.30225,-17.09385],[-71.30781,-17.09014],[-71.31051,-17.08094],[-71.31561,-17.07861],[-71.31589,-17.06528],[-71.32365,-17.06179],[-71.32581,-17.0564],[-71.31897,-17.04421],[-71.32037,-17.04002],[-71.33122,-17.03329],[-71.33942,-17.02176],[-71.34848,-17.02474],[-71.3596,-17.02353],[-71.36491,-17.01446],[-71.37234,-17.01904],[-71.38461,-17.02111],[-71.38916,-17.0025],[-71.39379,-16.99771],[-71.39512,-16.98497],[-71.39092,-16.98049],[-71.37752,-16.97403],[-71.36372,-16.97859],[-71.35641,-16.97829],[-71.34522,-16.96723],[-71.34953,-16.9564],[-71.34845,-16.94838],[-71.33302,-16.94347],[-71.32313,-16.94926],[-71.31283,-16.95077],[-71.30368,-16.9582],[-71.28579,-16.94276],[-71.27554,-16.94212],[-71.26733,-16.93693],[-71.25435,-16.93717],[-71.24054,-16.9267],[-71.23068,-16.92815],[-71.21845,-16.9254],[-71.20698,-16.91747],[-71.1939,-16.90251],[-71.16938,-16.90697],[-71.1646,-16.90419],[-71.15862,-16.8941],[-71.15596,-16.87191],[-71.14559,-16.85874],[-71.13736,-16.85165],[-71.13534,-16.84388],[-71.12559,-16.83335],[-71.11723,-16.83054],[-71.11299,-16.81834],[-71.10192,-16.81023],[-71.09401,-16.79859],[-71.08392,-16.79315],[-71.07812,-16.78381],[-71.07668,-16.77363],[-71.06803,-16.77429],[-71.06092,-16.7586],[-71.04224,-16.75654],[-71.03409,-16.75352],[-71.02455,-16.75671],[-71.02,-16.7618],[-71.03159,-16.76641],[-71.04165,-16.78166],[-71.04025,-16.79154],[-71.03342,-16.79476],[-71.0255,-16.80515],[-71.01996,-16.81944],[-71.00581,-16.82937],[-71.00896,-16.83464],[-71.00905,-16.84991],[-71.0039,-16.86229],[-71.00086,-16.8809],[-71.00393,-16.89115],[-71.01633,-16.89707],[-71.01113,-16.90191],[-71.01605,-16.91728],[-71.0029,-16.9157],[-71.00122,-16.92246],[-70.99148,-16.92962],[-70.98951,-16.93604],[-70.9673,-16.95349],[-70.96039,-16.96148],[-70.95451,-16.96097],[-70.93629,-16.96704],[-70.93445,-16.97501],[-70.92616,-16.97735],[-70.92674,-16.9834],[-70.93484,-16.98841],[-70.93033,-16.99492],[-70.94162,-16.99467],[-70.94684,-17.00148],[-70.94541,-17.00656],[-70.951,-17.01936],[-70.96093,-17.02657],[-70.95885,-17.0496],[-70.96193,-17.05788],[-70.95854,-17.06023],[-70.96624,-17.07453],[-70.95204,-17.08171],[-70.9448,-17.1005],[-70.93221,-17.09882],[-70.91882,-17.10306],[-70.91361,-17.11066],[-70.91434,-17.12213],[-70.92112,-17.12698],[-70.92378,-17.13777],[-70.91843,-17.14941],[-70.90701,-17.15371],[-70.90003,-17.14694]]]}},{"type":"Feature","properties":{"ubigeo":"180102","nombre":"Carumas"},"geometry":{"type":"Polygon","coordinates":[[[-70.02462,-16.63118],[-70.00147,-16.65657],[-69.99839,-16.67515],[-70.01177,-16.68848],[-70.01045,-16.6999],[-69.99835,-16.70784],[-69.99505,-16.72079],[-69.99556,-16.72978],[-70.01188,-16.74185],[-70.02689,-16.7403],[-70.03554,-16.74289],[-70.03221,-16.75292],[-70.03954,-16.75609],[-70.04417,-16.76282],[-70.05086,-16.76366],[-70.05712,-16.77016],[-70.05419,-16.77374],[-70.05733,-16.78653],[-70.06956,-16.79845],[-70.08161,-16.80173],[-70.09109,-16.81212],[-70.09111,-16.87092],[-70.09443,-16.87992],[-70.09428,-16.89092],[-70.1056,-16.89726],[-70.10943,-16.90313],[-70.11357,-16.91783],[-70.11806,-16.92376],[-70.13227,-16.93477],[-70.14662,-16.93873],[-70.152,-16.93317],[-70.14837,-16.92187],[-70.17731,-16.91619],[-70.18129,-16.93212],[-70.18972,-16.93921],[-70.20097,-16.94401],[-70.21134,-16.9436],[-70.22393,-16.95203],[-70.22511,-16.95855],[-70.23957,-16.95695],[-70.24718,-16.95244],[-70.25433,-16.94003],[-70.25362,-16.93177],[-70.25931,-16.92052],[-70.25907,-16.90203],[-70.25228,-16.88942],[-70.24993,-16.87654],[-70.24377,-16.86024],[-70.23766,-16.85485],[-70.22308,-16.85609],[-70.21687,-16.84331],[-70.20483,-16.83901],[-70.19737,-16.84184],[-70.18407,-16.83469],[-70.18155,-16.81716],[-70.19426,-16.81811],[-70.20335,-16.8086],[-70.2255,-16.80953],[-70.2473,-16.80246],[-70.25284,-16.79888],[-70.25388,-16.78885],[-70.26646,-16.77843],[-70.26386,-16.77267],[-70.2698,-16.77057],[-70.29186,-16.78135],[-70.30761,-16.77305],[-70.31787,-16.77529],[-70.32368,-16.78299],[-70.33482,-16.78503],[-70.34493,-16.79146],[-70.354,-16.78948],[-70.35919,-16.79569],[-70.37279,-16.79818],[-70.37867,-16.8095],[-70.38523,-16.81587],[-70.39969,-16.8188],[-70.40939,-16.83019],[-70.42548,-16.83329],[-70.4326,-16.83985],[-70.44069,-16.84005],[-70.44327,-16.8531],[-70.45037,-16.86032],[-70.44775,-16.87413],[-70.45012,-16.8801],[-70.44244,-16.888],[-70.44202,-16.89313],[-70.45175,-16.90001],[-70.45169,-16.91312],[-70.45919,-16.92274],[-70.4949,-16.92986],[-70.50277,-16.93592],[-70.52325,-16.93472],[-70.5309,-16.9232],[-70.53204,-16.90985],[-70.53533,-16.90366],[-70.54729,-16.89625],[-70.56271,-16.91001],[-70.56138,-16.91975],[-70.57704,-16.92107],[-70.58019,-16.91355],[-70.59051,-16.89993],[-70.60943,-16.88759],[-70.62389,-16.87251],[-70.63551,-16.87233],[-70.65122,-16.88011],[-70.65886,-16.88064],[-70.68461,-16.87747],[-70.70913,-16.87917],[-70.71672,-16.87345],[-70.71619,-16.86229],[-70.72963,-16.8514],[-70.75227,-16.85293],[-70.77464,-16.87134],[-70.78901,-16.87328],[-70.79341,-16.86901],[-70.80571,-16.8753],[-70.82053,-16.87457],[-70.83135,-16.87102],[-70.8405,-16.85717],[-70.85831,-16.83918],[-70.8822,-16.82355],[-70.90187,-16.81485],[-70.90533,-16.7853],[-70.90211,-16.77767],[-70.89403,-16.7708],[-70.87893,-16.77485],[-70.8734,-16.77013],[-70.85713,-16.77073],[-70.85129,-16.76543],[-70.82464,-16.75976],[-70.81467,-16.76087],[-70.80393,-16.76631],[-70.79113,-16.76961],[-70.76688,-16.76393],[-70.75605,-16.76559],[-70.74963,-16.77744],[-70.73321,-16.77864],[-70.72065,-16.77202],[-70.70122,-16.78328],[-70.69193,-16.78316],[-70.68327,-16.79311],[-70.66849,-16.79606],[-70.66441,-16.80327],[-70.65683,-16.80428],[-70.63964,-16.79682],[-70.63573,-16.78743],[-70.62009,-16.7898],[-70.61075,-16.78724],[-70.59359,-16.77304],[-70.57755,-16.77366],[-70.5702,-16.78044],[-70.56586,-16.79169],[-70.56084,-16.79304],[-70.5559,-16.78555],[-70.54259,-16.78144],[-70.5322,-16.77301],[-70.51313,-16.77161],[-70.51244,-16.76568],[-70.53025,-16.75745],[-70.52714,-16.74852],[-70.5409,-16.73965],[-70.54766,-16.72909],[-70.54686,-16.71728],[-70.54952,-16.70517],[-70.54587,-16.69577],[-70.55375,-16.68454],[-70.55366,-16.67871],[-70.56111,-16.67111],[-70.56147,-16.65442],[-70.55068,-16.64114],[-70.55028,-16.63218],[-70.5465,-16.63036],[-70.53616,-16.61398],[-70.53679,-16.60802],[-70.5166,-16.59839],[-70.50989,-16.58783],[-70.50353,-16.58693],[-70.49566,-16.58061],[-70.48328,-16.5775],[-70.47742,-16.56349],[-70.47204,-16.55602],[-70.46372,-16.55232],[-70.44563,-16.5325],[-70.438,-16.53305],[-70.43122,-16.52584],[-70.4181,-16.53053],[-70.4107,-16.52605],[-70.39663,-16.52376],[-70.37904,-16.50628],[-70.3737,-16.504],[-70.37131,-16.49654],[-70.36399,-16.49419],[-70.35975,-16.47764],[-70.32996,-16.46215],[-70.31294,-16.46158],[-70.31375,-16.46647],[-70.30117,-16.47867],[-70.28702,-16.48331],[-70.28228,-16.48777],[-70.24353,-16.50447],[-70.22867,-16.50608],[-70.22019,-16.5133],[-70.2137,-16.5238],[-70.20049,-16.53959],[-70.18539,-16.5372],[-70.18156,-16.5418],[-70.1799,-16.55797],[-70.1757,-16.56072],[-70.17622,-16.57447],[-70.17312,-16.58338],[-70.17636,-16.59333],[-70.16887,-16.60193],[-70.1687,-16.60962],[-70.15792,-16.616],[-70.14876,-16.61531],[-70.13783,-16.62857],[-70.10917,-16.64282],[-70.10512,-16.64763],[-70.08785,-16.65523],[-70.08283,-16.64841],[-70.0674,-16.63842],[-70.0552,-16.63792],[-70.05128,-16.62909],[-70.04697,-16.62796],[-70.03064,-16.63472],[-70.02462,-16.63118]]]}},{"type":"Feature","properties":{"ubigeo":"180103","nombre":"Cuchumbaya"},"geometry":{"type":"Polygon","coordinates":[[[-70.76688,-16.76393],[-70.75149,-16.75593],[-70.74157,-16.75454],[-70.7333,-16.76093],[-70.72568,-16.76249],[-70.7247,-16.75357],[-70.71283,-16.75146],[-70.70636,-16.75547],[-70.69826,-16.75197],[-70.68328,-16.74995],[-70.67684,-16.74439],[-70.66077,-16.73801],[-70.63873,-16.73888],[-70.63199,-16.74963],[-70.60946,-16.75454],[-70.59633,-16.76136],[-70.59922,-16.76747],[-70.59359,-16.77304],[-70.61075,-16.78724],[-70.62009,-16.7898],[-70.63573,-16.78743],[-70.63964,-16.79682],[-70.65683,-16.80428],[-70.66441,-16.80327],[-70.66849,-16.79606],[-70.68327,-16.79311],[-70.69193,-16.78316],[-70.70122,-16.78328],[-70.72065,-16.77202],[-70.73321,-16.77864],[-70.74963,-16.77744],[-70.75605,-16.76559],[-70.76688,-16.76393]]]}},{"type":"Feature","properties":{"ubigeo":"180104","nombre":"Samegua"},"geometry":{"type":"Polygon","coordinates":[[[-70.90003,-17.14694],[-70.88626,-17.13757],[-70.8705,-17.11844],[-70.85659,-17.11121],[-70.85435,-17.1187],[-70.83997,-17.13025],[-70.83337,-17.1285],[-70.81862,-17.13914],[-70.81046,-17.14044],[-70.80274,-17.13716],[-70.7915,-17.14128],[-70.78442,-17.14955],[-70.77345,-17.15554],[-70.77249,-17.16366],[-70.78692,-17.15637],[-70.79397,-17.15654],[-70.80658,-17.16305],[-70.81657,-17.16282],[-70.82965,-17.1759],[-70.84393,-17.18287],[-70.85498,-17.19513],[-70.8626,-17.19604],[-70.86913,-17.18776],[-70.87511,-17.18565],[-70.89317,-17.19367],[-70.9013,-17.19502],[-70.91229,-17.17893],[-70.89303,-17.17222],[-70.88767,-17.16751],[-70.89626,-17.15603],[-70.90003,-17.14694]]]}},{"type":"Feature","properties":{"ubigeo":"180105","nombre":"San Cristóbal"},"geometry":{"type":"Polygon","coordinates":[[[-70.59359,-16.77304],[-70.59922,-16.76747],[-70.59633,-16.76136],[-70.60946,-16.75454],[-70.63199,-16.74963],[-70.63873,-16.73888],[-70.66077,-16.73801],[-70.67684,-16.74439],[-70.68328,-16.74995],[-70.69826,-16.75197],[-70.70636,-16.75547],[-70.71283,-16.75146],[-70.7247,-16.75357],[-70.72568,-16.76249],[-70.7333,-16.76093],[-70.74157,-16.75454],[-70.75149,-16.75593],[-70.76688,-16.76393],[-70.79113,-16.76961],[-70.80393,-16.76631],[-70.81467,-16.76087],[-70.82464,-16.75976],[-70.81631,-16.74603],[-70.80235,-16.74338],[-70.78899,-16.73695],[-70.77927,-16.71654],[-70.77894,-16.70579],[-70.77477,-16.68754],[-70.77113,-16.68068],[-70.77072,-16.66175],[-70.76414,-16.64507],[-70.76395,-16.63464],[-70.74723,-16.62307],[-70.74267,-16.62788],[-70.72856,-16.62531],[-70.72049,-16.61936],[-70.70315,-16.59784],[-70.71195,-16.58696],[-70.71977,-16.58395],[-70.72784,-16.57284],[-70.69965,-16.56928],[-70.68931,-16.55412],[-70.68004,-16.5474],[-70.66333,-16.55072],[-70.65455,-16.54877],[-70.64001,-16.55257],[-70.6342,-16.55778],[-70.62334,-16.55586],[-70.60986,-16.5484],[-70.60303,-16.54808],[-70.59415,-16.55478],[-70.59219,-16.56011],[-70.58306,-16.5604],[-70.57747,-16.56531],[-70.56278,-16.56388],[-70.5379,-16.55338],[-70.51965,-16.55985],[-70.51238,-16.55456],[-70.47204,-16.55602],[-70.47742,-16.56349],[-70.48328,-16.5775],[-70.49566,-16.58061],[-70.50353,-16.58693],[-70.50989,-16.58783],[-70.5166,-16.59839],[-70.53679,-16.60802],[-70.53616,-16.61398],[-70.5465,-16.63036],[-70.55028,-16.63218],[-70.55068,-16.64114],[-70.56147,-16.65442],[-70.56111,-16.67111],[-70.55366,-16.67871],[-70.55375,-16.68454],[-70.54587,-16.69577],[-70.54952,-16.70517],[-70.54686,-16.71728],[-70.54766,-16.72909],[-70.5409,-16.73965],[-70.52714,-16.74852],[-70.53025,-16.75745],[-70.51244,-16.76568],[-70.51313,-16.77161],[-70.5322,-16.77301],[-70.54259,-16.78144],[-70.5559,-16.78555],[-70.56084,-16.79304],[-70.56586,-16.79169],[-70.5702,-16.78044],[-70.57755,-16.77366],[-70.59359,-16.77304]]]}},{"type":"Feature","properties":{"ubigeo":"180106","nombre":"Torata"},"geometry":{"type":"Polygon","coordinates":[[[-70.90211,-16.77767],[-70.90533,-16.7853],[-70.90187,-16.81485],[-70.8822,-16.82355],[-70.85831,-16.83918],[-70.8405,-16.85717],[-70.83135,-16.87102],[-70.82053,-16.87457],[-70.80571,-16.8753],[-70.79341,-16.86901],[-70.78901,-16.87328],[-70.77464,-16.87134],[-70.75227,-16.85293],[-70.72963,-16.8514],[-70.71619,-16.86229],[-70.71672,-16.87345],[-70.70913,-16.87917],[-70.68461,-16.87747],[-70.65886,-16.88064],[-70.65122,-16.88011],[-70.63551,-16.87233],[-70.62389,-16.87251],[-70.60943,-16.88759],[-70.59051,-16.89993],[-70.58019,-16.91355],[-70.57704,-16.92107],[-70.56138,-16.91975],[-70.56271,-16.91001],[-70.54729,-16.89625],[-70.53533,-16.90366],[-70.53204,-16.90985],[-70.5309,-16.9232],[-70.52325,-16.93472],[-70.50277,-16.93592],[-70.4949,-16.92986],[-70.45919,-16.92274],[-70.45342,-16.92857],[-70.46082,-16.93447],[-70.46472,-16.94568],[-70.44347,-16.96205],[-70.446,-16.97393],[-70.45203,-16.9864],[-70.46079,-16.99788],[-70.46324,-17.00861],[-70.45375,-17.01731],[-70.44408,-17.04563],[-70.4392,-17.05036],[-70.44364,-17.05574],[-70.44825,-17.07208],[-70.44833,-17.07983],[-70.45297,-17.08305],[-70.46522,-17.08332],[-70.46822,-17.08753],[-70.47999,-17.08441],[-70.49186,-17.09137],[-70.49513,-17.11034],[-70.50204,-17.11884],[-70.50745,-17.1317],[-70.51687,-17.14286],[-70.52114,-17.15823],[-70.5278,-17.16831],[-70.53536,-17.17275],[-70.55002,-17.18576],[-70.55505,-17.19766],[-70.57251,-17.19411],[-70.58233,-17.19228],[-70.58908,-17.18687],[-70.64442,-17.17409],[-70.66192,-17.17134],[-70.68905,-17.17249],[-70.70366,-17.17783],[-70.71176,-17.17819],[-70.71579,-17.17413],[-70.72856,-17.17075],[-70.73895,-17.17465],[-70.7496,-17.17301],[-70.75415,-17.17678],[-70.76166,-17.17422],[-70.77249,-17.16366],[-70.77345,-17.15554],[-70.78442,-17.14955],[-70.7915,-17.14128],[-70.80274,-17.13716],[-70.81046,-17.14044],[-70.81862,-17.13914],[-70.83337,-17.1285],[-70.83997,-17.13025],[-70.85435,-17.1187],[-70.85659,-17.11121],[-70.8705,-17.11844],[-70.88626,-17.13757],[-70.90003,-17.14694],[-70.90701,-17.15371],[-70.91843,-17.14941],[-70.92378,-17.13777],[-70.92112,-17.12698],[-70.91434,-17.12213],[-70.91361,-17.11066],[-70.91882,-17.10306],[-70.93221,-17.09882],[-70.9448,-17.1005],[-70.95204,-17.08171],[-70.96624,-17.07453],[-70.95854,-17.06023],[-70.96193,-17.05788],[-70.95885,-17.0496],[-70.96093,-17.02657],[-70.951,-17.01936],[-70.94541,-17.00656],[-70.94684,-17.00148],[-70.94162,-16.99467],[-70.93033,-16.99492],[-70.93484,-16.98841],[-70.92674,-16.9834],[-70.92616,-16.97735],[-70.93445,-16.97501],[-70.93629,-16.96704],[-70.95451,-16.96097],[-70.96039,-16.96148],[-70.9673,-16.95349],[-70.98951,-16.93604],[-70.99148,-16.92962],[-71.00122,-16.92246],[-71.0029,-16.9157],[-71.01605,-16.91728],[-71.01113,-16.90191],[-71.01633,-16.89707],[-71.00393,-16.89115],[-71.00086,-16.8809],[-71.0039,-16.86229],[-71.00905,-16.84991],[-71.00896,-16.83464],[-71.00581,-16.82937],[-71.01996,-16.81944],[-71.0255,-16.80515],[-71.03342,-16.79476],[-71.04025,-16.79154],[-71.04165,-16.78166],[-71.03159,-16.76641],[-71.02,-16.7618],[-71.01468,-16.76787],[-71.00804,-16.76937],[-70.99457,-16.76426],[-70.98854,-16.76507],[-70.97357,-16.77029],[-70.96569,-16.77766],[-70.95575,-16.77827],[-70.94526,-16.77239],[-70.93155,-16.77368],[-70.92044,-16.778],[-70.91397,-16.77487],[-70.90211,-16.77767]]]}},{"type":"Feature","properties":{"ubigeo":"180107","nombre":"San Antonio"},"geometry":{"type":"Polygon","coordinates":[[[-71.14881,-17.43822],[-71.15358,-17.43708],[-71.15811,-17.42724],[-71.14751,-17.41563],[-71.13583,-17.40602],[-71.13075,-17.40696],[-71.12479,-17.40117],[-71.11954,-17.38572],[-71.10444,-17.37057],[-71.09861,-17.35921],[-71.10367,-17.35012],[-71.09681,-17.33754],[-71.09811,-17.32439],[-71.09801,-17.29515],[-71.09601,-17.29064],[-71.10276,-17.26859],[-71.09207,-17.25738],[-71.08065,-17.24039],[-71.08041,-17.21683],[-71.06316,-17.21222],[-71.04735,-17.2003],[-71.04849,-17.18454],[-71.04212,-17.17737],[-71.04369,-17.16448],[-71.04048,-17.15652],[-71.03269,-17.15429],[-71.02198,-17.15686],[-71.01553,-17.15486],[-71.00346,-17.15983],[-70.99673,-17.17065],[-70.98984,-17.17375],[-70.98461,-17.18439],[-70.97159,-17.18419],[-70.96631,-17.1906],[-70.96677,-17.19739],[-70.9544,-17.20132],[-70.93331,-17.20088],[-70.93837,-17.21984],[-70.92677,-17.23054],[-70.91219,-17.23589],[-70.91287,-17.24526],[-70.92688,-17.25231],[-70.92604,-17.25736],[-70.93493,-17.2653],[-70.94064,-17.28127],[-70.94126,-17.29604],[-70.94449,-17.31215],[-70.95259,-17.3192],[-70.95494,-17.32907],[-70.96041,-17.33257],[-70.96765,-17.35294],[-70.98095,-17.36486],[-70.98537,-17.37373],[-71.00655,-17.39429],[-71.0177,-17.39879],[-71.02545,-17.41429],[-71.0318,-17.4214],[-71.04189,-17.43889],[-71.04774,-17.46008],[-71.06051,-17.47582],[-71.0644,-17.48502],[-71.07395,-17.48747],[-71.07963,-17.48309],[-71.08824,-17.4836],[-71.10767,-17.47475],[-71.11589,-17.47482],[-71.12533,-17.46251],[-71.13319,-17.45594],[-71.14082,-17.43994],[-71.14881,-17.43822]]]}},{"type":"Feature","properties":{"ubigeo":"180201","nombre":"Omate"},"geometry":{"type":"Polygon","coordinates":[[[-70.98854,-16.76507],[-70.99457,-16.76426],[-71.00804,-16.76937],[-71.01468,-16.76787],[-71.02,-16.7618],[-71.01412,-16.75946],[-71.02341,-16.73051],[-71.03429,-16.71573],[-71.04939,-16.70733],[-71.05098,-16.70198],[-71.01718,-16.69157],[-71.01182,-16.67856],[-71.00456,-16.67375],[-71.00789,-16.64919],[-71.00024,-16.63815],[-71.00239,-16.59187],[-70.99675,-16.57556],[-70.99921,-16.56974],[-70.99632,-16.55031],[-70.9859,-16.54473],[-70.97469,-16.5256],[-70.97438,-16.51628],[-70.96883,-16.51259],[-70.952,-16.52346],[-70.94416,-16.5313],[-70.93674,-16.52726],[-70.92448,-16.52585],[-70.91577,-16.55279],[-70.90627,-16.56284],[-70.9127,-16.56898],[-70.91192,-16.57718],[-70.91587,-16.58925],[-70.91673,-16.6045],[-70.91496,-16.61382],[-70.90673,-16.62974],[-70.90545,-16.64391],[-70.89893,-16.65383],[-70.89586,-16.66769],[-70.90136,-16.69485],[-70.92265,-16.71327],[-70.93864,-16.72167],[-70.94961,-16.73429],[-70.95237,-16.74542],[-70.95966,-16.75143],[-70.97356,-16.75406],[-70.98854,-16.76507]]]}},{"type":"Feature","properties":{"ubigeo":"180202","nombre":"Chojata"},"geometry":{"type":"Polygon","coordinates":[[[-70.36155,-16.41026],[-70.35032,-16.41572],[-70.3334,-16.41145],[-70.32505,-16.41753],[-70.31589,-16.43159],[-70.31674,-16.4444],[-70.30631,-16.44721],[-70.31294,-16.46158],[-70.32996,-16.46215],[-70.35975,-16.47764],[-70.36399,-16.49419],[-70.37131,-16.49654],[-70.3737,-16.504],[-70.37904,-16.50628],[-70.39663,-16.52376],[-70.4107,-16.52605],[-70.4181,-16.53053],[-70.43122,-16.52584],[-70.438,-16.53305],[-70.44563,-16.5325],[-70.46372,-16.55232],[-70.47204,-16.55602],[-70.51238,-16.55456],[-70.51965,-16.55985],[-70.5379,-16.55338],[-70.56278,-16.56388],[-70.57747,-16.56531],[-70.58306,-16.5604],[-70.59219,-16.56011],[-70.59415,-16.55478],[-70.60303,-16.54808],[-70.60986,-16.5484],[-70.62334,-16.55586],[-70.6342,-16.55778],[-70.64001,-16.55257],[-70.65455,-16.54877],[-70.66333,-16.55072],[-70.68004,-16.5474],[-70.68931,-16.55412],[-70.69965,-16.56928],[-70.72784,-16.57284],[-70.73039,-16.55542],[-70.74115,-16.54422],[-70.74617,-16.54323],[-70.75316,-16.53168],[-70.75273,-16.52342],[-70.75751,-16.51784],[-70.75403,-16.51196],[-70.75501,-16.49085],[-70.76264,-16.48029],[-70.76679,-16.46554],[-70.75898,-16.44838],[-70.7587,-16.43635],[-70.76646,-16.42399],[-70.75849,-16.41308],[-70.75776,-16.39256],[-70.75355,-16.38676],[-70.74182,-16.37568],[-70.73768,-16.36277],[-70.73916,-16.35713],[-70.72355,-16.35822],[-70.71204,-16.36699],[-70.70526,-16.3669],[-70.68674,-16.35974],[-70.66187,-16.33897],[-70.6552,-16.3365],[-70.65054,-16.32254],[-70.64314,-16.31845],[-70.63613,-16.32355],[-70.61639,-16.32512],[-70.61748,-16.33386],[-70.60551,-16.34712],[-70.61188,-16.36189],[-70.60775,-16.37358],[-70.58849,-16.37443],[-70.56237,-16.36457],[-70.55218,-16.36469],[-70.53693,-16.37062],[-70.52715,-16.36681],[-70.53002,-16.35609],[-70.52457,-16.34749],[-70.50909,-16.35228],[-70.5019,-16.34602],[-70.48095,-16.35743],[-70.47296,-16.36698],[-70.47163,-16.37842],[-70.46243,-16.3816],[-70.45986,-16.38932],[-70.44492,-16.40405],[-70.4303,-16.41268],[-70.42085,-16.41109],[-70.41081,-16.41331],[-70.4044,-16.42123],[-70.37057,-16.41819],[-70.36155,-16.41026]]]}},{"type":"Feature","properties":{"ubigeo":"180203","nombre":"Coalaque"},"geometry":{"type":"Polygon","coordinates":[[[-70.96883,-16.51259],[-70.97438,-16.51628],[-70.97469,-16.5256],[-70.9859,-16.54473],[-70.99632,-16.55031],[-70.99921,-16.56974],[-70.99675,-16.57556],[-71.00239,-16.59187],[-71.00024,-16.63815],[-71.00789,-16.64919],[-71.00456,-16.67375],[-71.01182,-16.67856],[-71.01718,-16.69157],[-71.05098,-16.70198],[-71.05972,-16.68149],[-71.06304,-16.66176],[-71.07175,-16.66049],[-71.07727,-16.65456],[-71.0832,-16.64175],[-71.09478,-16.62709],[-71.1087,-16.61495],[-71.1169,-16.61066],[-71.12565,-16.58883],[-71.1219,-16.58506],[-71.11965,-16.56921],[-71.11111,-16.55446],[-71.09107,-16.54248],[-71.08178,-16.53477],[-71.07925,-16.51967],[-71.06845,-16.50235],[-71.07304,-16.49267],[-71.08083,-16.4835],[-71.08649,-16.46614],[-71.0934,-16.46229],[-71.09161,-16.45758],[-71.07827,-16.45856],[-71.07265,-16.46576],[-71.06495,-16.46181],[-71.05305,-16.46157],[-71.04811,-16.45508],[-71.04179,-16.4671],[-71.04447,-16.4691],[-71.03726,-16.48569],[-71.01833,-16.48742],[-71.0115,-16.49828],[-70.99245,-16.49587],[-70.97952,-16.48057],[-70.97292,-16.49445],[-70.9719,-16.50757],[-70.96883,-16.51259]]]}},{"type":"Feature","properties":{"ubigeo":"180204","nombre":"Ichuña"},"geometry":{"type":"Polygon","coordinates":[[[-70.40666,-16.10166],[-70.40129,-16.10253],[-70.4083,-16.1208],[-70.40194,-16.14903],[-70.38965,-16.15624],[-70.38411,-16.16755],[-70.37375,-16.17592],[-70.36723,-16.18926],[-70.36882,-16.19898],[-70.3592,-16.20863],[-70.34028,-16.2009],[-70.3316,-16.20256],[-70.32453,-16.21591],[-70.32784,-16.23482],[-70.33417,-16.23758],[-70.33626,-16.24507],[-70.34513,-16.2561],[-70.34038,-16.26883],[-70.34305,-16.28328],[-70.3478,-16.29084],[-70.34415,-16.29703],[-70.34685,-16.30141],[-70.33876,-16.3228],[-70.34833,-16.35477],[-70.3566,-16.36223],[-70.35782,-16.36832],[-70.3706,-16.36865],[-70.37148,-16.37453],[-70.38211,-16.38496],[-70.367,-16.39221],[-70.35655,-16.40027],[-70.36155,-16.41026],[-70.37057,-16.41819],[-70.4044,-16.42123],[-70.41081,-16.41331],[-70.42085,-16.41109],[-70.4303,-16.41268],[-70.44492,-16.40405],[-70.45986,-16.38932],[-70.46243,-16.3816],[-70.47163,-16.37842],[-70.47296,-16.36698],[-70.48095,-16.35743],[-70.5019,-16.34602],[-70.50909,-16.35228],[-70.52457,-16.34749],[-70.52517,-16.34129],[-70.53483,-16.33048],[-70.54283,-16.32641],[-70.53572,-16.3173],[-70.52866,-16.29965],[-70.52711,-16.28291],[-70.5207,-16.27516],[-70.51735,-16.26562],[-70.53962,-16.24836],[-70.5461,-16.24011],[-70.54495,-16.23222],[-70.55,-16.2208],[-70.55692,-16.2208],[-70.57288,-16.22606],[-70.58068,-16.2381],[-70.58444,-16.23861],[-70.59826,-16.2293],[-70.61178,-16.21147],[-70.6148,-16.20179],[-70.62185,-16.19673],[-70.62798,-16.18457],[-70.63491,-16.18007],[-70.63382,-16.17081],[-70.64675,-16.15403],[-70.65889,-16.17078],[-70.66333,-16.16997],[-70.66381,-16.15983],[-70.65941,-16.15143],[-70.66355,-16.14091],[-70.67031,-16.13378],[-70.66938,-16.11708],[-70.67642,-16.10309],[-70.66991,-16.08245],[-70.65866,-16.06103],[-70.65981,-16.052],[-70.65609,-16.04799],[-70.65764,-16.03584],[-70.66416,-16.03431],[-70.66918,-16.01378],[-70.66074,-16.00408],[-70.65684,-16.0038],[-70.64137,-15.98809],[-70.62477,-16.00302],[-70.61237,-15.99477],[-70.59231,-15.99157],[-70.58749,-15.98794],[-70.57856,-15.99073],[-70.56997,-15.98898],[-70.56289,-15.9825],[-70.56023,-15.9883],[-70.54929,-15.99518],[-70.53884,-16.01045],[-70.53092,-16.01416],[-70.52608,-16.02672],[-70.51669,-16.03319],[-70.51195,-16.02977],[-70.50771,-16.03777],[-70.4949,-16.04066],[-70.48256,-16.03947],[-70.46975,-16.04983],[-70.46306,-16.04962],[-70.44746,-16.03447],[-70.44311,-16.03447],[-70.4392,-16.03808],[-70.43507,-16.06015],[-70.41753,-16.07441],[-70.40979,-16.07635],[-70.40288,-16.08906],[-70.40666,-16.10166]]]}},{"type":"Feature","properties":{"ubigeo":"180205","nombre":"La Capilla"},"geometry":{"type":"Polygon","coordinates":[[[-71.39092,-16.98049],[-71.39463,-16.9734],[-71.4013,-16.96985],[-71.40183,-16.96052],[-71.40579,-16.95584],[-71.4221,-16.95508],[-71.43436,-16.96029],[-71.44489,-16.95648],[-71.45954,-16.96082],[-71.46594,-16.95057],[-71.45597,-16.93419],[-71.44135,-16.93242],[-71.43971,-16.92794],[-71.43122,-16.92693],[-71.42417,-16.91976],[-71.42514,-16.90695],[-71.42214,-16.8964],[-71.43033,-16.8881],[-71.43505,-16.8793],[-71.44085,-16.86128],[-71.44045,-16.84147],[-71.43579,-16.83683],[-71.44195,-16.82902],[-71.44411,-16.81755],[-71.44371,-16.80468],[-71.43646,-16.79563],[-71.42939,-16.77473],[-71.42969,-16.75134],[-71.42594,-16.74142],[-71.41768,-16.7383],[-71.4009,-16.72814],[-71.39456,-16.7312],[-71.36943,-16.71968],[-71.35329,-16.72495],[-71.34698,-16.74224],[-71.33103,-16.74806],[-71.32757,-16.75226],[-71.31242,-16.74297],[-71.31143,-16.73868],[-71.29597,-16.73219],[-71.28909,-16.72646],[-71.28581,-16.71635],[-71.27136,-16.71664],[-71.2654,-16.70944],[-71.25776,-16.70809],[-71.25701,-16.70277],[-71.24693,-16.6933],[-71.23549,-16.68889],[-71.23334,-16.67863],[-71.21907,-16.66649],[-71.21003,-16.66168],[-71.2022,-16.65198],[-71.18534,-16.66585],[-71.18096,-16.67674],[-71.15689,-16.67766],[-71.15335,-16.71655],[-71.14798,-16.72481],[-71.14881,-16.73465],[-71.14526,-16.74404],[-71.14774,-16.75152],[-71.14637,-16.76277],[-71.15157,-16.77646],[-71.15075,-16.78828],[-71.1397,-16.80718],[-71.14198,-16.81174],[-71.1555,-16.81992],[-71.16122,-16.82791],[-71.16514,-16.84074],[-71.16148,-16.84709],[-71.14559,-16.85874],[-71.15596,-16.87191],[-71.15862,-16.8941],[-71.1646,-16.90419],[-71.16938,-16.90697],[-71.1939,-16.90251],[-71.20698,-16.91747],[-71.21845,-16.9254],[-71.23068,-16.92815],[-71.24054,-16.9267],[-71.25435,-16.93717],[-71.26733,-16.93693],[-71.27554,-16.94212],[-71.28579,-16.94276],[-71.30368,-16.9582],[-71.31283,-16.95077],[-71.32313,-16.94926],[-71.33302,-16.94347],[-71.34845,-16.94838],[-71.34953,-16.9564],[-71.34522,-16.96723],[-71.35641,-16.97829],[-71.36372,-16.97859],[-71.37752,-16.97403],[-71.39092,-16.98049]]]}},{"type":"Feature","properties":{"ubigeo":"180206","nombre":"Lloque"},"geometry":{"type":"Polygon","coordinates":[[[-70.73916,-16.35713],[-70.73611,-16.34593],[-70.74197,-16.3102],[-70.75228,-16.27455],[-70.74553,-16.26083],[-70.73093,-16.25427],[-70.72387,-16.25909],[-70.71088,-16.25556],[-70.68768,-16.26337],[-70.68535,-16.27275],[-70.67873,-16.27565],[-70.66603,-16.26599],[-70.64682,-16.27842],[-70.63055,-16.28164],[-70.61919,-16.27815],[-70.61421,-16.27255],[-70.61109,-16.25741],[-70.61499,-16.25478],[-70.6127,-16.24444],[-70.59826,-16.2293],[-70.58444,-16.23861],[-70.58068,-16.2381],[-70.57288,-16.22606],[-70.55692,-16.2208],[-70.55,-16.2208],[-70.54495,-16.23222],[-70.5461,-16.24011],[-70.53962,-16.24836],[-70.51735,-16.26562],[-70.5207,-16.27516],[-70.52711,-16.28291],[-70.52866,-16.29965],[-70.53572,-16.3173],[-70.54283,-16.32641],[-70.53483,-16.33048],[-70.52517,-16.34129],[-70.52457,-16.34749],[-70.53002,-16.35609],[-70.52715,-16.36681],[-70.53693,-16.37062],[-70.55218,-16.36469],[-70.56237,-16.36457],[-70.58849,-16.37443],[-70.60775,-16.37358],[-70.61188,-16.36189],[-70.60551,-16.34712],[-70.61748,-16.33386],[-70.61639,-16.32512],[-70.63613,-16.32355],[-70.64314,-16.31845],[-70.65054,-16.32254],[-70.6552,-16.3365],[-70.66187,-16.33897],[-70.68674,-16.35974],[-70.70526,-16.3669],[-70.71204,-16.36699],[-70.72355,-16.35822],[-70.73916,-16.35713]]]}},{"type":"Feature","properties":{"ubigeo":"180207","nombre":"Matalaque"},"geometry":{"type":"Polygon","coordinates":[[[-70.72784,-16.57284],[-70.71977,-16.58395],[-70.71195,-16.58696],[-70.70315,-16.59784],[-70.72049,-16.61936],[-70.72856,-16.62531],[-70.74267,-16.62788],[-70.74723,-16.62307],[-70.76395,-16.63464],[-70.76414,-16.64507],[-70.77072,-16.66175],[-70.77113,-16.68068],[-70.77477,-16.68754],[-70.77894,-16.70579],[-70.77927,-16.71654],[-70.79598,-16.71636],[-70.80538,-16.70703],[-70.81147,-16.70581],[-70.83644,-16.68988],[-70.84535,-16.67507],[-70.8498,-16.6311],[-70.84824,-16.62614],[-70.86265,-16.62041],[-70.86922,-16.60218],[-70.8782,-16.59631],[-70.86748,-16.58814],[-70.87563,-16.5851],[-70.89681,-16.58702],[-70.90971,-16.58429],[-70.91587,-16.58925],[-70.91192,-16.57718],[-70.9127,-16.56898],[-70.90627,-16.56284],[-70.91577,-16.55279],[-70.92448,-16.52585],[-70.93674,-16.52726],[-70.94416,-16.5313],[-70.952,-16.52346],[-70.96883,-16.51259],[-70.9719,-16.50757],[-70.97292,-16.49445],[-70.97952,-16.48057],[-70.9672,-16.48111],[-70.95544,-16.47163],[-70.95293,-16.46099],[-70.96483,-16.4463],[-70.9649,-16.43716],[-70.9737,-16.42587],[-70.97524,-16.41216],[-70.96877,-16.40861],[-70.96383,-16.39974],[-70.95644,-16.39843],[-70.94666,-16.38975],[-70.93028,-16.38832],[-70.92162,-16.40119],[-70.91605,-16.39018],[-70.90543,-16.38853],[-70.89991,-16.41054],[-70.9028,-16.41881],[-70.89905,-16.43605],[-70.8935,-16.44099],[-70.87622,-16.43421],[-70.85161,-16.44729],[-70.84628,-16.44707],[-70.83146,-16.43042],[-70.82548,-16.42088],[-70.8073,-16.41196],[-70.81191,-16.40063],[-70.80992,-16.38444],[-70.81089,-16.37356],[-70.80566,-16.37179],[-70.79546,-16.37924],[-70.77881,-16.37929],[-70.77268,-16.37571],[-70.75869,-16.38078],[-70.75355,-16.38676],[-70.75776,-16.39256],[-70.75849,-16.41308],[-70.76646,-16.42399],[-70.7587,-16.43635],[-70.75898,-16.44838],[-70.76679,-16.46554],[-70.76264,-16.48029],[-70.75501,-16.49085],[-70.75403,-16.51196],[-70.75751,-16.51784],[-70.75273,-16.52342],[-70.75316,-16.53168],[-70.74617,-16.54323],[-70.74115,-16.54422],[-70.73039,-16.55542],[-70.72784,-16.57284]]]}},{"type":"Feature","properties":{"ubigeo":"180208","nombre":"Puquina"},"geometry":{"type":"Polygon","coordinates":[[[-71.05098,-16.70198],[-71.04939,-16.70733],[-71.03429,-16.71573],[-71.02341,-16.73051],[-71.01412,-16.75946],[-71.02,-16.7618],[-71.02455,-16.75671],[-71.03409,-16.75352],[-71.04224,-16.75654],[-71.06092,-16.7586],[-71.06803,-16.77429],[-71.07668,-16.77363],[-71.07812,-16.78381],[-71.08392,-16.79315],[-71.09401,-16.79859],[-71.10192,-16.81023],[-71.11299,-16.81834],[-71.11723,-16.83054],[-71.12559,-16.83335],[-71.13534,-16.84388],[-71.13736,-16.85165],[-71.14559,-16.85874],[-71.16148,-16.84709],[-71.16514,-16.84074],[-71.16122,-16.82791],[-71.1555,-16.81992],[-71.14198,-16.81174],[-71.1397,-16.80718],[-71.15075,-16.78828],[-71.15157,-16.77646],[-71.14637,-16.76277],[-71.14774,-16.75152],[-71.14526,-16.74404],[-71.14881,-16.73465],[-71.14798,-16.72481],[-71.15335,-16.71655],[-71.15689,-16.67766],[-71.18096,-16.67674],[-71.18534,-16.66585],[-71.2022,-16.65198],[-71.21003,-16.66168],[-71.21907,-16.66649],[-71.23334,-16.67863],[-71.23549,-16.68889],[-71.24693,-16.6933],[-71.25701,-16.70277],[-71.25776,-16.70809],[-71.2654,-16.70944],[-71.27136,-16.71664],[-71.28581,-16.71635],[-71.29604,-16.70743],[-71.29364,-16.69056],[-71.2839,-16.68224],[-71.28474,-16.66701],[-71.28037,-16.65764],[-71.27915,-16.61582],[-71.27318,-16.60702],[-71.2615,-16.60666],[-71.2593,-16.59106],[-71.26284,-16.58491],[-71.25933,-16.5774],[-71.25275,-16.57257],[-71.2448,-16.55023],[-71.24277,-16.52563],[-71.23824,-16.51674],[-71.23707,-16.50212],[-71.24934,-16.48236],[-71.24329,-16.47442],[-71.24564,-16.46686],[-71.2421,-16.46306],[-71.23621,-16.46601],[-71.22948,-16.4619],[-71.21914,-16.46057],[-71.20634,-16.4638],[-71.19703,-16.47166],[-71.18269,-16.47263],[-71.15793,-16.47097],[-71.13952,-16.47497],[-71.13639,-16.46971],[-71.12392,-16.46097],[-71.1102,-16.46579],[-71.10587,-16.46166],[-71.0934,-16.46229],[-71.08649,-16.46614],[-71.08083,-16.4835],[-71.07304,-16.49267],[-71.06845,-16.50235],[-71.07925,-16.51967],[-71.08178,-16.53477],[-71.09107,-16.54248],[-71.11111,-16.55446],[-71.11965,-16.56921],[-71.1219,-16.58506],[-71.12565,-16.58883],[-71.1169,-16.61066],[-71.1087,-16.61495],[-71.09478,-16.62709],[-71.0832,-16.64175],[-71.07727,-16.65456],[-71.07175,-16.66049],[-71.06304,-16.66176],[-71.05972,-16.68149],[-71.05098,-16.70198]]]}},{"type":"Feature","properties":{"ubigeo":"180209","nombre":"Quinistaquillas"},"geometry":{"type":"Polygon","coordinates":[[[-70.82464,-16.75976],[-70.85129,-16.76543],[-70.85713,-16.77073],[-70.8734,-16.77013],[-70.87893,-16.77485],[-70.89403,-16.7708],[-70.90211,-16.77767],[-70.91397,-16.77487],[-70.92044,-16.778],[-70.93155,-16.77368],[-70.94526,-16.77239],[-70.95575,-16.77827],[-70.96569,-16.77766],[-70.97357,-16.77029],[-70.98854,-16.76507],[-70.97356,-16.75406],[-70.95966,-16.75143],[-70.95237,-16.74542],[-70.94961,-16.73429],[-70.93864,-16.72167],[-70.92265,-16.71327],[-70.90136,-16.69485],[-70.89586,-16.66769],[-70.89893,-16.65383],[-70.90545,-16.64391],[-70.90673,-16.62974],[-70.91496,-16.61382],[-70.91673,-16.6045],[-70.91587,-16.58925],[-70.90971,-16.58429],[-70.89681,-16.58702],[-70.87563,-16.5851],[-70.86748,-16.58814],[-70.8782,-16.59631],[-70.86922,-16.60218],[-70.86265,-16.62041],[-70.84824,-16.62614],[-70.8498,-16.6311],[-70.84535,-16.67507],[-70.83644,-16.68988],[-70.81147,-16.70581],[-70.80538,-16.70703],[-70.79598,-16.71636],[-70.77927,-16.71654],[-70.78899,-16.73695],[-70.80235,-16.74338],[-70.81631,-16.74603],[-70.82464,-16.75976]]]}},{"type":"Feature","properties":{"ubigeo":"180210","nombre":"Ubinas"},"geometry":{"type":"Polygon","coordinates":[[[-70.66333,-16.16997],[-70.68142,-16.18571],[-70.68761,-16.19977],[-70.69756,-16.2089],[-70.71065,-16.2175],[-70.72028,-16.21853],[-70.73027,-16.23605],[-70.73093,-16.25427],[-70.74553,-16.26083],[-70.75228,-16.27455],[-70.74197,-16.3102],[-70.73611,-16.34593],[-70.73916,-16.35713],[-70.73768,-16.36277],[-70.74182,-16.37568],[-70.75355,-16.38676],[-70.75869,-16.38078],[-70.77268,-16.37571],[-70.77881,-16.37929],[-70.79546,-16.37924],[-70.80566,-16.37179],[-70.81089,-16.37356],[-70.80992,-16.38444],[-70.81191,-16.40063],[-70.8073,-16.41196],[-70.82548,-16.42088],[-70.83146,-16.43042],[-70.84628,-16.44707],[-70.85161,-16.44729],[-70.87622,-16.43421],[-70.8935,-16.44099],[-70.89905,-16.43605],[-70.9028,-16.41881],[-70.89991,-16.41054],[-70.90543,-16.38853],[-70.91605,-16.39018],[-70.92162,-16.40119],[-70.93028,-16.38832],[-70.94666,-16.38975],[-70.95644,-16.39843],[-70.96383,-16.39974],[-70.97385,-16.3942],[-70.9754,-16.38891],[-70.9696,-16.37226],[-70.97557,-16.36224],[-70.97276,-16.35375],[-70.97781,-16.3488],[-70.98001,-16.3318],[-70.98513,-16.32539],[-70.98629,-16.30995],[-70.95702,-16.3084],[-70.94625,-16.31384],[-70.94035,-16.31032],[-70.93911,-16.29893],[-70.921,-16.28769],[-70.91579,-16.2824],[-70.90343,-16.27761],[-70.88614,-16.28527],[-70.87648,-16.28155],[-70.872,-16.2657],[-70.85388,-16.24147],[-70.84641,-16.23815],[-70.84514,-16.23241],[-70.85051,-16.22798],[-70.86578,-16.22627],[-70.86653,-16.21839],[-70.85844,-16.21122],[-70.85389,-16.20248],[-70.85413,-16.1928],[-70.86107,-16.17475],[-70.87431,-16.17104],[-70.87859,-16.16662],[-70.86783,-16.15387],[-70.86747,-16.14669],[-70.87193,-16.14288],[-70.86711,-16.12848],[-70.88613,-16.11814],[-70.89376,-16.10283],[-70.88548,-16.10092],[-70.87506,-16.09458],[-70.87811,-16.08144],[-70.86681,-16.08008],[-70.86449,-16.06716],[-70.85674,-16.05634],[-70.81257,-16.05396],[-70.80451,-16.05513],[-70.80665,-16.0423],[-70.82012,-16.03161],[-70.81813,-16.01746],[-70.81487,-16.01217],[-70.81656,-16.00276],[-70.82861,-15.99921],[-70.82753,-15.98915],[-70.8202,-15.97847],[-70.81117,-15.98668],[-70.80429,-15.98466],[-70.79997,-15.97596],[-70.79321,-15.98609],[-70.79535,-15.9924],[-70.77961,-16.00696],[-70.77446,-16.01383],[-70.76511,-16.01775],[-70.7564,-16.01352],[-70.74156,-16.01606],[-70.73597,-16.02016],[-70.72859,-16.03141],[-70.71844,-16.03405],[-70.7054,-16.03176],[-70.69212,-16.02295],[-70.68294,-16.02129],[-70.67312,-16.01202],[-70.66918,-16.01378],[-70.66416,-16.03431],[-70.65764,-16.03584],[-70.65609,-16.04799],[-70.65981,-16.052],[-70.65866,-16.06103],[-70.66991,-16.08245],[-70.67642,-16.10309],[-70.66938,-16.11708],[-70.67031,-16.13378],[-70.66355,-16.14091],[-70.65941,-16.15143],[-70.66381,-16.15983],[-70.66333,-16.16997]]]}},{"type":"Feature","properties":{"ubigeo":"180211","nombre":"Yunga"},"geometry":{"type":"Polygon","coordinates":[[[-70.73093,-16.25427],[-70.73027,-16.23605],[-70.72028,-16.21853],[-70.71065,-16.2175],[-70.69756,-16.2089],[-70.68761,-16.19977],[-70.68142,-16.18571],[-70.66333,-16.16997],[-70.65889,-16.17078],[-70.64675,-16.15403],[-70.63382,-16.17081],[-70.63491,-16.18007],[-70.62798,-16.18457],[-70.62185,-16.19673],[-70.6148,-16.20179],[-70.61178,-16.21147],[-70.59826,-16.2293],[-70.6127,-16.24444],[-70.61499,-16.25478],[-70.61109,-16.25741],[-70.61421,-16.27255],[-70.61919,-16.27815],[-70.63055,-16.28164],[-70.64682,-16.27842],[-70.66603,-16.26599],[-70.67873,-16.27565],[-70.68535,-16.27275],[-70.68768,-16.26337],[-70.71088,-16.25556],[-70.72387,-16.25909],[-70.73093,-16.25427]]]}},{"type":"Feature","properties":{"ubigeo":"180301","nombre":"Ilo"},"geometry":{"type":"Polygon","coordinates":[[[-71.13944,-17.82148],[-71.14984,-17.81975],[-71.16891,-17.80914],[-71.16796,-17.80434],[-71.17455,-17.80326],[-71.17745,-17.7892],[-71.18488,-17.78121],[-71.20564,-17.76865],[-71.26958,-17.7353],[-71.32688,-17.70428],[-71.3562,-17.6916],[-71.36371,-17.69287],[-71.36818,-17.70616],[-71.3799,-17.70192],[-71.37065,-17.69152],[-71.37221,-17.68171],[-71.36378,-17.67436],[-71.35925,-17.66051],[-71.35119,-17.6538],[-71.3415,-17.63671],[-71.34259,-17.62114],[-71.33556,-17.62353],[-71.32122,-17.62247],[-71.30316,-17.6561],[-71.29634,-17.65681],[-71.29783,-17.66221],[-71.29099,-17.67589],[-71.27216,-17.67111],[-71.26632,-17.66737],[-71.23735,-17.67281],[-71.22323,-17.67092],[-71.21548,-17.6665],[-71.20737,-17.66737],[-71.19382,-17.66354],[-71.17292,-17.66515],[-71.16031,-17.67375],[-71.15143,-17.67216],[-71.13983,-17.68107],[-71.13841,-17.69239],[-71.1302,-17.69133],[-71.11645,-17.69412],[-71.10602,-17.69213],[-71.09901,-17.69732],[-71.09835,-17.7184],[-71.08412,-17.72128],[-71.08199,-17.73399],[-71.09424,-17.73324],[-71.10113,-17.7395],[-71.10314,-17.75528],[-71.12158,-17.786],[-71.12107,-17.80146],[-71.12628,-17.81283],[-71.13944,-17.82148]]]}},{"type":"Feature","properties":{"ubigeo":"180302","nombre":"El Algarrobal"},"geometry":{"type":"Polygon","coordinates":[[[-71.07395,-17.48747],[-71.07288,-17.5247],[-71.05155,-17.54111],[-71.03614,-17.55802],[-71.03116,-17.58566],[-71.02278,-17.59774],[-71.01654,-17.60097],[-70.9966,-17.62079],[-70.99278,-17.62268],[-70.9563,-17.63161],[-70.94638,-17.63282],[-70.93392,-17.63806],[-70.92987,-17.64437],[-70.91834,-17.64945],[-70.90781,-17.64722],[-70.90746,-17.66177],[-70.9125,-17.68737],[-70.93089,-17.68768],[-70.95628,-17.67596],[-70.96456,-17.67602],[-70.98316,-17.68463],[-70.98969,-17.67926],[-71.00335,-17.6837],[-71.00514,-17.6926],[-71.01663,-17.70877],[-71.02692,-17.70387],[-71.03694,-17.70965],[-71.04938,-17.70883],[-71.06054,-17.71864],[-71.07348,-17.71375],[-71.08334,-17.71753],[-71.08412,-17.72128],[-71.09835,-17.7184],[-71.09901,-17.69732],[-71.10602,-17.69213],[-71.11645,-17.69412],[-71.1302,-17.69133],[-71.13841,-17.69239],[-71.13983,-17.68107],[-71.15143,-17.67216],[-71.16031,-17.67375],[-71.17292,-17.66515],[-71.19382,-17.66354],[-71.20737,-17.66737],[-71.21548,-17.6665],[-71.22323,-17.67092],[-71.23735,-17.67281],[-71.26632,-17.66737],[-71.27216,-17.67111],[-71.29099,-17.67589],[-71.29783,-17.66221],[-71.29634,-17.65681],[-71.30316,-17.6561],[-71.32122,-17.62247],[-71.31898,-17.61697],[-71.30333,-17.60598],[-71.30083,-17.59961],[-71.28181,-17.59234],[-71.26699,-17.57954],[-71.25844,-17.54247],[-71.26163,-17.53657],[-71.26531,-17.5155],[-71.26353,-17.50895],[-71.26813,-17.50125],[-71.27998,-17.49262],[-71.28846,-17.48984],[-71.29088,-17.46906],[-71.30237,-17.46527],[-71.31155,-17.45523],[-71.31155,-17.44956],[-71.28116,-17.42926],[-71.27406,-17.42715],[-71.25935,-17.43995],[-71.24335,-17.43886],[-71.23124,-17.43516],[-71.21587,-17.43467],[-71.19781,-17.44726],[-71.18911,-17.44793],[-71.17356,-17.45348],[-71.15761,-17.45328],[-71.14881,-17.43822],[-71.14082,-17.43994],[-71.13319,-17.45594],[-71.12533,-17.46251],[-71.11589,-17.47482],[-71.10767,-17.47475],[-71.08824,-17.4836],[-71.07963,-17.48309],[-71.07395,-17.48747]]]}},{"type":"Feature","properties":{"ubigeo":"180303","nombre":"Pacocha"},"geometry":{"type":"Polygon","coordinates":[[[-71.32122,-17.62247],[-71.33556,-17.62353],[-71.34259,-17.62114],[-71.34419,-17.61257],[-71.35821,-17.58883],[-71.35755,-17.56863],[-71.36555,-17.54536],[-71.36074,-17.53951],[-71.36787,-17.52102],[-71.36115,-17.50945],[-71.3651,-17.49602],[-71.36295,-17.48879],[-71.37257,-17.47539],[-71.37306,-17.46648],[-71.38114,-17.44998],[-71.38686,-17.42852],[-71.38334,-17.42031],[-71.38964,-17.3985],[-71.39761,-17.38638],[-71.41353,-17.38011],[-71.42703,-17.36396],[-71.43187,-17.36745],[-71.43144,-17.35085],[-71.43711,-17.33856],[-71.45879,-17.33147],[-71.45893,-17.32799],[-71.4684,-17.32357],[-71.47088,-17.31887],[-71.47671,-17.32293],[-71.47633,-17.31414],[-71.47096,-17.30528],[-71.47254,-17.29716],[-71.4908,-17.28501],[-71.48371,-17.27914],[-71.4793,-17.27028],[-71.4712,-17.26526],[-71.46686,-17.25548],[-71.45744,-17.25216],[-71.44096,-17.25172],[-71.43438,-17.25966],[-71.42513,-17.26208],[-71.40909,-17.26209],[-71.38657,-17.26434],[-71.38753,-17.26938],[-71.39973,-17.28163],[-71.39549,-17.30452],[-71.38676,-17.3115],[-71.36937,-17.31223],[-71.36671,-17.31894],[-71.37271,-17.32676],[-71.37556,-17.33726],[-71.37634,-17.35128],[-71.36492,-17.36434],[-71.3481,-17.37647],[-71.34303,-17.39031],[-71.32923,-17.3862],[-71.31985,-17.39204],[-71.33068,-17.39805],[-71.31866,-17.41362],[-71.31093,-17.43765],[-71.31155,-17.44956],[-71.31155,-17.45523],[-71.30237,-17.46527],[-71.29088,-17.46906],[-71.28846,-17.48984],[-71.27998,-17.49262],[-71.26813,-17.50125],[-71.26353,-17.50895],[-71.26531,-17.5155],[-71.26163,-17.53657],[-71.25844,-17.54247],[-71.26699,-17.57954],[-71.28181,-17.59234],[-71.30083,-17.59961],[-71.30333,-17.60598],[-71.31898,-17.61697],[-71.32122,-17.62247]]]}}]}