{"type":"FeatureCollection","features":[{"type":"Feature","properties":{"ubigeo":"190101","nombre":"Chaupimarca"},"geometry":{"type":"Polygon","coordinates":[[[-76.22267,-10.71754],[-76.23698,-10.72297],[-76.25442,-10.72303],[-76.26141,-10.70657],[-76.25735,-10.70205],[-76.2665,-10.69349],[-76.26063,-10.6764],[-76.25693,-10.6746],[-76.24051,-10.68056],[-76.23746,-10.68662],[-76.23838,-10.69692],[-76.23118,-10.70279],[-76.22333,-10.70336],[-76.22558,-10.71235],[-76.22267,-10.71754]]]}},{"type":"Feature","properties":{"ubigeo":"190102","nombre":"Huachon"},"geometry":{"type":"Polygon","coordinates":[[[-75.62114,-10.62817],[-75.60872,-10.63502],[-75.60986,-10.64739],[-75.59912,-10.65899],[-75.60001,-10.6664],[-75.59337,-10.66653],[-75.57751,-10.67591],[-75.57342,-10.68063],[-75.58154,-10.69602],[-75.58389,-10.71429],[-75.58046,-10.72404],[-75.59555,-10.72169],[-75.61347,-10.7229],[-75.62232,-10.71875],[-75.64231,-10.72352],[-75.65662,-10.71672],[-75.66912,-10.72165],[-75.68233,-10.71952],[-75.69233,-10.71359],[-75.69315,-10.70755],[-75.70927,-10.69994],[-75.71577,-10.69352],[-75.74167,-10.68095],[-75.75149,-10.67152],[-75.75636,-10.67244],[-75.75794,-10.66442],[-75.76655,-10.66133],[-75.7745,-10.65412],[-75.77675,-10.648],[-75.79817,-10.64138],[-75.80303,-10.64179],[-75.81786,-10.64955],[-75.82324,-10.64472],[-75.83523,-10.64369],[-75.84321,-10.6477],[-75.84702,-10.63725],[-75.85775,-10.63859],[-75.86973,-10.64342],[-75.87669,-10.64064],[-75.88456,-10.64321],[-75.89414,-10.63529],[-75.90322,-10.63693],[-75.91939,-10.63191],[-75.92353,-10.62663],[-75.93115,-10.62882],[-75.92259,-10.64618],[-75.92408,-10.64968],[-75.93605,-10.64982],[-75.94014,-10.65487],[-75.94838,-10.6543],[-75.95246,-10.66407],[-75.96424,-10.66941],[-75.96434,-10.66067],[-75.97037,-10.64746],[-75.97015,-10.63558],[-75.9769,-10.63022],[-75.98877,-10.63033],[-76.00451,-10.62142],[-76.01557,-10.61143],[-76.01926,-10.602],[-76.00434,-10.59251],[-76.00325,-10.58638],[-75.98498,-10.57406],[-75.98201,-10.56888],[-75.96161,-10.55582],[-75.95075,-10.54495],[-75.93891,-10.53906],[-75.92663,-10.52625],[-75.90792,-10.51648],[-75.91009,-10.49674],[-75.90643,-10.48575],[-75.89622,-10.47287],[-75.8988,-10.46622],[-75.89051,-10.4551],[-75.86915,-10.45586],[-75.86093,-10.45373],[-75.85222,-10.4437],[-75.83668,-10.44063],[-75.82808,-10.44372],[-75.81916,-10.43965],[-75.81418,-10.44527],[-75.81722,-10.45151],[-75.80714,-10.45709],[-75.80092,-10.44506],[-75.80063,-10.43943],[-75.78783,-10.43492],[-75.77718,-10.44033],[-75.76786,-10.43304],[-75.7501,-10.43505],[-75.74701,-10.43986],[-75.73967,-10.43424],[-75.72915,-10.43372],[-75.72301,-10.42964],[-75.71988,-10.43351],[-75.71051,-10.4316],[-75.69844,-10.44135],[-75.69278,-10.4411],[-75.69294,-10.44946],[-75.67628,-10.45722],[-75.66844,-10.45878],[-75.66523,-10.47333],[-75.66774,-10.47559],[-75.67654,-10.51843],[-75.67078,-10.53044],[-75.66964,-10.54142],[-75.6611,-10.55331],[-75.66422,-10.56117],[-75.67074,-10.56631],[-75.66705,-10.57707],[-75.66811,-10.58355],[-75.67448,-10.59014],[-75.67484,-10.59918],[-75.67992,-10.60892],[-75.66737,-10.61752],[-75.65335,-10.63034],[-75.63907,-10.62911],[-75.63597,-10.62104],[-75.62341,-10.62234],[-75.62114,-10.62817]]]}},{"type":"Feature","properties":{"ubigeo":"190103","nombre":"Huariaca"},"geometry":{"type":"Polygon","coordinates":[[[-76.18213,-10.48033],[-76.18498,-10.47484],[-76.19899,-10.47437],[-76.20116,-10.4643],[-76.21043,-10.46368],[-76.20896,-10.45815],[-76.21605,-10.44382],[-76.22029,-10.4335],[-76.21932,-10.41163],[-76.21421,-10.39387],[-76.20717,-10.38871],[-76.2004,-10.38861],[-76.1854,-10.39546],[-76.17995,-10.40607],[-76.16433,-10.41403],[-76.15197,-10.40825],[-76.14041,-10.41065],[-76.13352,-10.41856],[-76.12886,-10.43097],[-76.1188,-10.42637],[-76.10829,-10.43051],[-76.10419,-10.43555],[-76.09464,-10.42942],[-76.07883,-10.43401],[-76.07472,-10.43951],[-76.07828,-10.45199],[-76.08719,-10.45395],[-76.09339,-10.47924],[-76.1187,-10.49447],[-76.13963,-10.52249],[-76.1431,-10.52285],[-76.15061,-10.51124],[-76.1758,-10.48951],[-76.18213,-10.48033]]]}},{"type":"Feature","properties":{"ubigeo":"190104","nombre":"Huayllay"},"geometry":{"type":"Polygon","coordinates":[[[-76.27778,-10.94037],[-76.27672,-10.95035],[-76.2715,-10.95226],[-76.26615,-10.96107],[-76.27295,-10.97102],[-76.26582,-10.98071],[-76.26358,-10.99882],[-76.25567,-11.0024],[-76.25982,-11.00574],[-76.25631,-11.01141],[-76.25995,-11.01501],[-76.25344,-11.02232],[-76.25957,-11.02592],[-76.25138,-11.03193],[-76.25079,-11.04022],[-76.24347,-11.04131],[-76.24016,-11.04693],[-76.24414,-11.07658],[-76.24833,-11.08249],[-76.25125,-11.09538],[-76.24938,-11.10729],[-76.24309,-11.11531],[-76.23859,-11.11535],[-76.22629,-11.12845],[-76.2237,-11.13651],[-76.2189,-11.13904],[-76.21463,-11.15031],[-76.22778,-11.1556],[-76.2449,-11.14298],[-76.25218,-11.15052],[-76.26294,-11.1496],[-76.28025,-11.13817],[-76.28856,-11.13783],[-76.29371,-11.13361],[-76.3079,-11.13266],[-76.31788,-11.11042],[-76.31973,-11.09668],[-76.31807,-11.09164],[-76.3319,-11.0836],[-76.3378,-11.08274],[-76.35096,-11.09419],[-76.35931,-11.08754],[-76.38357,-11.08026],[-76.38287,-11.0749],[-76.39235,-11.07042],[-76.39722,-11.07576],[-76.43001,-11.07646],[-76.43187,-11.07989],[-76.44681,-11.07125],[-76.45192,-11.07981],[-76.45824,-11.07847],[-76.46457,-11.08473],[-76.47752,-11.0831],[-76.49121,-11.08944],[-76.49757,-11.08611],[-76.51468,-11.06871],[-76.5267,-11.05099],[-76.5313,-11.03606],[-76.5564,-11.02285],[-76.56352,-11.0229],[-76.56925,-11.01348],[-76.57695,-11.01653],[-76.58016,-11.01084],[-76.57795,-10.99403],[-76.58139,-10.98831],[-76.57917,-10.98138],[-76.56508,-10.96618],[-76.56905,-10.9509],[-76.56836,-10.93481],[-76.57169,-10.91777],[-76.57574,-10.91361],[-76.5783,-10.90251],[-76.58118,-10.8726],[-76.58418,-10.85278],[-76.58821,-10.84505],[-76.58926,-10.8367],[-76.60158,-10.81587],[-76.61413,-10.817],[-76.62026,-10.81169],[-76.62722,-10.79709],[-76.62556,-10.792],[-76.63349,-10.78453],[-76.62699,-10.76933],[-76.63422,-10.75249],[-76.64046,-10.74864],[-76.64748,-10.73094],[-76.63006,-10.7367],[-76.61189,-10.73712],[-76.60142,-10.75767],[-76.5948,-10.75646],[-76.58769,-10.76161],[-76.57567,-10.77496],[-76.56497,-10.77606],[-76.55576,-10.78127],[-76.54143,-10.78488],[-76.52198,-10.78521],[-76.51265,-10.793],[-76.51421,-10.80223],[-76.50699,-10.81541],[-76.51392,-10.81672],[-76.51314,-10.8286],[-76.50119,-10.83378],[-76.48441,-10.83763],[-76.48211,-10.83395],[-76.4689,-10.83213],[-76.4493,-10.81877],[-76.43371,-10.81815],[-76.4243,-10.82221],[-76.40427,-10.82012],[-76.39334,-10.82349],[-76.38601,-10.83076],[-76.36379,-10.82993],[-76.36199,-10.83298],[-76.33104,-10.83752],[-76.3246,-10.84137],[-76.30712,-10.84527],[-76.29371,-10.85242],[-76.2958,-10.87137],[-76.29995,-10.89362],[-76.30487,-10.92927],[-76.27778,-10.94037]]]}},{"type":"Feature","properties":{"ubigeo":"190105","nombre":"Ninacaca"},"geometry":{"type":"Polygon","coordinates":[[[-75.99329,-10.82084],[-76.00814,-10.83035],[-76.0088,-10.8387],[-76.01503,-10.84268],[-76.04244,-10.8732],[-76.04448,-10.87952],[-76.05079,-10.88349],[-76.06808,-10.88662],[-76.07967,-10.89378],[-76.09134,-10.90656],[-76.09203,-10.9135],[-76.09896,-10.93031],[-76.10915,-10.93894],[-76.11001,-10.94672],[-76.11619,-10.95063],[-76.12293,-10.96264],[-76.12019,-10.95636],[-76.13615,-10.94652],[-76.14403,-10.94618],[-76.1589,-10.95018],[-76.16875,-10.94848],[-76.16777,-10.95339],[-76.1887,-10.95996],[-76.18252,-10.94852],[-76.18715,-10.94275],[-76.18096,-10.93552],[-76.18903,-10.91691],[-76.18962,-10.90791],[-76.18644,-10.90148],[-76.1897,-10.89563],[-76.18342,-10.88039],[-76.18701,-10.86415],[-76.17683,-10.85537],[-76.17426,-10.8381],[-76.18316,-10.81505],[-76.1892,-10.79522],[-76.17731,-10.78623],[-76.18122,-10.76064],[-76.18433,-10.75668],[-76.17631,-10.75119],[-76.16893,-10.73737],[-76.16081,-10.74769],[-76.15156,-10.75271],[-76.14938,-10.76135],[-76.14289,-10.75713],[-76.13959,-10.74627],[-76.12707,-10.74772],[-76.12272,-10.74332],[-76.11193,-10.74702],[-76.09692,-10.74499],[-76.09071,-10.73235],[-76.08386,-10.73365],[-76.06886,-10.71398],[-76.05946,-10.69807],[-76.05124,-10.6944],[-76.03934,-10.69646],[-76.02475,-10.6867],[-76.00781,-10.68025],[-75.99256,-10.68194],[-75.97229,-10.67733],[-75.96424,-10.66941],[-75.95246,-10.66407],[-75.94838,-10.6543],[-75.94014,-10.65487],[-75.93605,-10.64982],[-75.92408,-10.64968],[-75.92259,-10.64618],[-75.93115,-10.62882],[-75.92353,-10.62663],[-75.91939,-10.63191],[-75.90322,-10.63693],[-75.89414,-10.63529],[-75.88456,-10.64321],[-75.87669,-10.64064],[-75.86973,-10.64342],[-75.87296,-10.65567],[-75.88759,-10.66776],[-75.89063,-10.68131],[-75.88293,-10.70239],[-75.8932,-10.71051],[-75.90462,-10.71304],[-75.91176,-10.71893],[-75.94741,-10.73337],[-75.9477,-10.73697],[-75.96612,-10.75199],[-75.96363,-10.75733],[-75.97092,-10.76624],[-75.975,-10.79184],[-75.98934,-10.80627],[-75.99329,-10.82084]]]}},{"type":"Feature","properties":{"ubigeo":"190106","nombre":"Pallanchacra"},"geometry":{"type":"Polygon","coordinates":[[[-76.20717,-10.38871],[-76.21421,-10.39387],[-76.21932,-10.41163],[-76.22029,-10.4335],[-76.21605,-10.44382],[-76.23202,-10.46173],[-76.23253,-10.47203],[-76.24512,-10.48086],[-76.25589,-10.47369],[-76.26716,-10.45745],[-76.27575,-10.45731],[-76.28333,-10.4522],[-76.28226,-10.44524],[-76.29505,-10.43303],[-76.30283,-10.42113],[-76.30588,-10.41217],[-76.29763,-10.41005],[-76.2868,-10.4168],[-76.27508,-10.40305],[-76.27833,-10.39622],[-76.27277,-10.38914],[-76.27449,-10.38341],[-76.27112,-10.3711],[-76.26648,-10.3692],[-76.25748,-10.37387],[-76.24058,-10.38651],[-76.23215,-10.38876],[-76.22524,-10.3966],[-76.23089,-10.37179],[-76.22304,-10.37488],[-76.20282,-10.37758],[-76.20717,-10.38871]]]}},{"type":"Feature","properties":{"ubigeo":"190107","nombre":"Paucartambo"},"geometry":{"type":"Polygon","coordinates":[[[-75.93592,-10.88972],[-75.93863,-10.87985],[-75.93715,-10.87151],[-75.95109,-10.86385],[-75.95573,-10.85878],[-75.96163,-10.84396],[-75.97019,-10.84323],[-75.97888,-10.83215],[-75.99329,-10.82084],[-75.98934,-10.80627],[-75.975,-10.79184],[-75.97092,-10.76624],[-75.96363,-10.75733],[-75.96612,-10.75199],[-75.9477,-10.73697],[-75.94741,-10.73337],[-75.91176,-10.71893],[-75.90462,-10.71304],[-75.8932,-10.71051],[-75.88293,-10.70239],[-75.89063,-10.68131],[-75.88759,-10.66776],[-75.87296,-10.65567],[-75.86973,-10.64342],[-75.85775,-10.63859],[-75.84702,-10.63725],[-75.84321,-10.6477],[-75.83523,-10.64369],[-75.82324,-10.64472],[-75.81786,-10.64955],[-75.80303,-10.64179],[-75.79817,-10.64138],[-75.77675,-10.648],[-75.7745,-10.65412],[-75.76655,-10.66133],[-75.75794,-10.66442],[-75.75636,-10.67244],[-75.75149,-10.67152],[-75.74167,-10.68095],[-75.71577,-10.69352],[-75.70927,-10.69994],[-75.69315,-10.70755],[-75.69233,-10.71359],[-75.68233,-10.71952],[-75.66912,-10.72165],[-75.65662,-10.71672],[-75.64231,-10.72352],[-75.62232,-10.71875],[-75.61347,-10.7229],[-75.59555,-10.72169],[-75.58046,-10.72404],[-75.58389,-10.71429],[-75.58154,-10.69602],[-75.57342,-10.68063],[-75.57751,-10.67591],[-75.59337,-10.66653],[-75.60001,-10.6664],[-75.59912,-10.65899],[-75.60986,-10.64739],[-75.60872,-10.63502],[-75.62114,-10.62817],[-75.61334,-10.62126],[-75.60597,-10.62867],[-75.59389,-10.62908],[-75.59147,-10.63863],[-75.58118,-10.64915],[-75.57384,-10.64547],[-75.56203,-10.64464],[-75.55685,-10.63705],[-75.53952,-10.64106],[-75.53759,-10.64848],[-75.53885,-10.66116],[-75.54852,-10.67315],[-75.53107,-10.6828],[-75.52131,-10.67797],[-75.5121,-10.68234],[-75.51052,-10.70283],[-75.51529,-10.70905],[-75.51688,-10.72853],[-75.52187,-10.73903],[-75.53142,-10.74329],[-75.54364,-10.74101],[-75.55006,-10.74571],[-75.55692,-10.74407],[-75.56385,-10.72977],[-75.56827,-10.73319],[-75.57382,-10.74699],[-75.5759,-10.7599],[-75.57432,-10.77037],[-75.57651,-10.78102],[-75.5841,-10.80157],[-75.58967,-10.8109],[-75.60147,-10.81393],[-75.6056,-10.82189],[-75.64085,-10.82679],[-75.64977,-10.82338],[-75.6661,-10.82858],[-75.67855,-10.84018],[-75.69342,-10.8342],[-75.68853,-10.82732],[-75.69325,-10.81722],[-75.71272,-10.81424],[-75.71952,-10.80936],[-75.73237,-10.80919],[-75.743,-10.82253],[-75.76267,-10.83021],[-75.77293,-10.82588],[-75.78599,-10.82456],[-75.80698,-10.83908],[-75.81545,-10.84698],[-75.81832,-10.85405],[-75.816,-10.87288],[-75.83061,-10.87658],[-75.83838,-10.8863],[-75.84979,-10.88043],[-75.85152,-10.87326],[-75.86176,-10.86841],[-75.86526,-10.87654],[-75.87405,-10.86768],[-75.88287,-10.8699],[-75.89698,-10.86884],[-75.91711,-10.87444],[-75.92275,-10.88315],[-75.93059,-10.88339],[-75.93592,-10.88972]]]}},{"type":"Feature","properties":{"ubigeo":"190108","nombre":"San Francisco de Asís de Yarusyacan"},"geometry":{"type":"Polygon","coordinates":[[[-76.17904,-10.5261],[-76.1846,-10.52641],[-76.19406,-10.51304],[-76.21322,-10.53048],[-76.21278,-10.54034],[-76.20607,-10.55581],[-76.21005,-10.55944],[-76.20604,-10.56516],[-76.20582,-10.57941],[-76.20119,-10.58677],[-76.20602,-10.5944],[-76.20257,-10.59978],[-76.20179,-10.61392],[-76.20424,-10.62862],[-76.22438,-10.63544],[-76.23116,-10.63213],[-76.24086,-10.63452],[-76.24598,-10.63935],[-76.24443,-10.64543],[-76.24915,-10.65181],[-76.25521,-10.65244],[-76.25605,-10.64702],[-76.26465,-10.63605],[-76.2697,-10.61873],[-76.26406,-10.60511],[-76.26338,-10.5924],[-76.27309,-10.57801],[-76.27207,-10.56178],[-76.26365,-10.55679],[-76.25411,-10.54616],[-76.24196,-10.5427],[-76.23826,-10.53735],[-76.23599,-10.52368],[-76.23812,-10.5145],[-76.24981,-10.51002],[-76.25333,-10.50003],[-76.2503,-10.48859],[-76.24512,-10.48086],[-76.23253,-10.47203],[-76.23202,-10.46173],[-76.21605,-10.44382],[-76.20896,-10.45815],[-76.21043,-10.46368],[-76.20116,-10.4643],[-76.19899,-10.47437],[-76.18498,-10.47484],[-76.18213,-10.48033],[-76.18639,-10.48903],[-76.18123,-10.5],[-76.1809,-10.51967],[-76.17904,-10.5261]]]}},{"type":"Feature","properties":{"ubigeo":"190109","nombre":"Simon Bolívar"},"geometry":{"type":"Polygon","coordinates":[[[-76.25693,-10.6746],[-76.26063,-10.6764],[-76.2665,-10.69349],[-76.25735,-10.70205],[-76.26141,-10.70657],[-76.25442,-10.72303],[-76.25902,-10.72611],[-76.26984,-10.72235],[-76.27506,-10.73015],[-76.28462,-10.73438],[-76.30185,-10.73296],[-76.30245,-10.74806],[-76.30738,-10.74695],[-76.31406,-10.7541],[-76.31123,-10.75865],[-76.31186,-10.78002],[-76.30368,-10.79433],[-76.29168,-10.79525],[-76.28911,-10.80128],[-76.27528,-10.80538],[-76.27121,-10.80971],[-76.27046,-10.82243],[-76.26605,-10.82301],[-76.264,-10.85721],[-76.26595,-10.85907],[-76.28063,-10.85493],[-76.28466,-10.85822],[-76.29371,-10.85242],[-76.30712,-10.84527],[-76.3246,-10.84137],[-76.33104,-10.83752],[-76.36199,-10.83298],[-76.36379,-10.82993],[-76.38601,-10.83076],[-76.39334,-10.82349],[-76.40427,-10.82012],[-76.4243,-10.82221],[-76.43371,-10.81815],[-76.4493,-10.81877],[-76.4689,-10.83213],[-76.48211,-10.83395],[-76.48441,-10.83763],[-76.50119,-10.83378],[-76.51314,-10.8286],[-76.51392,-10.81672],[-76.50699,-10.81541],[-76.51421,-10.80223],[-76.51265,-10.793],[-76.52198,-10.78521],[-76.54143,-10.78488],[-76.55576,-10.78127],[-76.56497,-10.77606],[-76.57567,-10.77496],[-76.58769,-10.76161],[-76.5948,-10.75646],[-76.60142,-10.75767],[-76.61189,-10.73712],[-76.63006,-10.7367],[-76.64748,-10.73094],[-76.64902,-10.72072],[-76.65448,-10.71295],[-76.65334,-10.70769],[-76.65819,-10.69893],[-76.65938,-10.68825],[-76.66906,-10.68067],[-76.67077,-10.67577],[-76.66534,-10.67205],[-76.65989,-10.66182],[-76.65566,-10.64678],[-76.64673,-10.64414],[-76.63735,-10.64647],[-76.62454,-10.65741],[-76.61487,-10.67043],[-76.60678,-10.66919],[-76.60632,-10.67375],[-76.59433,-10.67694],[-76.58762,-10.68232],[-76.582,-10.69533],[-76.57328,-10.70224],[-76.57246,-10.7092],[-76.55152,-10.70783],[-76.53851,-10.70435],[-76.53136,-10.71255],[-76.52879,-10.72566],[-76.52334,-10.7266],[-76.52298,-10.73342],[-76.51617,-10.74295],[-76.5064,-10.7456],[-76.50191,-10.72488],[-76.49543,-10.71083],[-76.47541,-10.69437],[-76.47609,-10.68705],[-76.47078,-10.68414],[-76.47113,-10.66966],[-76.46589,-10.65858],[-76.45636,-10.64743],[-76.44488,-10.64888],[-76.43498,-10.65372],[-76.41961,-10.65317],[-76.38429,-10.62574],[-76.37309,-10.62009],[-76.36786,-10.62275],[-76.3614,-10.62529],[-76.35874,-10.61592],[-76.35014,-10.61094],[-76.34603,-10.59606],[-76.33313,-10.59002],[-76.31711,-10.59055],[-76.30989,-10.58685],[-76.30494,-10.59048],[-76.30407,-10.59853],[-76.29372,-10.60189],[-76.28363,-10.58875],[-76.28258,-10.58176],[-76.27309,-10.57801],[-76.26338,-10.5924],[-76.26406,-10.60511],[-76.2697,-10.61873],[-76.26465,-10.63605],[-76.26652,-10.64243],[-76.26229,-10.65602],[-76.26352,-10.66331],[-76.25693,-10.6746]]]}},{"type":"Feature","properties":{"ubigeo":"190110","nombre":"Ticlacayan"},"geometry":{"type":"Polygon","coordinates":[[[-75.96424,-10.66941],[-75.97229,-10.67733],[-75.99256,-10.68194],[-76.00781,-10.68025],[-76.02475,-10.6867],[-76.03934,-10.69646],[-76.05124,-10.6944],[-76.05946,-10.69807],[-76.06886,-10.71398],[-76.08386,-10.73365],[-76.09071,-10.73235],[-76.09692,-10.74499],[-76.11193,-10.74702],[-76.12272,-10.74332],[-76.12707,-10.74772],[-76.13959,-10.74627],[-76.14289,-10.75713],[-76.14938,-10.76135],[-76.15156,-10.75271],[-76.16081,-10.74769],[-76.16893,-10.73737],[-76.16343,-10.72741],[-76.16592,-10.72074],[-76.16603,-10.70532],[-76.17215,-10.69158],[-76.17248,-10.68014],[-76.1625,-10.67452],[-76.16801,-10.65545],[-76.16373,-10.64808],[-76.15863,-10.65036],[-76.14849,-10.64387],[-76.13683,-10.62884],[-76.13328,-10.61265],[-76.14196,-10.61336],[-76.15018,-10.60827],[-76.14742,-10.59538],[-76.15507,-10.58449],[-76.16732,-10.58797],[-76.16588,-10.5829],[-76.17618,-10.56177],[-76.17912,-10.54833],[-76.17904,-10.5261],[-76.1809,-10.51967],[-76.18123,-10.5],[-76.18639,-10.48903],[-76.18213,-10.48033],[-76.1758,-10.48951],[-76.15061,-10.51124],[-76.1431,-10.52285],[-76.13963,-10.52249],[-76.1187,-10.49447],[-76.09339,-10.47924],[-76.08719,-10.45395],[-76.07828,-10.45199],[-76.0725,-10.45242],[-76.05764,-10.46515],[-76.05069,-10.46419],[-76.04887,-10.45806],[-76.04075,-10.45486],[-76.03167,-10.45593],[-76.02812,-10.4671],[-76.01069,-10.4554],[-76.00279,-10.48889],[-75.97581,-10.47934],[-75.95848,-10.45696],[-75.95152,-10.44138],[-75.94349,-10.42873],[-75.93165,-10.41839],[-75.92515,-10.40676],[-75.926,-10.39872],[-75.93111,-10.39],[-75.93454,-10.37498],[-75.92441,-10.35603],[-75.91498,-10.34922],[-75.90366,-10.33423],[-75.87876,-10.3136],[-75.87068,-10.31095],[-75.85972,-10.30283],[-75.85567,-10.32639],[-75.85651,-10.33675],[-75.86196,-10.35449],[-75.85574,-10.37197],[-75.85665,-10.39408],[-75.85537,-10.40593],[-75.85703,-10.42463],[-75.86038,-10.43068],[-75.85869,-10.44164],[-75.86915,-10.45586],[-75.89051,-10.4551],[-75.8988,-10.46622],[-75.89622,-10.47287],[-75.90643,-10.48575],[-75.91009,-10.49674],[-75.90792,-10.51648],[-75.92663,-10.52625],[-75.93891,-10.53906],[-75.95075,-10.54495],[-75.96161,-10.55582],[-75.98201,-10.56888],[-75.98498,-10.57406],[-76.00325,-10.58638],[-76.00434,-10.59251],[-76.01926,-10.602],[-76.01557,-10.61143],[-76.00451,-10.62142],[-75.98877,-10.63033],[-75.9769,-10.63022],[-75.97015,-10.63558],[-75.97037,-10.64746],[-75.96434,-10.66067],[-75.96424,-10.66941]]]}},{"type":"Feature","properties":{"ubigeo":"190111","nombre":"Tinyahuarco"},"geometry":{"type":"Polygon","coordinates":[[[-76.1892,-10.79522],[-76.19569,-10.7823],[-76.22244,-10.78412],[-76.22969,-10.79591],[-76.23749,-10.79541],[-76.24481,-10.78205],[-76.25113,-10.7774],[-76.259,-10.77856],[-76.26351,-10.80088],[-76.27528,-10.80538],[-76.28911,-10.80128],[-76.29168,-10.79525],[-76.30368,-10.79433],[-76.31186,-10.78002],[-76.31123,-10.75865],[-76.31406,-10.7541],[-76.30738,-10.74695],[-76.30245,-10.74806],[-76.30185,-10.73296],[-76.28462,-10.73438],[-76.27506,-10.73015],[-76.26984,-10.72235],[-76.25902,-10.72611],[-76.25442,-10.72303],[-76.23698,-10.72297],[-76.22267,-10.71754],[-76.21019,-10.72497],[-76.20466,-10.72508],[-76.19708,-10.74157],[-76.1919,-10.74401],[-76.18433,-10.75668],[-76.18122,-10.76064],[-76.17731,-10.78623],[-76.1892,-10.79522]]]}},{"type":"Feature","properties":{"ubigeo":"190112","nombre":"Vicco"},"geometry":{"type":"Polygon","coordinates":[[[-76.1887,-10.95996],[-76.19432,-10.95648],[-76.20093,-10.94412],[-76.20743,-10.94349],[-76.21279,-10.93175],[-76.20831,-10.92934],[-76.2098,-10.91897],[-76.22368,-10.91501],[-76.22946,-10.91587],[-76.24908,-10.92455],[-76.25892,-10.92006],[-76.2658,-10.92017],[-76.26239,-10.90904],[-76.27042,-10.91655],[-76.27982,-10.91313],[-76.27886,-10.92345],[-76.27618,-10.93276],[-76.27778,-10.94037],[-76.30487,-10.92927],[-76.29995,-10.89362],[-76.2958,-10.87137],[-76.29371,-10.85242],[-76.28466,-10.85822],[-76.28063,-10.85493],[-76.26595,-10.85907],[-76.264,-10.85721],[-76.26605,-10.82301],[-76.27046,-10.82243],[-76.27121,-10.80971],[-76.27528,-10.80538],[-76.26351,-10.80088],[-76.259,-10.77856],[-76.25113,-10.7774],[-76.24481,-10.78205],[-76.23749,-10.79541],[-76.22969,-10.79591],[-76.22244,-10.78412],[-76.19569,-10.7823],[-76.1892,-10.79522],[-76.18316,-10.81505],[-76.17426,-10.8381],[-76.17683,-10.85537],[-76.18701,-10.86415],[-76.18342,-10.88039],[-76.1897,-10.89563],[-76.18644,-10.90148],[-76.18962,-10.90791],[-76.18903,-10.91691],[-76.18096,-10.93552],[-76.18715,-10.94275],[-76.18252,-10.94852],[-76.1887,-10.95996]]]}},{"type":"Feature","properties":{"ubigeo":"190113","nombre":"Yanacancha"},"geometry":{"type":"Polygon","coordinates":[[[-76.16893,-10.73737],[-76.17631,-10.75119],[-76.18433,-10.75668],[-76.1919,-10.74401],[-76.19708,-10.74157],[-76.20466,-10.72508],[-76.21019,-10.72497],[-76.22267,-10.71754],[-76.22558,-10.71235],[-76.22333,-10.70336],[-76.23118,-10.70279],[-76.23838,-10.69692],[-76.23746,-10.68662],[-76.24051,-10.68056],[-76.25693,-10.6746],[-76.26352,-10.66331],[-76.26229,-10.65602],[-76.26652,-10.64243],[-76.26465,-10.63605],[-76.25605,-10.64702],[-76.25521,-10.65244],[-76.24915,-10.65181],[-76.24443,-10.64543],[-76.24598,-10.63935],[-76.24086,-10.63452],[-76.23116,-10.63213],[-76.22438,-10.63544],[-76.20424,-10.62862],[-76.20179,-10.61392],[-76.20257,-10.59978],[-76.20602,-10.5944],[-76.20119,-10.58677],[-76.20582,-10.57941],[-76.20604,-10.56516],[-76.21005,-10.55944],[-76.20607,-10.55581],[-76.21278,-10.54034],[-76.21322,-10.53048],[-76.19406,-10.51304],[-76.1846,-10.52641],[-76.17904,-10.5261],[-76.17912,-10.54833],[-76.17618,-10.56177],[-76.16588,-10.5829],[-76.16732,-10.58797],[-76.15507,-10.58449],[-76.14742,-10.59538],[-76.15018,-10.60827],[-76.14196,-10.61336],[-76.13328,-10.61265],[-76.13683,-10.62884],[-76.14849,-10.64387],[-76.15863,-10.65036],[-76.16373,-10.64808],[-76.16801,-10.65545],[-76.1625,-10.67452],[-76.17248,-10.68014],[-76.17215,-10.69158],[-76.16603,-10.70532],[-76.16592,-10.72074],[-76.16343,-10.72741],[-76.16893,-10.73737]]]}},{"type":"Feature","properties":{"ubigeo":"190201","nombre":"Yanahuanca"},"geometry":{"type":"Polygon","coordinates":[[[-76.46603,-10.47115],[-76.46909,-10.4825],[-76.47499,-10.4848],[-76.47554,-10.49786],[-76.47258,-10.5026],[-76.49383,-10.50719],[-76.50066,-10.52149],[-76.49101,-10.52393],[-76.48352,-10.53125],[-76.48234,-10.53682],[-76.47018,-10.54962],[-76.4676,-10.55551],[-76.47827,-10.56608],[-76.47519,-10.57499],[-76.46696,-10.57562],[-76.46272,-10.58115],[-76.45357,-10.58206],[-76.4394,-10.58967],[-76.4346,-10.58942],[-76.42025,-10.60464],[-76.41584,-10.60519],[-76.39582,-10.61279],[-76.3874,-10.60519],[-76.37421,-10.60571],[-76.3704,-10.61002],[-76.36786,-10.62275],[-76.37309,-10.62009],[-76.38429,-10.62574],[-76.41961,-10.65317],[-76.43498,-10.65372],[-76.44488,-10.64888],[-76.45636,-10.64743],[-76.46589,-10.65858],[-76.47113,-10.66966],[-76.47078,-10.68414],[-76.47609,-10.68705],[-76.47541,-10.69437],[-76.49543,-10.71083],[-76.50191,-10.72488],[-76.5064,-10.7456],[-76.51617,-10.74295],[-76.52298,-10.73342],[-76.52334,-10.7266],[-76.52879,-10.72566],[-76.53136,-10.71255],[-76.53851,-10.70435],[-76.55152,-10.70783],[-76.57246,-10.7092],[-76.57328,-10.70224],[-76.582,-10.69533],[-76.58762,-10.68232],[-76.59433,-10.67694],[-76.60632,-10.67375],[-76.60678,-10.66919],[-76.61487,-10.67043],[-76.62454,-10.65741],[-76.63735,-10.64647],[-76.64673,-10.64414],[-76.65566,-10.64678],[-76.66134,-10.63523],[-76.67557,-10.62137],[-76.6727,-10.60989],[-76.67537,-10.60192],[-76.68145,-10.59914],[-76.68021,-10.59108],[-76.68547,-10.58801],[-76.68586,-10.58146],[-76.70372,-10.58859],[-76.70251,-10.58287],[-76.705,-10.56392],[-76.70937,-10.55876],[-76.71019,-10.54074],[-76.71579,-10.5313],[-76.71687,-10.52298],[-76.72891,-10.51106],[-76.72915,-10.47907],[-76.72533,-10.47767],[-76.71483,-10.46207],[-76.70217,-10.46154],[-76.69751,-10.45571],[-76.69846,-10.44456],[-76.67679,-10.43762],[-76.67182,-10.44001],[-76.66325,-10.43763],[-76.66414,-10.43149],[-76.65882,-10.4213],[-76.6472,-10.41514],[-76.62039,-10.41525],[-76.60737,-10.40515],[-76.60168,-10.4105],[-76.59688,-10.42129],[-76.58732,-10.4296],[-76.57281,-10.43348],[-76.56071,-10.4307],[-76.55446,-10.43473],[-76.54054,-10.43492],[-76.53501,-10.43194],[-76.5235,-10.44402],[-76.51999,-10.45654],[-76.5112,-10.4619],[-76.49995,-10.46306],[-76.48613,-10.46085],[-76.48202,-10.46522],[-76.47459,-10.46497],[-76.46603,-10.47115]]]}},{"type":"Feature","properties":{"ubigeo":"190202","nombre":"Chacayan"},"geometry":{"type":"Polygon","coordinates":[[[-76.38849,-10.5068],[-76.38645,-10.51669],[-76.37006,-10.52636],[-76.36615,-10.533],[-76.35593,-10.53993],[-76.34948,-10.55101],[-76.34889,-10.56849],[-76.35322,-10.5789],[-76.33762,-10.5791],[-76.33313,-10.59002],[-76.34603,-10.59606],[-76.35014,-10.61094],[-76.35874,-10.61592],[-76.3614,-10.62529],[-76.36786,-10.62275],[-76.3704,-10.61002],[-76.37421,-10.60571],[-76.3874,-10.60519],[-76.39582,-10.61279],[-76.41584,-10.60519],[-76.41899,-10.58698],[-76.40211,-10.57959],[-76.39731,-10.57081],[-76.41084,-10.55515],[-76.41905,-10.54868],[-76.41723,-10.52424],[-76.42535,-10.51696],[-76.42968,-10.50346],[-76.43693,-10.49916],[-76.44131,-10.48847],[-76.43994,-10.48099],[-76.44318,-10.46301],[-76.4471,-10.44616],[-76.44781,-10.43046],[-76.43648,-10.41728],[-76.4203,-10.40132],[-76.4122,-10.38023],[-76.41447,-10.36559],[-76.41168,-10.35261],[-76.40818,-10.34787],[-76.39007,-10.34448],[-76.38539,-10.33805],[-76.37898,-10.33736],[-76.37389,-10.33061],[-76.37014,-10.33598],[-76.35775,-10.33732],[-76.34156,-10.33573],[-76.33467,-10.32712],[-76.33058,-10.31627],[-76.33054,-10.31635],[-76.32828,-10.33522],[-76.33569,-10.35265],[-76.34441,-10.36006],[-76.35554,-10.36399],[-76.37173,-10.36],[-76.37875,-10.37041],[-76.38627,-10.37488],[-76.38678,-10.39032],[-76.38322,-10.40696],[-76.38763,-10.41872],[-76.37493,-10.42795],[-76.3865,-10.43688],[-76.39263,-10.45274],[-76.39319,-10.4695],[-76.409,-10.45799],[-76.41858,-10.4564],[-76.41363,-10.46467],[-76.4206,-10.46982],[-76.42289,-10.47824],[-76.41895,-10.48019],[-76.42677,-10.49051],[-76.42434,-10.49694],[-76.4117,-10.50248],[-76.39705,-10.51943],[-76.38849,-10.5068]]]}},{"type":"Feature","properties":{"ubigeo":"190203","nombre":"Goyllarisquizga"},"geometry":{"type":"Polygon","coordinates":[[[-76.38849,-10.5068],[-76.39705,-10.51943],[-76.4117,-10.50248],[-76.42434,-10.49694],[-76.42677,-10.49051],[-76.41895,-10.48019],[-76.42289,-10.47824],[-76.4206,-10.46982],[-76.41363,-10.46467],[-76.41858,-10.4564],[-76.409,-10.45799],[-76.39319,-10.4695],[-76.389,-10.47634],[-76.38215,-10.47782],[-76.38111,-10.48475],[-76.38441,-10.49415],[-76.38979,-10.49792],[-76.38849,-10.5068]]]}},{"type":"Feature","properties":{"ubigeo":"190204","nombre":"Paucar"},"geometry":{"type":"Polygon","coordinates":[[[-76.33058,-10.31627],[-76.33467,-10.32712],[-76.34156,-10.33573],[-76.35775,-10.33732],[-76.37014,-10.33598],[-76.37389,-10.33061],[-76.37898,-10.33736],[-76.38539,-10.33805],[-76.39007,-10.34448],[-76.40818,-10.34787],[-76.41168,-10.35261],[-76.41447,-10.36559],[-76.4122,-10.38023],[-76.4203,-10.40132],[-76.43648,-10.41728],[-76.43883,-10.40482],[-76.44863,-10.38975],[-76.45614,-10.39116],[-76.4752,-10.37901],[-76.48647,-10.36666],[-76.48632,-10.35186],[-76.47599,-10.34732],[-76.4728,-10.33777],[-76.48365,-10.32635],[-76.48621,-10.31922],[-76.49398,-10.31053],[-76.4831,-10.31252],[-76.47255,-10.30991],[-76.45915,-10.31643],[-76.45134,-10.31555],[-76.44394,-10.32053],[-76.42294,-10.31868],[-76.41384,-10.31273],[-76.40235,-10.30919],[-76.38722,-10.28929],[-76.37025,-10.29507],[-76.36466,-10.29941],[-76.35304,-10.29658],[-76.34428,-10.28688],[-76.33579,-10.28632],[-76.33317,-10.29538],[-76.32576,-10.30553],[-76.33058,-10.31627]]]}},{"type":"Feature","properties":{"ubigeo":"190205","nombre":"San Pedro de Pillao"},"geometry":{"type":"Polygon","coordinates":[[[-76.48613,-10.46085],[-76.49995,-10.46306],[-76.5112,-10.4619],[-76.51999,-10.45654],[-76.5235,-10.44402],[-76.53501,-10.43194],[-76.54054,-10.43492],[-76.55446,-10.43473],[-76.56071,-10.4307],[-76.57281,-10.43348],[-76.58732,-10.4296],[-76.59688,-10.42129],[-76.60168,-10.4105],[-76.60737,-10.40515],[-76.59336,-10.40149],[-76.59338,-10.38724],[-76.58391,-10.38437],[-76.57985,-10.37639],[-76.5751,-10.3758],[-76.55786,-10.39333],[-76.55188,-10.38464],[-76.53373,-10.38756],[-76.52419,-10.37736],[-76.51683,-10.3816],[-76.49676,-10.38034],[-76.50086,-10.3868],[-76.50017,-10.39567],[-76.49415,-10.40296],[-76.49642,-10.41619],[-76.48851,-10.42047],[-76.47858,-10.43112],[-76.47824,-10.44641],[-76.48613,-10.46085]]]}},{"type":"Feature","properties":{"ubigeo":"190206","nombre":"Santa Ana de Tusi"},"geometry":{"type":"Polygon","coordinates":[[[-76.24512,-10.48086],[-76.2503,-10.48859],[-76.25333,-10.50003],[-76.24981,-10.51002],[-76.23812,-10.5145],[-76.23599,-10.52368],[-76.23826,-10.53735],[-76.24196,-10.5427],[-76.25411,-10.54616],[-76.26365,-10.55679],[-76.27207,-10.56178],[-76.27309,-10.57801],[-76.28258,-10.58176],[-76.28363,-10.58875],[-76.29372,-10.60189],[-76.30407,-10.59853],[-76.30494,-10.59048],[-76.30989,-10.58685],[-76.31711,-10.59055],[-76.33313,-10.59002],[-76.33762,-10.5791],[-76.35322,-10.5789],[-76.34889,-10.56849],[-76.34948,-10.55101],[-76.35593,-10.53993],[-76.36615,-10.533],[-76.37006,-10.52636],[-76.38645,-10.51669],[-76.38849,-10.5068],[-76.38979,-10.49792],[-76.38441,-10.49415],[-76.38111,-10.48475],[-76.38215,-10.47782],[-76.389,-10.47634],[-76.39319,-10.4695],[-76.39263,-10.45274],[-76.3865,-10.43688],[-76.37493,-10.42795],[-76.38763,-10.41872],[-76.38322,-10.40696],[-76.38678,-10.39032],[-76.38627,-10.37488],[-76.37875,-10.37041],[-76.37173,-10.36],[-76.35554,-10.36399],[-76.34441,-10.36006],[-76.33569,-10.35265],[-76.32828,-10.33522],[-76.33054,-10.31635],[-76.32197,-10.32539],[-76.31685,-10.34099],[-76.32341,-10.35958],[-76.31967,-10.36311],[-76.31974,-10.37178],[-76.31262,-10.38346],[-76.30588,-10.41217],[-76.30283,-10.42113],[-76.29505,-10.43303],[-76.28226,-10.44524],[-76.28333,-10.4522],[-76.27575,-10.45731],[-76.26716,-10.45745],[-76.25589,-10.47369],[-76.24512,-10.48086]]]}},{"type":"Feature","properties":{"ubigeo":"190207","nombre":"Tapuc"},"geometry":{"type":"Polygon","coordinates":[[[-76.44318,-10.46301],[-76.46603,-10.47115],[-76.47459,-10.46497],[-76.48202,-10.46522],[-76.48613,-10.46085],[-76.47824,-10.44641],[-76.47858,-10.43112],[-76.48851,-10.42047],[-76.49642,-10.41619],[-76.49415,-10.40296],[-76.50017,-10.39567],[-76.50086,-10.3868],[-76.49676,-10.38034],[-76.49094,-10.3789],[-76.49192,-10.37034],[-76.48647,-10.36666],[-76.4752,-10.37901],[-76.45614,-10.39116],[-76.44863,-10.38975],[-76.43883,-10.40482],[-76.43648,-10.41728],[-76.44781,-10.43046],[-76.4471,-10.44616],[-76.44318,-10.46301]]]}},{"type":"Feature","properties":{"ubigeo":"190208","nombre":"Vilcabamba"},"geometry":{"type":"Polygon","coordinates":[[[-76.46603,-10.47115],[-76.44318,-10.46301],[-76.43994,-10.48099],[-76.44131,-10.48847],[-76.43693,-10.49916],[-76.42968,-10.50346],[-76.42535,-10.51696],[-76.41723,-10.52424],[-76.41905,-10.54868],[-76.41084,-10.55515],[-76.39731,-10.57081],[-76.40211,-10.57959],[-76.41899,-10.58698],[-76.41584,-10.60519],[-76.42025,-10.60464],[-76.4346,-10.58942],[-76.4394,-10.58967],[-76.45357,-10.58206],[-76.46272,-10.58115],[-76.46696,-10.57562],[-76.47519,-10.57499],[-76.47827,-10.56608],[-76.4676,-10.55551],[-76.47018,-10.54962],[-76.48234,-10.53682],[-76.48352,-10.53125],[-76.49101,-10.52393],[-76.50066,-10.52149],[-76.49383,-10.50719],[-76.47258,-10.5026],[-76.47554,-10.49786],[-76.47499,-10.4848],[-76.46909,-10.4825],[-76.46603,-10.47115]]]}},{"type":"Feature","properties":{"ubigeo":"190301","nombre":"Oxapampa"},"geometry":{"type":"Polygon","coordinates":[[[-75.31047,-10.82775],[-75.32647,-10.81936],[-75.33879,-10.80066],[-75.34542,-10.79949],[-75.3534,-10.80411],[-75.36188,-10.81917],[-75.35526,-10.82027],[-75.35648,-10.8368],[-75.36274,-10.85011],[-75.37897,-10.85612],[-75.38573,-10.86494],[-75.39805,-10.85331],[-75.41072,-10.8617],[-75.40771,-10.85273],[-75.40957,-10.84595],[-75.40168,-10.84507],[-75.39076,-10.83226],[-75.39169,-10.82817],[-75.38694,-10.79945],[-75.39135,-10.78127],[-75.39647,-10.76906],[-75.3951,-10.75901],[-75.4135,-10.75082],[-75.42392,-10.75484],[-75.4351,-10.74758],[-75.44741,-10.75157],[-75.44507,-10.74405],[-75.43063,-10.73656],[-75.43563,-10.72768],[-75.43677,-10.7184],[-75.42616,-10.70925],[-75.42303,-10.69216],[-75.4143,-10.67848],[-75.41506,-10.66097],[-75.40757,-10.65165],[-75.40574,-10.64157],[-75.39936,-10.63852],[-75.40427,-10.61386],[-75.40812,-10.60663],[-75.40355,-10.59521],[-75.40637,-10.58784],[-75.40698,-10.575],[-75.41903,-10.56],[-75.41927,-10.55494],[-75.44305,-10.53622],[-75.44693,-10.52315],[-75.44541,-10.51733],[-75.45241,-10.50703],[-75.45698,-10.49981],[-75.44941,-10.49548],[-75.43821,-10.49681],[-75.42827,-10.49339],[-75.42304,-10.48811],[-75.41331,-10.47157],[-75.40975,-10.45919],[-75.40397,-10.44841],[-75.39498,-10.45818],[-75.38607,-10.46224],[-75.37743,-10.4612],[-75.37398,-10.46498],[-75.3697,-10.4814],[-75.36541,-10.48808],[-75.37114,-10.50999],[-75.36944,-10.51887],[-75.35732,-10.52292],[-75.34905,-10.5337],[-75.34528,-10.54768],[-75.33613,-10.54784],[-75.3291,-10.55257],[-75.32702,-10.56701],[-75.31927,-10.57148],[-75.30848,-10.57192],[-75.30462,-10.57775],[-75.30055,-10.59179],[-75.30161,-10.59681],[-75.29617,-10.60846],[-75.29709,-10.61372],[-75.28779,-10.62156],[-75.28588,-10.63537],[-75.28825,-10.6428],[-75.2982,-10.66033],[-75.31604,-10.66917],[-75.31853,-10.67497],[-75.32732,-10.6799],[-75.32677,-10.68447],[-75.34276,-10.70064],[-75.33861,-10.71296],[-75.32778,-10.71656],[-75.32387,-10.73192],[-75.31822,-10.74325],[-75.32317,-10.75451],[-75.33005,-10.75763],[-75.33492,-10.76733],[-75.33174,-10.77547],[-75.31395,-10.80737],[-75.30438,-10.81397],[-75.31047,-10.82775]]]}},{"type":"Feature","properties":{"ubigeo":"190302","nombre":"Chontabamba"},"geometry":{"type":"Polygon","coordinates":[[[-75.53142,-10.74329],[-75.52187,-10.73903],[-75.51688,-10.72853],[-75.51529,-10.70905],[-75.51052,-10.70283],[-75.5121,-10.68234],[-75.52131,-10.67797],[-75.53107,-10.6828],[-75.54852,-10.67315],[-75.53885,-10.66116],[-75.53759,-10.64848],[-75.53952,-10.64106],[-75.55685,-10.63705],[-75.56203,-10.64464],[-75.57384,-10.64547],[-75.58118,-10.64915],[-75.59147,-10.63863],[-75.59389,-10.62908],[-75.60597,-10.62867],[-75.61334,-10.62126],[-75.62114,-10.62817],[-75.62341,-10.62234],[-75.63597,-10.62104],[-75.63907,-10.62911],[-75.65335,-10.63034],[-75.66737,-10.61752],[-75.67992,-10.60892],[-75.67484,-10.59918],[-75.66214,-10.59394],[-75.651,-10.58455],[-75.63578,-10.59012],[-75.62998,-10.58464],[-75.62689,-10.56986],[-75.61597,-10.57023],[-75.60224,-10.56407],[-75.59961,-10.55742],[-75.58669,-10.55136],[-75.58456,-10.53921],[-75.57039,-10.52087],[-75.55898,-10.51788],[-75.55377,-10.52619],[-75.52974,-10.52866],[-75.52489,-10.52527],[-75.49962,-10.53671],[-75.48487,-10.52943],[-75.47703,-10.52272],[-75.46179,-10.51854],[-75.45255,-10.51271],[-75.45241,-10.50703],[-75.44541,-10.51733],[-75.44693,-10.52315],[-75.44305,-10.53622],[-75.41927,-10.55494],[-75.41903,-10.56],[-75.40698,-10.575],[-75.40637,-10.58784],[-75.40355,-10.59521],[-75.40812,-10.60663],[-75.40427,-10.61386],[-75.39936,-10.63852],[-75.40574,-10.64157],[-75.40757,-10.65165],[-75.41506,-10.66097],[-75.4143,-10.67848],[-75.42303,-10.69216],[-75.42616,-10.70925],[-75.43677,-10.7184],[-75.43563,-10.72768],[-75.43063,-10.73656],[-75.44507,-10.74405],[-75.44741,-10.75157],[-75.46012,-10.74968],[-75.46468,-10.75159],[-75.46385,-10.75893],[-75.46971,-10.7762],[-75.47789,-10.78096],[-75.48182,-10.77866],[-75.48293,-10.7655],[-75.49025,-10.75683],[-75.49833,-10.75867],[-75.50969,-10.75401],[-75.51402,-10.75646],[-75.52308,-10.75367],[-75.53142,-10.74329]]]}},{"type":"Feature","properties":{"ubigeo":"190303","nombre":"Huancabamba"},"geometry":{"type":"Polygon","coordinates":[[[-75.45241,-10.50703],[-75.45255,-10.51271],[-75.46179,-10.51854],[-75.47703,-10.52272],[-75.48487,-10.52943],[-75.49962,-10.53671],[-75.52489,-10.52527],[-75.52974,-10.52866],[-75.55377,-10.52619],[-75.55898,-10.51788],[-75.57039,-10.52087],[-75.58456,-10.53921],[-75.58669,-10.55136],[-75.59961,-10.55742],[-75.60224,-10.56407],[-75.61597,-10.57023],[-75.62689,-10.56986],[-75.62998,-10.58464],[-75.63578,-10.59012],[-75.651,-10.58455],[-75.66214,-10.59394],[-75.67484,-10.59918],[-75.67448,-10.59014],[-75.66811,-10.58355],[-75.66705,-10.57707],[-75.67074,-10.56631],[-75.66422,-10.56117],[-75.6611,-10.55331],[-75.66964,-10.54142],[-75.67078,-10.53044],[-75.67654,-10.51843],[-75.66774,-10.47559],[-75.66523,-10.47333],[-75.66844,-10.45878],[-75.67628,-10.45722],[-75.69294,-10.44946],[-75.69278,-10.4411],[-75.69844,-10.44135],[-75.71051,-10.4316],[-75.71988,-10.43351],[-75.72301,-10.42964],[-75.72915,-10.43372],[-75.73967,-10.43424],[-75.74701,-10.43986],[-75.7501,-10.43505],[-75.76786,-10.43304],[-75.77718,-10.44033],[-75.78783,-10.43492],[-75.80063,-10.43943],[-75.80092,-10.44506],[-75.80714,-10.45709],[-75.81722,-10.45151],[-75.81418,-10.44527],[-75.81916,-10.43965],[-75.82808,-10.44372],[-75.83668,-10.44063],[-75.85222,-10.4437],[-75.86093,-10.45373],[-75.86915,-10.45586],[-75.85869,-10.44164],[-75.86038,-10.43068],[-75.85703,-10.42463],[-75.85537,-10.40593],[-75.85665,-10.39408],[-75.85574,-10.37197],[-75.86196,-10.35449],[-75.85651,-10.33675],[-75.85567,-10.32639],[-75.85972,-10.30283],[-75.84895,-10.29075],[-75.84414,-10.27586],[-75.8429,-10.26244],[-75.82626,-10.24788],[-75.81271,-10.24409],[-75.80627,-10.24773],[-75.7856,-10.25237],[-75.77253,-10.24682],[-75.75953,-10.23768],[-75.75136,-10.24001],[-75.7376,-10.23272],[-75.73258,-10.23419],[-75.72125,-10.22696],[-75.72788,-10.25375],[-75.72671,-10.25777],[-75.71197,-10.25648],[-75.69457,-10.26198],[-75.68569,-10.27258],[-75.67659,-10.27412],[-75.67185,-10.29004],[-75.66338,-10.28639],[-75.63351,-10.28555],[-75.62522,-10.28918],[-75.61668,-10.28627],[-75.61164,-10.28875],[-75.59809,-10.27874],[-75.59327,-10.27077],[-75.58417,-10.27345],[-75.58283,-10.2818],[-75.56961,-10.28706],[-75.56701,-10.28168],[-75.55235,-10.28441],[-75.54063,-10.29287],[-75.54068,-10.27663],[-75.53398,-10.27649],[-75.52577,-10.26701],[-75.53169,-10.25235],[-75.53099,-10.23234],[-75.52666,-10.22063],[-75.51161,-10.20718],[-75.51336,-10.21573],[-75.50705,-10.22517],[-75.50754,-10.23574],[-75.49472,-10.23998],[-75.49289,-10.2499],[-75.48801,-10.25376],[-75.49073,-10.27462],[-75.48141,-10.28673],[-75.47669,-10.28861],[-75.48306,-10.29469],[-75.4855,-10.30492],[-75.49418,-10.30709],[-75.4911,-10.31592],[-75.49332,-10.32476],[-75.49184,-10.33581],[-75.49624,-10.34384],[-75.48787,-10.35769],[-75.46359,-10.37779],[-75.45906,-10.38491],[-75.45831,-10.40286],[-75.44799,-10.41162],[-75.44605,-10.41718],[-75.42916,-10.42321],[-75.42107,-10.43161],[-75.40795,-10.43596],[-75.40397,-10.44841],[-75.40975,-10.45919],[-75.41331,-10.47157],[-75.42304,-10.48811],[-75.42827,-10.49339],[-75.43821,-10.49681],[-75.44941,-10.49548],[-75.45698,-10.49981],[-75.45241,-10.50703]]]}},{"type":"Feature","properties":{"ubigeo":"190304","nombre":"Palcazu"},"geometry":{"type":"Polygon","coordinates":[[[-75.1451,-10.08097],[-75.14153,-10.09921],[-75.14486,-10.11289],[-75.14204,-10.12122],[-75.12827,-10.13437],[-75.12512,-10.14313],[-75.11677,-10.14194],[-75.10872,-10.15241],[-75.09345,-10.19681],[-75.08384,-10.20636],[-75.05828,-10.22307],[-75.06184,-10.23084],[-75.05711,-10.2457],[-75.05006,-10.25159],[-75.04848,-10.26324],[-75.03636,-10.26789],[-75.04016,-10.2796],[-75.03669,-10.28993],[-75.02841,-10.29816],[-75.02415,-10.31653],[-75.02947,-10.32364],[-75.02587,-10.33432],[-75.02953,-10.3429],[-75.01865,-10.39425],[-75.01138,-10.4021],[-75.01314,-10.4098],[-75.00544,-10.41685],[-75.00812,-10.43795],[-75.00272,-10.44757],[-75.00374,-10.45505],[-75.0072,-10.44636],[-75.02177,-10.44223],[-75.04694,-10.44048],[-75.04816,-10.45237],[-75.05412,-10.46471],[-75.06118,-10.46964],[-75.05692,-10.4841],[-75.05802,-10.49679],[-75.05472,-10.51839],[-75.0631,-10.53038],[-75.06518,-10.52338],[-75.0792,-10.51644],[-75.09313,-10.52108],[-75.09719,-10.51176],[-75.087,-10.5015],[-75.09822,-10.4808],[-75.10329,-10.47667],[-75.12988,-10.48938],[-75.15985,-10.51112],[-75.16801,-10.5086],[-75.17118,-10.51159],[-75.18232,-10.51171],[-75.20052,-10.51622],[-75.21505,-10.52937],[-75.2213,-10.52619],[-75.22479,-10.53248],[-75.24027,-10.53631],[-75.23711,-10.54479],[-75.24556,-10.55042],[-75.25119,-10.56055],[-75.26545,-10.55796],[-75.27547,-10.56069],[-75.28163,-10.55793],[-75.28931,-10.57113],[-75.29876,-10.57195],[-75.30462,-10.57775],[-75.30848,-10.57192],[-75.31927,-10.57148],[-75.32702,-10.56701],[-75.3291,-10.55257],[-75.33613,-10.54784],[-75.34528,-10.54768],[-75.34905,-10.5337],[-75.35732,-10.52292],[-75.36944,-10.51887],[-75.37114,-10.50999],[-75.36541,-10.48808],[-75.3697,-10.4814],[-75.37398,-10.46498],[-75.37743,-10.4612],[-75.38607,-10.46224],[-75.39498,-10.45818],[-75.40397,-10.44841],[-75.40795,-10.43596],[-75.42107,-10.43161],[-75.42916,-10.42321],[-75.44605,-10.41718],[-75.44799,-10.41162],[-75.45831,-10.40286],[-75.45906,-10.38491],[-75.46359,-10.37779],[-75.48787,-10.35769],[-75.49624,-10.34384],[-75.49184,-10.33581],[-75.49332,-10.32476],[-75.4911,-10.31592],[-75.49418,-10.30709],[-75.4855,-10.30492],[-75.48306,-10.29469],[-75.47669,-10.28861],[-75.48141,-10.28673],[-75.49073,-10.27462],[-75.48801,-10.25376],[-75.49289,-10.2499],[-75.49472,-10.23998],[-75.50754,-10.23574],[-75.50705,-10.22517],[-75.51336,-10.21573],[-75.51161,-10.20718],[-75.50283,-10.19683],[-75.50341,-10.19056],[-75.49679,-10.17175],[-75.48828,-10.16498],[-75.48867,-10.16044],[-75.48097,-10.15127],[-75.48203,-10.1378],[-75.48613,-10.1337],[-75.47582,-10.11447],[-75.4665,-10.10172],[-75.45816,-10.08089],[-75.45552,-10.06199],[-75.45911,-10.05399],[-75.46419,-10.05246],[-75.46889,-10.03872],[-75.46307,-10.02719],[-75.45577,-10.01824],[-75.46031,-10.00834],[-75.45923,-9.9969],[-75.4671,-9.98837],[-75.4681,-9.98117],[-75.46231,-9.95728],[-75.4537,-9.95577],[-75.4508,-9.94376],[-75.44174,-9.93626],[-75.42292,-9.94357],[-75.40426,-9.92603],[-75.39565,-9.91396],[-75.39662,-9.90896],[-75.40896,-9.90283],[-75.41118,-9.88843],[-75.3996,-9.87846],[-75.38957,-9.87429],[-75.36936,-9.87083],[-75.34739,-9.87458],[-75.33868,-9.87401],[-75.32521,-9.87691],[-75.30609,-9.87187],[-75.28822,-9.8707],[-75.27193,-9.88169],[-75.27056,-9.89145],[-75.26131,-9.89758],[-75.25578,-9.89563],[-75.24995,-9.89981],[-75.24762,-9.91715],[-75.22786,-9.92288],[-75.20314,-9.94566],[-75.19137,-9.96406],[-75.17809,-9.97493],[-75.16707,-9.98868],[-75.16463,-10.00235],[-75.16562,-10.02369],[-75.16308,-10.03453],[-75.15465,-10.0485],[-75.1519,-10.06485],[-75.1451,-10.08097]]]}},{"type":"Feature","properties":{"ubigeo":"190305","nombre":"Pozuzo"},"geometry":{"type":"Polygon","coordinates":[[[-75.51161,-10.20718],[-75.52666,-10.22063],[-75.53099,-10.23234],[-75.53169,-10.25235],[-75.52577,-10.26701],[-75.53398,-10.27649],[-75.54068,-10.27663],[-75.54063,-10.29287],[-75.55235,-10.28441],[-75.56701,-10.28168],[-75.56961,-10.28706],[-75.58283,-10.2818],[-75.58417,-10.27345],[-75.59327,-10.27077],[-75.59809,-10.27874],[-75.61164,-10.28875],[-75.61668,-10.28627],[-75.62522,-10.28918],[-75.63351,-10.28555],[-75.66338,-10.28639],[-75.67185,-10.29004],[-75.67659,-10.27412],[-75.68569,-10.27258],[-75.69457,-10.26198],[-75.71197,-10.25648],[-75.72671,-10.25777],[-75.72788,-10.25375],[-75.72125,-10.22696],[-75.70943,-10.21507],[-75.70076,-10.19632],[-75.7011,-10.17848],[-75.69925,-10.17173],[-75.70574,-10.15909],[-75.70294,-10.1543],[-75.70389,-10.14318],[-75.70107,-10.12964],[-75.68962,-10.11671],[-75.69324,-10.10401],[-75.68991,-10.09131],[-75.68628,-10.09154],[-75.67695,-10.05621],[-75.6729,-10.04806],[-75.66415,-10.04687],[-75.64518,-10.02693],[-75.60311,-10.02548],[-75.59529,-10.01017],[-75.59756,-9.99595],[-75.59488,-9.98468],[-75.59754,-9.97232],[-75.59498,-9.96604],[-75.59797,-9.95811],[-75.59227,-9.95196],[-75.59039,-9.95559],[-75.56038,-9.96414],[-75.56074,-9.97011],[-75.54838,-9.98441],[-75.5371,-9.97996],[-75.51549,-9.98097],[-75.5102,-9.9787],[-75.49208,-9.98002],[-75.47946,-9.98524],[-75.47455,-9.99217],[-75.4671,-9.98837],[-75.45923,-9.9969],[-75.46031,-10.00834],[-75.45577,-10.01824],[-75.46307,-10.02719],[-75.46889,-10.03872],[-75.46419,-10.05246],[-75.45911,-10.05399],[-75.45552,-10.06199],[-75.45816,-10.08089],[-75.4665,-10.10172],[-75.47582,-10.11447],[-75.48613,-10.1337],[-75.48203,-10.1378],[-75.48097,-10.15127],[-75.48867,-10.16044],[-75.48828,-10.16498],[-75.49679,-10.17175],[-75.50341,-10.19056],[-75.50283,-10.19683],[-75.51161,-10.20718]]]}},{"type":"Feature","properties":{"ubigeo":"190306","nombre":"Puerto Bermúdez"},"geometry":{"type":"Polygon","coordinates":[[[-74.22959,-10.28213],[-74.23437,-10.29544],[-74.24609,-10.29718],[-74.25255,-10.30738],[-74.25017,-10.31445],[-74.24135,-10.31571],[-74.23686,-10.32009],[-74.23883,-10.32665],[-74.2478,-10.332],[-74.25326,-10.34074],[-74.26274,-10.36366],[-74.25946,-10.36501],[-74.254,-10.37733],[-74.242,-10.38317],[-74.24683,-10.40593],[-74.24424,-10.41045],[-74.25288,-10.41714],[-74.24489,-10.42289],[-74.24512,-10.4311],[-74.23929,-10.44119],[-74.22689,-10.44305],[-74.22328,-10.45221],[-74.21525,-10.45327],[-74.19275,-10.47391],[-74.18959,-10.48198],[-74.18139,-10.48516],[-74.17753,-10.49948],[-74.18235,-10.50333],[-74.1692,-10.53163],[-74.15692,-10.5492],[-74.15563,-10.56073],[-74.15093,-10.57208],[-74.1415,-10.58337],[-74.13267,-10.60491],[-74.13925,-10.61319],[-74.1394,-10.6252],[-74.13455,-10.6377],[-74.13098,-10.65474],[-74.13862,-10.67073],[-74.14045,-10.65677],[-74.15778,-10.64853],[-74.15986,-10.64059],[-74.16924,-10.63711],[-74.18317,-10.6366],[-74.19276,-10.63918],[-74.2017,-10.63114],[-74.21546,-10.63524],[-74.22966,-10.6346],[-74.22758,-10.65184],[-74.24574,-10.6545],[-74.25281,-10.65948],[-74.25993,-10.66935],[-74.25892,-10.68043],[-74.27105,-10.67886],[-74.28688,-10.67041],[-74.28829,-10.68538],[-74.31097,-10.71491],[-74.31853,-10.71872],[-74.31644,-10.72593],[-74.33702,-10.73386],[-74.34934,-10.74556],[-74.34926,-10.75369],[-74.35659,-10.7539],[-74.35971,-10.75941],[-74.36814,-10.75185],[-74.37225,-10.75349],[-74.3839,-10.74748],[-74.38546,-10.75973],[-74.38291,-10.77351],[-74.37452,-10.7849],[-74.37566,-10.7927],[-74.38568,-10.81177],[-74.38955,-10.81425],[-74.40052,-10.81148],[-74.42014,-10.8161],[-74.42958,-10.81269],[-74.45832,-10.82827],[-74.46659,-10.83634],[-74.48007,-10.83509],[-74.48847,-10.84029],[-74.49172,-10.84876],[-74.48454,-10.85587],[-74.48854,-10.87175],[-74.48619,-10.88745],[-74.49502,-10.8931],[-74.50322,-10.89418],[-74.50671,-10.89952],[-74.51587,-10.89606],[-74.53841,-10.89628],[-74.5433,-10.89126],[-74.55806,-10.89593],[-74.56572,-10.90461],[-74.56923,-10.90404],[-74.56996,-10.91521],[-74.58817,-10.91039],[-74.59481,-10.91149],[-74.6141,-10.90463],[-74.62354,-10.8909],[-74.63355,-10.88411],[-74.63417,-10.87356],[-74.6493,-10.86707],[-74.65781,-10.87396],[-74.66575,-10.87291],[-74.67918,-10.87907],[-74.68135,-10.88916],[-74.69491,-10.88492],[-74.70017,-10.87789],[-74.70795,-10.85816],[-74.72213,-10.84788],[-74.73171,-10.83493],[-74.74061,-10.83618],[-74.76036,-10.82514],[-74.76816,-10.83048],[-74.77613,-10.82665],[-74.7918,-10.83116],[-74.80574,-10.81717],[-74.83131,-10.78054],[-74.8365,-10.7713],[-74.85114,-10.73297],[-74.86971,-10.70767],[-74.88232,-10.70185],[-74.88702,-10.71245],[-74.87622,-10.72732],[-74.87068,-10.73905],[-74.86594,-10.75897],[-74.87079,-10.76248],[-74.88202,-10.76393],[-74.88524,-10.7706],[-74.89331,-10.76917],[-74.90306,-10.75742],[-74.91452,-10.7483],[-74.91736,-10.75457],[-74.93932,-10.74884],[-74.95648,-10.73282],[-74.96063,-10.739],[-74.98282,-10.74979],[-74.98784,-10.7438],[-74.98651,-10.73551],[-74.99533,-10.7256],[-75.0055,-10.72033],[-75.00878,-10.71062],[-75.00641,-10.69893],[-75.00731,-10.68739],[-75.01254,-10.67881],[-75.0207,-10.67369],[-75.02505,-10.68047],[-75.03564,-10.68232],[-75.03921,-10.67278],[-75.05444,-10.65708],[-75.06507,-10.65289],[-75.0687,-10.64469],[-75.06522,-10.62624],[-75.0549,-10.61906],[-75.05579,-10.60124],[-75.05184,-10.59756],[-75.03597,-10.59565],[-75.02994,-10.58571],[-75.02023,-10.58235],[-75.01236,-10.57159],[-75.0043,-10.56957],[-74.99934,-10.56369],[-74.99792,-10.55551],[-75.00248,-10.54151],[-74.99768,-10.53011],[-75.01024,-10.51537],[-75.01022,-10.50891],[-74.99698,-10.48916],[-74.9937,-10.47583],[-75.00287,-10.46599],[-75.00374,-10.45505],[-75.00272,-10.44757],[-75.00812,-10.43795],[-75.00544,-10.41685],[-75.01314,-10.4098],[-75.01138,-10.4021],[-75.01865,-10.39425],[-75.02953,-10.3429],[-75.02587,-10.33432],[-75.02947,-10.32364],[-75.02415,-10.31653],[-75.02841,-10.29816],[-75.03669,-10.28993],[-75.04016,-10.2796],[-75.03636,-10.26789],[-75.04848,-10.26324],[-75.05006,-10.25159],[-75.05711,-10.2457],[-75.06184,-10.23084],[-75.05828,-10.22307],[-75.08384,-10.20636],[-75.09345,-10.19681],[-75.10872,-10.15241],[-75.11677,-10.14194],[-75.12512,-10.14313],[-75.12827,-10.13437],[-75.14204,-10.12122],[-75.14486,-10.11289],[-75.14153,-10.09921],[-75.1451,-10.08097],[-75.13754,-10.07909],[-75.10986,-10.08734],[-75.08602,-10.08504],[-75.08625,-10.08814],[-75.0598,-10.09925],[-75.04439,-10.09383],[-75.04314,-10.08957],[-75.03082,-10.08126],[-75.02979,-10.07317],[-75.02084,-10.06556],[-74.9735,-10.01878],[-74.98297,-10.01533],[-74.99194,-10.00434],[-74.97676,-10.00938],[-74.97407,-9.99987],[-74.96655,-9.99848],[-74.96244,-10.00643],[-74.95268,-10.00348],[-74.94963,-10.00759],[-74.94957,-10.02106],[-74.95405,-10.02301],[-74.95742,-10.03533],[-74.95447,-10.03923],[-74.94699,-10.03191],[-74.94617,-10.02608],[-74.93831,-10.02675],[-74.93283,-10.01606],[-74.9213,-10.02596],[-74.90509,-10.02464],[-74.90241,-10.0378],[-74.89177,-10.02338],[-74.88875,-10.04574],[-74.88238,-10.04236],[-74.88301,-10.03058],[-74.8743,-10.0288],[-74.86961,-10.0363],[-74.85358,-10.03895],[-74.84909,-10.02993],[-74.85719,-10.02814],[-74.86262,-10.01856],[-74.85331,-10.01985],[-74.85752,-10.00764],[-74.84836,-10.00315],[-74.84398,-9.99503],[-74.83646,-9.99447],[-74.82332,-10.0043],[-74.81487,-10.01312],[-74.80689,-10.03005],[-74.80714,-10.03943],[-74.81311,-10.04766],[-74.79295,-10.05789],[-74.78519,-10.04938],[-74.7775,-10.02591],[-74.77711,-10.01848],[-74.76893,-10.01183],[-74.7545,-10.02363],[-74.73597,-10.0165],[-74.72019,-10.01705],[-74.71353,-10.02068],[-74.69912,-10.00366],[-74.70116,-9.99349],[-74.6936,-9.98829],[-74.67939,-9.98818],[-74.66099,-10.01506],[-74.65385,-10.01842],[-74.64836,-10.02604],[-74.63205,-10.02122],[-74.61411,-10.02149],[-74.6005,-10.02778],[-74.6012,-10.01728],[-74.5951,-10.00679],[-74.57829,-9.98882],[-74.58201,-9.98096],[-74.58008,-9.96911],[-74.57338,-9.96153],[-74.56239,-9.96403],[-74.55044,-9.95335],[-74.54529,-9.95228],[-74.53772,-9.93611],[-74.53957,-9.93264],[-74.52922,-9.92673],[-74.48716,-9.92892],[-74.48784,-9.93611],[-74.48403,-9.94765],[-74.47232,-9.94734],[-74.46167,-9.95186],[-74.45381,-9.96234],[-74.43826,-9.95984],[-74.42622,-9.96224],[-74.41233,-9.95396],[-74.41141,-9.95817],[-74.41897,-9.97048],[-74.42403,-9.98944],[-74.41685,-9.99684],[-74.4124,-10.00824],[-74.41403,-10.02057],[-74.41832,-10.02482],[-74.41175,-10.04114],[-74.40432,-10.0506],[-74.3899,-10.05135],[-74.38533,-10.06447],[-74.37772,-10.07356],[-74.37887,-10.07686],[-74.37709,-10.09987],[-74.36697,-10.1129],[-74.35565,-10.11877],[-74.33127,-10.10855],[-74.31502,-10.11316],[-74.31299,-10.12482],[-74.30673,-10.13887],[-74.30645,-10.15654],[-74.3037,-10.16386],[-74.28522,-10.1718],[-74.26685,-10.17169],[-74.24325,-10.17747],[-74.23166,-10.18505],[-74.22734,-10.19875],[-74.23376,-10.21169],[-74.23465,-10.22001],[-74.2264,-10.2305],[-74.22598,-10.24324],[-74.22914,-10.25114],[-74.22396,-10.2562],[-74.22837,-10.26567],[-74.22716,-10.27733],[-74.22959,-10.28213]]]}},{"type":"Feature","properties":{"ubigeo":"190307","nombre":"Villa Rica"},"geometry":{"type":"Polygon","coordinates":[[[-75.06507,-10.65289],[-75.07432,-10.66581],[-75.07162,-10.67785],[-75.07974,-10.68327],[-75.08845,-10.68354],[-75.08783,-10.68868],[-75.09592,-10.70005],[-75.09773,-10.7084],[-75.10904,-10.72211],[-75.12701,-10.73823],[-75.14233,-10.74125],[-75.15729,-10.76008],[-75.16595,-10.75718],[-75.17665,-10.7499],[-75.18995,-10.7804],[-75.20418,-10.76468],[-75.22052,-10.76382],[-75.22973,-10.75943],[-75.24419,-10.76416],[-75.24533,-10.77552],[-75.24347,-10.79056],[-75.24747,-10.80196],[-75.25752,-10.80991],[-75.26236,-10.82529],[-75.28837,-10.84206],[-75.30427,-10.83824],[-75.31047,-10.82775],[-75.30438,-10.81397],[-75.31395,-10.80737],[-75.33174,-10.77547],[-75.33492,-10.76733],[-75.33005,-10.75763],[-75.32317,-10.75451],[-75.31822,-10.74325],[-75.32387,-10.73192],[-75.32778,-10.71656],[-75.33861,-10.71296],[-75.34276,-10.70064],[-75.32677,-10.68447],[-75.32732,-10.6799],[-75.31853,-10.67497],[-75.31604,-10.66917],[-75.2982,-10.66033],[-75.28825,-10.6428],[-75.28588,-10.63537],[-75.28779,-10.62156],[-75.29709,-10.61372],[-75.29617,-10.60846],[-75.30161,-10.59681],[-75.30055,-10.59179],[-75.30462,-10.57775],[-75.29876,-10.57195],[-75.28931,-10.57113],[-75.28163,-10.55793],[-75.27547,-10.56069],[-75.26545,-10.55796],[-75.25119,-10.56055],[-75.24556,-10.55042],[-75.23711,-10.54479],[-75.24027,-10.53631],[-75.22479,-10.53248],[-75.2213,-10.52619],[-75.21505,-10.52937],[-75.20052,-10.51622],[-75.18232,-10.51171],[-75.17118,-10.51159],[-75.16801,-10.5086],[-75.15985,-10.51112],[-75.12988,-10.48938],[-75.10329,-10.47667],[-75.09822,-10.4808],[-75.087,-10.5015],[-75.09719,-10.51176],[-75.09313,-10.52108],[-75.0792,-10.51644],[-75.06518,-10.52338],[-75.0631,-10.53038],[-75.05472,-10.51839],[-75.05802,-10.49679],[-75.05692,-10.4841],[-75.06118,-10.46964],[-75.05412,-10.46471],[-75.04816,-10.45237],[-75.04694,-10.44048],[-75.02177,-10.44223],[-75.0072,-10.44636],[-75.00374,-10.45505],[-75.00287,-10.46599],[-74.9937,-10.47583],[-74.99698,-10.48916],[-75.01022,-10.50891],[-75.01024,-10.51537],[-74.99768,-10.53011],[-75.00248,-10.54151],[-74.99792,-10.55551],[-74.99934,-10.56369],[-75.0043,-10.56957],[-75.01236,-10.57159],[-75.02023,-10.58235],[-75.02994,-10.58571],[-75.03597,-10.59565],[-75.05184,-10.59756],[-75.05579,-10.60124],[-75.0549,-10.61906],[-75.06522,-10.62624],[-75.0687,-10.64469],[-75.06507,-10.65289]]]}},{"type":"Feature","properties":{"ubigeo":"190308","nombre":"Constitución"},"geometry":{"type":"Polygon","coordinates":[[[-74.41233,-9.95396],[-74.42622,-9.96224],[-74.43826,-9.95984],[-74.45381,-9.96234],[-74.46167,-9.95186],[-74.47232,-9.94734],[-74.48403,-9.94765],[-74.48784,-9.93611],[-74.48716,-9.92892],[-74.52922,-9.92673],[-74.53957,-9.93264],[-74.53772,-9.93611],[-74.54529,-9.95228],[-74.55044,-9.95335],[-74.56239,-9.96403],[-74.57338,-9.96153],[-74.58008,-9.96911],[-74.58201,-9.98096],[-74.57829,-9.98882],[-74.5951,-10.00679],[-74.6012,-10.01728],[-74.6005,-10.02778],[-74.61411,-10.02149],[-74.63205,-10.02122],[-74.64836,-10.02604],[-74.65385,-10.01842],[-74.66099,-10.01506],[-74.67939,-9.98818],[-74.6936,-9.98829],[-74.70116,-9.99349],[-74.69912,-10.00366],[-74.71353,-10.02068],[-74.72019,-10.01705],[-74.73597,-10.0165],[-74.7545,-10.02363],[-74.76893,-10.01183],[-74.77711,-10.01848],[-74.7775,-10.02591],[-74.78519,-10.04938],[-74.79295,-10.05789],[-74.81311,-10.04766],[-74.80714,-10.03943],[-74.80689,-10.03005],[-74.81487,-10.01312],[-74.82332,-10.0043],[-74.83646,-9.99447],[-74.84398,-9.99503],[-74.84836,-10.00315],[-74.85752,-10.00764],[-74.85331,-10.01985],[-74.86262,-10.01856],[-74.85719,-10.02814],[-74.84909,-10.02993],[-74.85358,-10.03895],[-74.86961,-10.0363],[-74.8743,-10.0288],[-74.88301,-10.03058],[-74.88238,-10.04236],[-74.88875,-10.04574],[-74.89177,-10.02338],[-74.90241,-10.0378],[-74.90509,-10.02464],[-74.9213,-10.02596],[-74.93283,-10.01606],[-74.93831,-10.02675],[-74.94617,-10.02608],[-74.94699,-10.03191],[-74.95447,-10.03923],[-74.95742,-10.03533],[-74.95405,-10.02301],[-74.94957,-10.02106],[-74.94963,-10.00759],[-74.95268,-10.00348],[-74.96244,-10.00643],[-74.96655,-9.99848],[-74.97407,-9.99987],[-74.97676,-10.00938],[-74.99194,-10.00434],[-74.98297,-10.01533],[-74.9735,-10.01878],[-75.02084,-10.06556],[-75.02979,-10.07317],[-75.03082,-10.08126],[-75.04314,-10.08957],[-75.04439,-10.09383],[-75.0598,-10.09925],[-75.08625,-10.08814],[-75.08602,-10.08504],[-75.10986,-10.08734],[-75.13754,-10.07909],[-75.1451,-10.08097],[-75.1519,-10.06485],[-75.15465,-10.0485],[-75.16308,-10.03453],[-75.16562,-10.02369],[-75.16463,-10.00235],[-75.16707,-9.98868],[-75.17809,-9.97493],[-75.19137,-9.96406],[-75.20314,-9.94566],[-75.22786,-9.92288],[-75.24762,-9.91715],[-75.24995,-9.89981],[-75.25578,-9.89563],[-75.26131,-9.89758],[-75.27056,-9.89145],[-75.27193,-9.88169],[-75.28822,-9.8707],[-75.277,-9.85592],[-75.27582,-9.84976],[-75.28262,-9.83049],[-75.29263,-9.81617],[-75.29761,-9.79426],[-75.30307,-9.78362],[-75.31064,-9.77467],[-75.29879,-9.77774],[-75.28863,-9.77576],[-75.27978,-9.77919],[-75.26317,-9.78018],[-75.25688,-9.77858],[-75.24075,-9.78584],[-75.21553,-9.80406],[-75.20261,-9.81537],[-75.16012,-9.83997],[-75.13519,-9.83861],[-75.12302,-9.84075],[-75.1084,-9.84625],[-75.09447,-9.84448],[-75.08013,-9.8392],[-75.07349,-9.83126],[-75.05677,-9.81921],[-75.05269,-9.82303],[-75.04326,-9.82285],[-75.03521,-9.8308],[-75.02174,-9.83094],[-75.01309,-9.8381],[-75.00286,-9.83725],[-74.99362,-9.8398],[-74.98555,-9.86406],[-74.95162,-9.85991],[-74.90339,-9.83889],[-74.88587,-9.82004],[-74.87908,-9.82047],[-74.862,-9.83934],[-74.86278,-9.84228],[-74.8526,-9.84836],[-74.835,-9.84711],[-74.8304,-9.83381],[-74.83526,-9.82886],[-74.83624,-9.82005],[-74.83051,-9.82157],[-74.82379,-9.81591],[-74.82672,-9.80974],[-74.82303,-9.80049],[-74.8156,-9.79543],[-74.82137,-9.78492],[-74.83179,-9.78312],[-74.84252,-9.78746],[-74.84707,-9.78048],[-74.83924,-9.76392],[-74.84474,-9.75382],[-74.8438,-9.74915],[-74.83163,-9.74563],[-74.81684,-9.73643],[-74.82308,-9.7253],[-74.823,-9.7152],[-74.82877,-9.70396],[-74.81865,-9.69358],[-74.82188,-9.67719],[-74.81806,-9.67107],[-74.80842,-9.67551],[-74.79755,-9.66564],[-74.7866,-9.66451],[-74.78165,-9.65296],[-74.76579,-9.63831],[-74.76373,-9.62664],[-74.77238,-9.61432],[-74.76301,-9.60446],[-74.75574,-9.60654],[-74.7539,-9.5952],[-74.75585,-9.58405],[-74.74728,-9.57869],[-74.74055,-9.57869],[-74.73517,-9.57271],[-74.74805,-9.54291],[-74.74642,-9.53835],[-74.75052,-9.52461],[-74.74194,-9.51734],[-74.73979,-9.49726],[-74.73522,-9.49247],[-74.72882,-9.47241],[-74.7199,-9.46548],[-74.71677,-9.45908],[-74.69801,-9.45131],[-74.68939,-9.4457],[-74.67596,-9.44691],[-74.66396,-9.45434],[-74.62245,-9.46111],[-74.60831,-9.47209],[-74.58109,-9.4766],[-74.57822,-9.48217],[-74.58318,-9.49844],[-74.59152,-9.50307],[-74.59317,-9.50962],[-74.58162,-9.52701],[-74.58238,-9.53374],[-74.57324,-9.55089],[-74.57556,-9.57049],[-74.56823,-9.5764],[-74.55693,-9.57715],[-74.53165,-9.5921],[-74.51651,-9.59188],[-74.51081,-9.5941],[-74.49477,-9.59114],[-74.49389,-9.61612],[-74.49073,-9.61878],[-74.49729,-9.6376],[-74.48965,-9.65327],[-74.49445,-9.6576],[-74.49183,-9.66198],[-74.49014,-9.6852],[-74.4842,-9.69496],[-74.47409,-9.73012],[-74.46548,-9.73433],[-74.45536,-9.74598],[-74.45001,-9.77211],[-74.44724,-9.77715],[-74.45115,-9.81067],[-74.45047,-9.85499],[-74.45333,-9.86276],[-74.4502,-9.87023],[-74.43757,-9.87238],[-74.4331,-9.87606],[-74.42794,-9.88788],[-74.41455,-9.90211],[-74.41103,-9.9157],[-74.41665,-9.93082],[-74.41147,-9.93616],[-74.41556,-9.94517],[-74.41233,-9.95396]]]}}]}