{"type":"FeatureCollection","features":[{"type":"Feature","properties":{"ubigeo":"200101","nombre":"Piura"},"geometry":{"type":"Polygon","coordinates":[[[-80.65405,-5.21745],[-80.64997,-5.20835],[-80.63911,-5.19326],[-80.64878,-5.18917],[-80.6478,-5.19496],[-80.65422,-5.19287],[-80.65368,-5.18727],[-80.65898,-5.18128],[-80.64909,-5.18474],[-80.64806,-5.18082],[-80.65817,-5.17739],[-80.66033,-5.17317],[-80.65124,-5.1649],[-80.6578,-5.15713],[-80.66233,-5.14534],[-80.68156,-5.13953],[-80.68749,-5.11761],[-80.7416,-5.12364],[-80.70032,-5.01762],[-80.65688,-5.02355],[-80.64944,-5.00663],[-80.64529,-4.97858],[-80.62996,-4.97493],[-80.60272,-4.97511],[-80.60232,-4.98348],[-80.59418,-4.99599],[-80.59865,-5.01203],[-80.60631,-5.01646],[-80.60605,-5.02974],[-80.61466,-5.03789],[-80.62929,-5.04005],[-80.62961,-5.05462],[-80.62231,-5.0619],[-80.61468,-5.06443],[-80.61072,-5.07207],[-80.61837,-5.08165],[-80.61769,-5.08696],[-80.63172,-5.09986],[-80.63241,-5.10723],[-80.62888,-5.12647],[-80.62932,-5.13612],[-80.62598,-5.13958],[-80.61765,-5.13791],[-80.61789,-5.14862],[-80.61429,-5.15681],[-80.61978,-5.16515],[-80.62538,-5.1828],[-80.625,-5.20031],[-80.63569,-5.21885],[-80.64638,-5.22149],[-80.64852,-5.22594],[-80.65405,-5.21745]]]}},{"type":"Feature","properties":{"ubigeo":"200104","nombre":"Castilla"},"geometry":{"type":"Polygon","coordinates":[[[-80.36426,-5.2325],[-80.38754,-5.23081],[-80.44815,-5.23227],[-80.45906,-5.23409],[-80.46937,-5.2388],[-80.49202,-5.24098],[-80.51683,-5.23562],[-80.55543,-5.2581],[-80.60023,-5.24798],[-80.62188,-5.24899],[-80.62911,-5.23542],[-80.63811,-5.23317],[-80.64852,-5.22594],[-80.64638,-5.22149],[-80.63569,-5.21885],[-80.625,-5.20031],[-80.62538,-5.1828],[-80.61978,-5.16515],[-80.61429,-5.15681],[-80.61789,-5.14862],[-80.61765,-5.13791],[-80.62598,-5.13958],[-80.62932,-5.13612],[-80.62888,-5.12647],[-80.63241,-5.10723],[-80.63172,-5.09986],[-80.61769,-5.08696],[-80.61837,-5.08165],[-80.61072,-5.07207],[-80.61468,-5.06443],[-80.62231,-5.0619],[-80.62961,-5.05462],[-80.62929,-5.04005],[-80.61466,-5.03789],[-80.60605,-5.02974],[-80.60631,-5.01646],[-80.59865,-5.01203],[-80.59418,-4.99599],[-80.60232,-4.98348],[-80.60272,-4.97511],[-80.59409,-4.97517],[-80.58489,-4.96621],[-80.58051,-4.96666],[-80.57965,-4.97906],[-80.57511,-4.98053],[-80.56209,-4.96783],[-80.55329,-4.97865],[-80.55214,-4.996],[-80.50353,-5],[-80.50243,-4.9824],[-80.4209,-5.05765],[-80.43151,-5.07946],[-80.43704,-5.1165],[-80.443,-5.13846],[-80.4462,-5.14457],[-80.40768,-5.14696],[-80.38787,-5.14671],[-80.35372,-5.14015],[-80.34971,-5.14808],[-80.35233,-5.17402],[-80.35612,-5.18757],[-80.36426,-5.2325]]]}},{"type":"Feature","properties":{"ubigeo":"200105","nombre":"Catacaos"},"geometry":{"type":"Polygon","coordinates":[[[-80.64852,-5.22594],[-80.63811,-5.23317],[-80.62911,-5.23542],[-80.62188,-5.24899],[-80.60023,-5.24798],[-80.55543,-5.2581],[-80.51683,-5.23562],[-80.49202,-5.24098],[-80.46937,-5.2388],[-80.45906,-5.23409],[-80.44815,-5.23227],[-80.38754,-5.23081],[-80.36426,-5.2325],[-80.34666,-5.2332],[-80.34774,-5.24661],[-80.35141,-5.25983],[-80.33029,-5.28406],[-80.25968,-5.32998],[-80.23356,-5.36474],[-80.18475,-5.43148],[-80.16297,-5.45991],[-80.12683,-5.51081],[-80.10668,-5.51892],[-80.10295,-5.53235],[-80.08755,-5.54617],[-80.08287,-5.56041],[-80.07274,-5.55546],[-80.06822,-5.5573],[-80.05312,-5.55503],[-80.05268,-5.5627],[-80.05695,-5.57684],[-80.05555,-5.6082],[-80.0577,-5.61956],[-80.06996,-5.64617],[-80.06621,-5.65614],[-80.07105,-5.67325],[-80.06107,-5.6844],[-80.06637,-5.69821],[-80.06996,-5.69763],[-80.09419,-5.70366],[-80.08992,-5.71338],[-80.09115,-5.72686],[-80.09809,-5.7355],[-80.10292,-5.76211],[-80.09521,-5.78312],[-80.09237,-5.79509],[-80.11141,-5.78509],[-80.1407,-5.76519],[-80.17213,-5.75054],[-80.19171,-5.73256],[-80.20755,-5.72183],[-80.24449,-5.70888],[-80.2511,-5.69689],[-80.29273,-5.6781],[-80.30594,-5.67662],[-80.32249,-5.67994],[-80.44785,-5.63347],[-80.5023,-5.61412],[-80.53463,-5.60161],[-80.53753,-5.56817],[-80.55258,-5.49227],[-80.56757,-5.48685],[-80.56668,-5.47602],[-80.54863,-5.46243],[-80.54503,-5.44615],[-80.53962,-5.4371],[-80.52563,-5.42109],[-80.5171,-5.38732],[-80.50267,-5.3647],[-80.5036,-5.33756],[-80.4937,-5.30408],[-80.51478,-5.30033],[-80.53341,-5.30299],[-80.54187,-5.30132],[-80.56933,-5.30455],[-80.5883,-5.30127],[-80.59372,-5.30721],[-80.60603,-5.30568],[-80.61226,-5.3145],[-80.62184,-5.32091],[-80.6426,-5.32137],[-80.68989,-5.31265],[-80.69959,-5.31224],[-80.70117,-5.30087],[-80.71254,-5.30021],[-80.72543,-5.30984],[-80.75113,-5.29171],[-80.75633,-5.27574],[-80.78523,-5.22193],[-80.80508,-5.22193],[-80.79723,-5.20539],[-80.79035,-5.19671],[-80.78559,-5.18459],[-80.77574,-5.17385],[-80.76776,-5.1515],[-80.73932,-5.15747],[-80.73486,-5.16138],[-80.70732,-5.17014],[-80.70703,-5.17419],[-80.6903,-5.19889],[-80.69169,-5.2021],[-80.66715,-5.21894],[-80.6634,-5.21457],[-80.65405,-5.21745],[-80.64852,-5.22594]]]}},{"type":"Feature","properties":{"ubigeo":"200107","nombre":"Cura Mori"},"geometry":{"type":"Polygon","coordinates":[[[-80.64932,-5.39691],[-80.65551,-5.38775],[-80.66272,-5.38446],[-80.65913,-5.37912],[-80.67097,-5.37914],[-80.67782,-5.37343],[-80.67953,-5.36238],[-80.67687,-5.35494],[-80.68954,-5.34825],[-80.68744,-5.33855],[-80.69525,-5.33304],[-80.69583,-5.32804],[-80.68804,-5.32825],[-80.68928,-5.32275],[-80.69754,-5.3184],[-80.69959,-5.31224],[-80.68989,-5.31265],[-80.6426,-5.32137],[-80.62184,-5.32091],[-80.61226,-5.3145],[-80.60603,-5.30568],[-80.59372,-5.30721],[-80.5883,-5.30127],[-80.56933,-5.30455],[-80.54187,-5.30132],[-80.53341,-5.30299],[-80.51478,-5.30033],[-80.4937,-5.30408],[-80.5036,-5.33756],[-80.50267,-5.3647],[-80.5171,-5.38732],[-80.52563,-5.42109],[-80.58071,-5.42084],[-80.58026,-5.41451],[-80.60011,-5.429],[-80.60734,-5.41905],[-80.60481,-5.41181],[-80.6124,-5.41182],[-80.61666,-5.40244],[-80.64083,-5.40085],[-80.64932,-5.39691]]]}},{"type":"Feature","properties":{"ubigeo":"200108","nombre":"El Tallan"},"geometry":{"type":"Polygon","coordinates":[[[-80.56757,-5.48685],[-80.59146,-5.47937],[-80.60152,-5.47921],[-80.64514,-5.4871],[-80.64868,-5.46184],[-80.64725,-5.44653],[-80.64223,-5.44476],[-80.64432,-5.43673],[-80.6537,-5.43384],[-80.69038,-5.42634],[-80.70377,-5.42492],[-80.70037,-5.41787],[-80.7,-5.40591],[-80.69166,-5.40447],[-80.65013,-5.40849],[-80.64932,-5.39691],[-80.64083,-5.40085],[-80.61666,-5.40244],[-80.6124,-5.41182],[-80.60481,-5.41181],[-80.60734,-5.41905],[-80.60011,-5.429],[-80.58026,-5.41451],[-80.58071,-5.42084],[-80.52563,-5.42109],[-80.53962,-5.4371],[-80.54503,-5.44615],[-80.54863,-5.46243],[-80.56668,-5.47602],[-80.56757,-5.48685]]]}},{"type":"Feature","properties":{"ubigeo":"200109","nombre":"La Arena"},"geometry":{"type":"Polygon","coordinates":[[[-80.64932,-5.39691],[-80.65013,-5.40849],[-80.69166,-5.40447],[-80.7,-5.40591],[-80.69164,-5.3936],[-80.69165,-5.38564],[-80.72019,-5.36972],[-80.72607,-5.35715],[-80.74728,-5.35083],[-80.77481,-5.34586],[-80.8222,-5.31693],[-80.8459,-5.3106],[-80.84909,-5.29321],[-80.84328,-5.28687],[-80.8397,-5.27274],[-80.83489,-5.2651],[-80.83625,-5.24755],[-80.83037,-5.23586],[-80.82947,-5.2277],[-80.82194,-5.22225],[-80.82176,-5.21678],[-80.80508,-5.22193],[-80.78523,-5.22193],[-80.75633,-5.27574],[-80.75113,-5.29171],[-80.72543,-5.30984],[-80.71254,-5.30021],[-80.70117,-5.30087],[-80.69959,-5.31224],[-80.69754,-5.3184],[-80.68928,-5.32275],[-80.68804,-5.32825],[-80.69583,-5.32804],[-80.69525,-5.33304],[-80.68744,-5.33855],[-80.68954,-5.34825],[-80.67687,-5.35494],[-80.67953,-5.36238],[-80.67782,-5.37343],[-80.67097,-5.37914],[-80.65913,-5.37912],[-80.66272,-5.38446],[-80.65551,-5.38775],[-80.64932,-5.39691]]]}},{"type":"Feature","properties":{"ubigeo":"200110","nombre":"La Unión"},"geometry":{"type":"Polygon","coordinates":[[[-80.84909,-5.29321],[-80.8459,-5.3106],[-80.8222,-5.31693],[-80.77481,-5.34586],[-80.74728,-5.35083],[-80.72607,-5.35715],[-80.72019,-5.36972],[-80.69165,-5.38564],[-80.69164,-5.3936],[-80.7,-5.40591],[-80.70037,-5.41787],[-80.70377,-5.42492],[-80.72089,-5.41974],[-80.723,-5.4117],[-80.7379,-5.4052],[-80.74918,-5.41362],[-80.75306,-5.41065],[-80.75191,-5.40266],[-80.77221,-5.40023],[-80.85102,-5.40605],[-80.95976,-5.35072],[-80.96108,-5.35045],[-80.96169,-5.31018],[-80.99532,-5.27669],[-81.01714,-5.26654],[-81.02251,-5.24209],[-81.01652,-5.23428],[-81.00656,-5.23272],[-80.99892,-5.23106],[-80.9875,-5.23699],[-80.97061,-5.24134],[-80.96057,-5.23759],[-80.93923,-5.23754],[-80.93024,-5.24181],[-80.92263,-5.25029],[-80.90623,-5.26199],[-80.89787,-5.26257],[-80.87509,-5.27851],[-80.85955,-5.28064],[-80.84909,-5.29321]]]}},{"type":"Feature","properties":{"ubigeo":"200111","nombre":"Las Lomas"},"geometry":{"type":"Polygon","coordinates":[[[-80.15342,-4.60419],[-80.14971,-4.61924],[-80.14149,-4.64176],[-80.13524,-4.64595],[-80.13303,-4.65321],[-80.1257,-4.6613],[-80.12357,-4.67301],[-80.11361,-4.6776],[-80.10123,-4.66346],[-80.08826,-4.66102],[-80.0753,-4.66243],[-80.05741,-4.65921],[-80.04522,-4.65914],[-80.03555,-4.65635],[-80.02375,-4.66192],[-80.00998,-4.67558],[-80.01025,-4.69461],[-80.01973,-4.69991],[-80.02569,-4.71823],[-80.03155,-4.72332],[-80.04392,-4.72664],[-80.04969,-4.73077],[-80.06069,-4.73262],[-80.07732,-4.73155],[-80.09246,-4.74195],[-80.09526,-4.75353],[-80.10553,-4.76156],[-80.11351,-4.7621],[-80.13011,-4.757],[-80.13758,-4.74803],[-80.15086,-4.75493],[-80.15374,-4.76777],[-80.16358,-4.77085],[-80.16642,-4.77685],[-80.17678,-4.78221],[-80.18649,-4.78179],[-80.19506,-4.77164],[-80.18696,-4.75831],[-80.18717,-4.74594],[-80.19245,-4.74122],[-80.18234,-4.73186],[-80.16954,-4.73375],[-80.17139,-4.7243],[-80.18274,-4.71455],[-80.19092,-4.69042],[-80.19601,-4.68327],[-80.2068,-4.68844],[-80.21154,-4.70153],[-80.22118,-4.71226],[-80.23346,-4.71953],[-80.25311,-4.72724],[-80.25434,-4.73093],[-80.27064,-4.73884],[-80.28007,-4.73761],[-80.29268,-4.74312],[-80.29714,-4.75165],[-80.29363,-4.76437],[-80.28403,-4.78444],[-80.2881,-4.78946],[-80.29165,-4.80443],[-80.3047,-4.80612],[-80.31796,-4.81638],[-80.32441,-4.82989],[-80.33342,-4.8229],[-80.33426,-4.8171],[-80.32538,-4.81069],[-80.33065,-4.80082],[-80.34262,-4.7985],[-80.34754,-4.79229],[-80.36011,-4.7779],[-80.35575,-4.77108],[-80.36793,-4.76552],[-80.38525,-4.74709],[-80.39279,-4.72815],[-80.39869,-4.72571],[-80.40612,-4.70841],[-80.4067,-4.70073],[-80.40153,-4.70078],[-80.39861,-4.69127],[-80.39216,-4.68129],[-80.39305,-4.67518],[-80.38803,-4.66662],[-80.37316,-4.66514],[-80.37117,-4.66178],[-80.3486,-4.65829],[-80.3472,-4.64417],[-80.33882,-4.63778],[-80.3368,-4.62808],[-80.30978,-4.61904],[-80.29944,-4.60778],[-80.29067,-4.60366],[-80.27369,-4.60029],[-80.26344,-4.59061],[-80.24875,-4.58504],[-80.23787,-4.58986],[-80.22518,-4.5898],[-80.22143,-4.59545],[-80.20123,-4.61041],[-80.18586,-4.60336],[-80.1777,-4.60443],[-80.15738,-4.60153],[-80.15342,-4.60419]]]}},{"type":"Feature","properties":{"ubigeo":"200114","nombre":"Tambo Grande"},"geometry":{"type":"Polygon","coordinates":[[[-80.07726,-4.77693],[-80.07779,-4.78281],[-80.08506,-4.79428],[-80.09482,-4.79944],[-80.11476,-4.80497],[-80.10278,-4.82184],[-80.10397,-4.83532],[-80.0964,-4.83845],[-80.09373,-4.84487],[-80.09776,-4.85144],[-80.09431,-4.8578],[-80.09836,-4.86613],[-80.11709,-4.88237],[-80.12199,-4.89249],[-80.11185,-4.90067],[-80.11054,-4.91236],[-80.11619,-4.93271],[-80.13329,-4.94488],[-80.15767,-4.95506],[-80.16291,-4.96524],[-80.17417,-4.97999],[-80.17611,-4.98809],[-80.18214,-4.99048],[-80.18632,-4.98643],[-80.20409,-5.00346],[-80.20937,-5.00133],[-80.21121,-4.99444],[-80.22541,-4.99313],[-80.22829,-4.98967],[-80.25897,-5.00377],[-80.25524,-5.00759],[-80.24292,-5.00382],[-80.23264,-5.0108],[-80.23386,-5.02287],[-80.222,-5.02993],[-80.22467,-5.04234],[-80.22228,-5.05354],[-80.22852,-5.05587],[-80.23906,-5.06485],[-80.25417,-5.06914],[-80.27867,-5.07056],[-80.28706,-5.06848],[-80.29307,-5.08591],[-80.30199,-5.09317],[-80.31032,-5.09305],[-80.32031,-5.10328],[-80.3246,-5.11137],[-80.33554,-5.12172],[-80.33807,-5.13717],[-80.35372,-5.14015],[-80.38787,-5.14671],[-80.40768,-5.14696],[-80.4462,-5.14457],[-80.443,-5.13846],[-80.43704,-5.1165],[-80.43151,-5.07946],[-80.4209,-5.05765],[-80.50243,-4.9824],[-80.50353,-5],[-80.55214,-4.996],[-80.55329,-4.97865],[-80.56209,-4.96783],[-80.57511,-4.98053],[-80.57965,-4.97906],[-80.58051,-4.96666],[-80.58489,-4.96621],[-80.59409,-4.97517],[-80.60272,-4.97511],[-80.62996,-4.97493],[-80.62704,-4.96136],[-80.61803,-4.94076],[-80.60628,-4.92949],[-80.60529,-4.91801],[-80.59569,-4.90606],[-80.5826,-4.90551],[-80.57359,-4.89972],[-80.57224,-4.88483],[-80.56289,-4.88317],[-80.55298,-4.87555],[-80.55453,-4.86305],[-80.54962,-4.85897],[-80.54554,-4.84657],[-80.54005,-4.83979],[-80.52201,-4.82606],[-80.50743,-4.82337],[-80.49881,-4.82942],[-80.48917,-4.8312],[-80.47653,-4.82583],[-80.45444,-4.83257],[-80.45052,-4.82813],[-80.43489,-4.82596],[-80.41887,-4.82896],[-80.40884,-4.82174],[-80.40496,-4.81256],[-80.38599,-4.8071],[-80.38191,-4.79959],[-80.37668,-4.79817],[-80.36185,-4.80101],[-80.34754,-4.79229],[-80.34262,-4.7985],[-80.33065,-4.80082],[-80.32538,-4.81069],[-80.33426,-4.8171],[-80.33342,-4.8229],[-80.32441,-4.82989],[-80.31796,-4.81638],[-80.3047,-4.80612],[-80.29165,-4.80443],[-80.2881,-4.78946],[-80.28403,-4.78444],[-80.29363,-4.76437],[-80.29714,-4.75165],[-80.29268,-4.74312],[-80.28007,-4.73761],[-80.27064,-4.73884],[-80.25434,-4.73093],[-80.25311,-4.72724],[-80.23346,-4.71953],[-80.22118,-4.71226],[-80.21154,-4.70153],[-80.2068,-4.68844],[-80.19601,-4.68327],[-80.19092,-4.69042],[-80.18274,-4.71455],[-80.17139,-4.7243],[-80.16954,-4.73375],[-80.18234,-4.73186],[-80.19245,-4.74122],[-80.18717,-4.74594],[-80.18696,-4.75831],[-80.19506,-4.77164],[-80.18649,-4.78179],[-80.17678,-4.78221],[-80.16642,-4.77685],[-80.16358,-4.77085],[-80.15374,-4.76777],[-80.15086,-4.75493],[-80.13758,-4.74803],[-80.13011,-4.757],[-80.11351,-4.7621],[-80.10553,-4.76156],[-80.09526,-4.75353],[-80.08154,-4.76545],[-80.07726,-4.77693]]]}},{"type":"Feature","properties":{"ubigeo":"200115","nombre":"Veintiseis de Octubre"},"geometry":{"type":"Polygon","coordinates":[[[-80.76776,-5.1515],[-80.75926,-5.13882],[-80.7416,-5.12364],[-80.68749,-5.11761],[-80.68156,-5.13953],[-80.66233,-5.14534],[-80.6578,-5.15713],[-80.65124,-5.1649],[-80.66033,-5.17317],[-80.65817,-5.17739],[-80.64806,-5.18082],[-80.64909,-5.18474],[-80.65898,-5.18128],[-80.65368,-5.18727],[-80.65422,-5.19287],[-80.6478,-5.19496],[-80.64878,-5.18917],[-80.63911,-5.19326],[-80.64997,-5.20835],[-80.65405,-5.21745],[-80.6634,-5.21457],[-80.66715,-5.21894],[-80.69169,-5.2021],[-80.6903,-5.19889],[-80.70703,-5.17419],[-80.70732,-5.17014],[-80.73486,-5.16138],[-80.73932,-5.15747],[-80.76776,-5.1515]]]}},{"type":"Feature","properties":{"ubigeo":"200201","nombre":"Ayabaca"},"geometry":{"type":"Polygon","coordinates":[[[-79.45321,-4.97087],[-79.46724,-4.96616],[-79.46025,-4.95603],[-79.46299,-4.95167],[-79.47224,-4.95179],[-79.47899,-4.94785],[-79.47992,-4.94256],[-79.48926,-4.93861],[-79.49642,-4.91621],[-79.49486,-4.9032],[-79.49113,-4.89728],[-79.49019,-4.87819],[-79.49673,-4.87228],[-79.51084,-4.86689],[-79.51283,-4.8637],[-79.53092,-4.86167],[-79.53602,-4.85503],[-79.54547,-4.8574],[-79.56646,-4.8571],[-79.58259,-4.84943],[-79.58997,-4.85038],[-79.61212,-4.86941],[-79.61701,-4.88141],[-79.62805,-4.88491],[-79.63498,-4.87758],[-79.64887,-4.87761],[-79.65544,-4.86521],[-79.65147,-4.85595],[-79.65415,-4.85083],[-79.64978,-4.83013],[-79.65516,-4.82325],[-79.66952,-4.8177],[-79.6719,-4.81336],[-79.68596,-4.8059],[-79.69138,-4.81133],[-79.70338,-4.81311],[-79.71213,-4.80503],[-79.71774,-4.80505],[-79.72608,-4.79912],[-79.72754,-4.79429],[-79.74543,-4.77438],[-79.75056,-4.75897],[-79.75427,-4.75483],[-79.77048,-4.75172],[-79.78345,-4.7531],[-79.7973,-4.74867],[-79.8088,-4.75068],[-79.81999,-4.7407],[-79.82788,-4.73923],[-79.83069,-4.72841],[-79.8439,-4.71981],[-79.85027,-4.7111],[-79.83618,-4.69565],[-79.82579,-4.67407],[-79.81329,-4.67359],[-79.80397,-4.66818],[-79.79218,-4.6759],[-79.79167,-4.66579],[-79.79483,-4.64841],[-79.79036,-4.63925],[-79.78473,-4.63495],[-79.77093,-4.63458],[-79.76695,-4.63044],[-79.76293,-4.61754],[-79.75779,-4.60057],[-79.74946,-4.58296],[-79.74569,-4.57986],[-79.75557,-4.56047],[-79.76702,-4.55627],[-79.76945,-4.55171],[-79.77853,-4.54939],[-79.78661,-4.53529],[-79.79193,-4.53297],[-79.79844,-4.52208],[-79.79631,-4.50588],[-79.80172,-4.48867],[-79.79388,-4.49298],[-79.77288,-4.48715],[-79.7649,-4.48778],[-79.74884,-4.4829],[-79.71973,-4.4681],[-79.70643,-4.47157],[-79.69856,-4.46282],[-79.68897,-4.45801],[-79.68185,-4.44792],[-79.67464,-4.44813],[-79.65551,-4.434],[-79.644,-4.43395],[-79.62808,-4.43935],[-79.61004,-4.45154],[-79.60817,-4.45736],[-79.60026,-4.45649],[-79.59586,-4.46172],[-79.59679,-4.46801],[-79.58246,-4.48299],[-79.58136,-4.49798],[-79.57478,-4.50394],[-79.56987,-4.50348],[-79.56069,-4.51529],[-79.55069,-4.51503],[-79.54322,-4.52214],[-79.54387,-4.52648],[-79.5314,-4.52652],[-79.52752,-4.52984],[-79.51488,-4.51862],[-79.50573,-4.5182],[-79.49634,-4.52192],[-79.48528,-4.53764],[-79.48284,-4.55652],[-79.47661,-4.56972],[-79.4916,-4.57759],[-79.49417,-4.58385],[-79.49065,-4.59023],[-79.48977,-4.61039],[-79.48559,-4.62906],[-79.46977,-4.64224],[-79.46406,-4.6524],[-79.46093,-4.66689],[-79.4584,-4.6982],[-79.4524,-4.712],[-79.44547,-4.72233],[-79.43754,-4.72888],[-79.42879,-4.74787],[-79.39857,-4.82552],[-79.39355,-4.83617],[-79.40554,-4.85011],[-79.40858,-4.86705],[-79.4172,-4.88479],[-79.41071,-4.8963],[-79.41115,-4.90221],[-79.40619,-4.9093],[-79.4098,-4.92643],[-79.40918,-4.93528],[-79.40481,-4.94494],[-79.41475,-4.95505],[-79.43374,-4.96426],[-79.4498,-4.96626],[-79.45321,-4.97087]]]}},{"type":"Feature","properties":{"ubigeo":"200202","nombre":"Frias"},"geometry":{"type":"Polygon","coordinates":[[[-79.87904,-4.8803],[-79.86845,-4.87676],[-79.85405,-4.87891],[-79.84244,-4.89584],[-79.82715,-4.9015],[-79.82266,-4.91236],[-79.80839,-4.91102],[-79.80004,-4.92426],[-79.80802,-4.93474],[-79.80141,-4.94095],[-79.80418,-4.95457],[-79.79585,-4.96344],[-79.79552,-4.97234],[-79.7901,-4.97921],[-79.78848,-4.99082],[-79.79431,-4.9926],[-79.80637,-4.99789],[-79.82008,-4.9919],[-79.83134,-4.99391],[-79.83908,-4.98137],[-79.83876,-4.97532],[-79.84956,-4.97238],[-79.84856,-4.9646],[-79.85335,-4.9535],[-79.85861,-4.95513],[-79.86425,-4.96509],[-79.86243,-4.97204],[-79.87857,-4.98484],[-79.89271,-4.98813],[-79.9001,-4.99476],[-79.90225,-5.01149],[-79.90917,-5.0194],[-79.92528,-5.01938],[-79.94047,-5.0314],[-79.95932,-5.0367],[-79.96919,-5.02734],[-79.97798,-5.0265],[-79.99197,-5.02468],[-79.99607,-5.01769],[-80.00225,-5.01597],[-80.0101,-5.02142],[-80.02199,-5.0183],[-80.0388,-5.02636],[-80.04293,-5.0188],[-80.0566,-5.01147],[-80.06412,-5.01229],[-80.07172,-5.00641],[-80.08256,-5.00447],[-80.08665,-4.99482],[-80.09008,-4.9682],[-80.07839,-4.94412],[-80.07925,-4.94014],[-80.09003,-4.93186],[-80.10214,-4.92844],[-80.11054,-4.91236],[-80.11185,-4.90067],[-80.12199,-4.89249],[-80.11709,-4.88237],[-80.09836,-4.86613],[-80.09431,-4.8578],[-80.09776,-4.85144],[-80.09373,-4.84487],[-80.0964,-4.83845],[-80.10397,-4.83532],[-80.10278,-4.82184],[-80.11476,-4.80497],[-80.09482,-4.79944],[-80.08506,-4.79428],[-80.07779,-4.78281],[-80.07726,-4.77693],[-80.06064,-4.79171],[-80.05972,-4.799],[-80.06258,-4.81823],[-80.05845,-4.83373],[-80.05404,-4.84096],[-80.04261,-4.84205],[-80.03075,-4.85134],[-80.02279,-4.85382],[-80.01449,-4.85092],[-80.00173,-4.86075],[-79.9867,-4.85965],[-79.97478,-4.86881],[-79.9669,-4.86863],[-79.9582,-4.85852],[-79.94916,-4.86391],[-79.93075,-4.85032],[-79.92231,-4.83865],[-79.90466,-4.8349],[-79.89579,-4.83925],[-79.88985,-4.83608],[-79.88426,-4.84188],[-79.88318,-4.85607],[-79.88598,-4.86742],[-79.87904,-4.8803]]]}},{"type":"Feature","properties":{"ubigeo":"200203","nombre":"Jilili"},"geometry":{"type":"Polygon","coordinates":[[[-79.79844,-4.52208],[-79.80232,-4.5545],[-79.80667,-4.56567],[-79.79952,-4.5791],[-79.78815,-4.58627],[-79.78141,-4.5939],[-79.78151,-4.60937],[-79.79192,-4.61001],[-79.79981,-4.60725],[-79.81721,-4.59591],[-79.82429,-4.59351],[-79.84783,-4.59667],[-79.85782,-4.58326],[-79.85123,-4.56948],[-79.84247,-4.56381],[-79.8379,-4.54664],[-79.84399,-4.54038],[-79.85903,-4.53561],[-79.87865,-4.52313],[-79.87508,-4.51113],[-79.87828,-4.50399],[-79.87327,-4.47805],[-79.85996,-4.46824],[-79.85544,-4.46204],[-79.853,-4.45131],[-79.84696,-4.45604],[-79.83984,-4.4676],[-79.81717,-4.48516],[-79.81302,-4.4911],[-79.80172,-4.48867],[-79.79631,-4.50588],[-79.79844,-4.52208]]]}},{"type":"Feature","properties":{"ubigeo":"200204","nombre":"Lagunas"},"geometry":{"type":"Polygon","coordinates":[[[-79.77048,-4.75172],[-79.7762,-4.75793],[-79.78189,-4.77091],[-79.78416,-4.7848],[-79.79482,-4.81187],[-79.79981,-4.81595],[-79.80648,-4.83252],[-79.80588,-4.83584],[-79.81463,-4.84754],[-79.82492,-4.85139],[-79.83384,-4.85962],[-79.83876,-4.85798],[-79.85357,-4.8606],[-79.85922,-4.85856],[-79.86864,-4.86564],[-79.87904,-4.8803],[-79.88598,-4.86742],[-79.88318,-4.85607],[-79.88426,-4.84188],[-79.88985,-4.83608],[-79.89579,-4.83925],[-79.90466,-4.8349],[-79.89945,-4.82412],[-79.88912,-4.81392],[-79.87894,-4.81235],[-79.88289,-4.80261],[-79.89744,-4.79882],[-79.91109,-4.79294],[-79.90853,-4.77621],[-79.91926,-4.75661],[-79.91997,-4.74723],[-79.9168,-4.74265],[-79.90717,-4.73811],[-79.90321,-4.73226],[-79.90697,-4.7267],[-79.90851,-4.7058],[-79.88151,-4.69163],[-79.87797,-4.68782],[-79.86608,-4.69727],[-79.85519,-4.70127],[-79.85027,-4.7111],[-79.8439,-4.71981],[-79.83069,-4.72841],[-79.82788,-4.73923],[-79.81999,-4.7407],[-79.8088,-4.75068],[-79.7973,-4.74867],[-79.78345,-4.7531],[-79.77048,-4.75172]]]}},{"type":"Feature","properties":{"ubigeo":"200205","nombre":"Montero"},"geometry":{"type":"Polygon","coordinates":[[[-79.78151,-4.60937],[-79.76293,-4.61754],[-79.76695,-4.63044],[-79.77093,-4.63458],[-79.78473,-4.63495],[-79.79036,-4.63925],[-79.79483,-4.64841],[-79.79167,-4.66579],[-79.79218,-4.6759],[-79.80397,-4.66818],[-79.81329,-4.67359],[-79.82579,-4.67407],[-79.83618,-4.69565],[-79.85027,-4.7111],[-79.85519,-4.70127],[-79.86608,-4.69727],[-79.87797,-4.68782],[-79.88513,-4.67257],[-79.89848,-4.66407],[-79.90494,-4.65542],[-79.90548,-4.64447],[-79.90979,-4.63901],[-79.90713,-4.62811],[-79.90717,-4.61531],[-79.89988,-4.60268],[-79.899,-4.59263],[-79.88744,-4.58752],[-79.85782,-4.58326],[-79.84783,-4.59667],[-79.82429,-4.59351],[-79.81721,-4.59591],[-79.79981,-4.60725],[-79.79192,-4.61001],[-79.78151,-4.60937]]]}},{"type":"Feature","properties":{"ubigeo":"200206","nombre":"Pacaipampa"},"geometry":{"type":"Polygon","coordinates":[[[-79.48782,-5.11079],[-79.49686,-5.10819],[-79.51819,-5.08476],[-79.52893,-5.08538],[-79.53319,-5.07933],[-79.53949,-5.07999],[-79.54606,-5.07497],[-79.55598,-5.076],[-79.56679,-5.06947],[-79.57812,-5.07091],[-79.57893,-5.06106],[-79.59525,-5.05665],[-79.59563,-5.0664],[-79.59983,-5.07252],[-79.60004,-5.08438],[-79.61873,-5.09922],[-79.64221,-5.10722],[-79.65141,-5.09987],[-79.64886,-5.09165],[-79.66442,-5.09791],[-79.67826,-5.09355],[-79.70597,-5.06656],[-79.71348,-5.06023],[-79.72528,-5.0568],[-79.73121,-5.04509],[-79.72943,-5.02178],[-79.73237,-5.01807],[-79.74405,-5.0248],[-79.75463,-5.02484],[-79.76328,-5.01844],[-79.77522,-5.00096],[-79.78848,-4.99082],[-79.7901,-4.97921],[-79.79552,-4.97234],[-79.79585,-4.96344],[-79.80418,-4.95457],[-79.80141,-4.94095],[-79.80802,-4.93474],[-79.80004,-4.92426],[-79.80839,-4.91102],[-79.82266,-4.91236],[-79.82715,-4.9015],[-79.84244,-4.89584],[-79.85405,-4.87891],[-79.86845,-4.87676],[-79.87904,-4.8803],[-79.86864,-4.86564],[-79.85922,-4.85856],[-79.85357,-4.8606],[-79.83876,-4.85798],[-79.83384,-4.85962],[-79.82492,-4.85139],[-79.81463,-4.84754],[-79.80588,-4.83584],[-79.80648,-4.83252],[-79.79981,-4.81595],[-79.79482,-4.81187],[-79.78416,-4.7848],[-79.78189,-4.77091],[-79.7762,-4.75793],[-79.77048,-4.75172],[-79.75427,-4.75483],[-79.75056,-4.75897],[-79.74543,-4.77438],[-79.72754,-4.79429],[-79.72608,-4.79912],[-79.71774,-4.80505],[-79.71213,-4.80503],[-79.70338,-4.81311],[-79.69138,-4.81133],[-79.68596,-4.8059],[-79.6719,-4.81336],[-79.66952,-4.8177],[-79.65516,-4.82325],[-79.64978,-4.83013],[-79.65415,-4.85083],[-79.65147,-4.85595],[-79.65544,-4.86521],[-79.64887,-4.87761],[-79.63498,-4.87758],[-79.62805,-4.88491],[-79.61701,-4.88141],[-79.61212,-4.86941],[-79.58997,-4.85038],[-79.58259,-4.84943],[-79.56646,-4.8571],[-79.54547,-4.8574],[-79.53602,-4.85503],[-79.53092,-4.86167],[-79.51283,-4.8637],[-79.51084,-4.86689],[-79.49673,-4.87228],[-79.49019,-4.87819],[-79.49113,-4.89728],[-79.49486,-4.9032],[-79.49642,-4.91621],[-79.48926,-4.93861],[-79.47992,-4.94256],[-79.47899,-4.94785],[-79.47224,-4.95179],[-79.46299,-4.95167],[-79.46025,-4.95603],[-79.46724,-4.96616],[-79.45321,-4.97087],[-79.45433,-4.98862],[-79.46272,-4.98637],[-79.48192,-5.02153],[-79.48034,-5.03681],[-79.47493,-5.05285],[-79.48091,-5.06111],[-79.48465,-5.07866],[-79.4921,-5.08564],[-79.49172,-5.09278],[-79.49648,-5.09745],[-79.49283,-5.10762],[-79.48782,-5.11079]]]}},{"type":"Feature","properties":{"ubigeo":"200207","nombre":"Paimas"},"geometry":{"type":"Polygon","coordinates":[[[-79.87797,-4.68782],[-79.88151,-4.69163],[-79.90851,-4.7058],[-79.90697,-4.7267],[-79.90321,-4.73226],[-79.90717,-4.73811],[-79.9168,-4.74265],[-79.93284,-4.73959],[-79.94024,-4.72834],[-79.93994,-4.72028],[-79.95025,-4.71364],[-79.95462,-4.70645],[-79.96478,-4.70882],[-79.97313,-4.703],[-79.995,-4.69702],[-80.00554,-4.69755],[-80.01025,-4.69461],[-80.00998,-4.67558],[-80.02375,-4.66192],[-80.03555,-4.65635],[-80.04522,-4.65914],[-80.05741,-4.65921],[-80.0753,-4.66243],[-80.08826,-4.66102],[-80.10123,-4.66346],[-80.11361,-4.6776],[-80.12357,-4.67301],[-80.1257,-4.6613],[-80.13303,-4.65321],[-80.13524,-4.64595],[-80.14149,-4.64176],[-80.14971,-4.61924],[-80.15342,-4.60419],[-80.14333,-4.60008],[-80.14188,-4.59141],[-80.13645,-4.58616],[-80.1326,-4.57627],[-80.11483,-4.57278],[-80.0952,-4.57905],[-80.08919,-4.58377],[-80.07613,-4.58395],[-80.0661,-4.58793],[-80.04614,-4.58005],[-80.0325,-4.58345],[-80.02463,-4.58063],[-80.01886,-4.56456],[-80.0064,-4.57013],[-79.99116,-4.57265],[-79.97901,-4.56712],[-79.96655,-4.57042],[-79.95918,-4.57605],[-79.94402,-4.57681],[-79.9389,-4.58183],[-79.93023,-4.58138],[-79.9202,-4.58725],[-79.91248,-4.59593],[-79.899,-4.59263],[-79.89988,-4.60268],[-79.90717,-4.61531],[-79.90713,-4.62811],[-79.90979,-4.63901],[-79.90548,-4.64447],[-79.90494,-4.65542],[-79.89848,-4.66407],[-79.88513,-4.67257],[-79.87797,-4.68782]]]}},{"type":"Feature","properties":{"ubigeo":"200208","nombre":"Sapillica"},"geometry":{"type":"Polygon","coordinates":[[[-79.90466,-4.8349],[-79.92231,-4.83865],[-79.93075,-4.85032],[-79.94916,-4.86391],[-79.9582,-4.85852],[-79.9669,-4.86863],[-79.97478,-4.86881],[-79.9867,-4.85965],[-80.00173,-4.86075],[-80.01449,-4.85092],[-80.02279,-4.85382],[-80.03075,-4.85134],[-80.04261,-4.84205],[-80.05404,-4.84096],[-80.05845,-4.83373],[-80.06258,-4.81823],[-80.05972,-4.799],[-80.06064,-4.79171],[-80.07726,-4.77693],[-80.08154,-4.76545],[-80.09526,-4.75353],[-80.09246,-4.74195],[-80.07732,-4.73155],[-80.06069,-4.73262],[-80.04969,-4.73077],[-80.04392,-4.72664],[-80.03155,-4.72332],[-80.02569,-4.71823],[-80.01973,-4.69991],[-80.01025,-4.69461],[-80.00554,-4.69755],[-79.995,-4.69702],[-79.97313,-4.703],[-79.96478,-4.70882],[-79.95462,-4.70645],[-79.95025,-4.71364],[-79.93994,-4.72028],[-79.94024,-4.72834],[-79.93284,-4.73959],[-79.9168,-4.74265],[-79.91997,-4.74723],[-79.91926,-4.75661],[-79.90853,-4.77621],[-79.91109,-4.79294],[-79.89744,-4.79882],[-79.88289,-4.80261],[-79.87894,-4.81235],[-79.88912,-4.81392],[-79.89945,-4.82412],[-79.90466,-4.8349]]]}},{"type":"Feature","properties":{"ubigeo":"200209","nombre":"Sicchez"},"geometry":{"type":"Polygon","coordinates":[[[-79.78151,-4.60937],[-79.78141,-4.5939],[-79.78815,-4.58627],[-79.79952,-4.5791],[-79.80667,-4.56567],[-79.80232,-4.5545],[-79.79844,-4.52208],[-79.79193,-4.53297],[-79.78661,-4.53529],[-79.77853,-4.54939],[-79.76945,-4.55171],[-79.76702,-4.55627],[-79.75557,-4.56047],[-79.74569,-4.57986],[-79.74946,-4.58296],[-79.75779,-4.60057],[-79.76293,-4.61754],[-79.78151,-4.60937]]]}},{"type":"Feature","properties":{"ubigeo":"200210","nombre":"Suyo"},"geometry":{"type":"Polygon","coordinates":[[[-79.85782,-4.58326],[-79.88744,-4.58752],[-79.899,-4.59263],[-79.91248,-4.59593],[-79.9202,-4.58725],[-79.93023,-4.58138],[-79.9389,-4.58183],[-79.94402,-4.57681],[-79.95918,-4.57605],[-79.96655,-4.57042],[-79.97901,-4.56712],[-79.99116,-4.57265],[-80.0064,-4.57013],[-80.01886,-4.56456],[-80.02463,-4.58063],[-80.0325,-4.58345],[-80.04614,-4.58005],[-80.0661,-4.58793],[-80.07613,-4.58395],[-80.08919,-4.58377],[-80.0952,-4.57905],[-80.11483,-4.57278],[-80.1326,-4.57627],[-80.13645,-4.58616],[-80.14188,-4.59141],[-80.14333,-4.60008],[-80.15342,-4.60419],[-80.15738,-4.60153],[-80.1777,-4.60443],[-80.18586,-4.60336],[-80.20123,-4.61041],[-80.22143,-4.59545],[-80.20768,-4.58466],[-80.20159,-4.57385],[-80.20375,-4.56369],[-80.20911,-4.55387],[-80.20832,-4.54659],[-80.21712,-4.54252],[-80.22172,-4.53646],[-80.22019,-4.52453],[-80.22377,-4.51396],[-80.21276,-4.50699],[-80.2169,-4.49153],[-80.21425,-4.48447],[-80.2233,-4.47764],[-80.223,-4.46923],[-80.21433,-4.46714],[-80.21236,-4.46302],[-80.22792,-4.45123],[-80.22604,-4.44596],[-80.23493,-4.43755],[-80.24929,-4.43932],[-80.25868,-4.4298],[-80.26526,-4.42937],[-80.27223,-4.43871],[-80.27748,-4.43591],[-80.28376,-4.42577],[-80.28988,-4.43324],[-80.29565,-4.42477],[-80.29078,-4.42177],[-80.28411,-4.41078],[-80.27708,-4.4041],[-80.26671,-4.41094],[-80.26205,-4.41043],[-80.25803,-4.40181],[-80.25008,-4.40188],[-80.2467,-4.39069],[-80.23541,-4.38749],[-80.23224,-4.3738],[-80.22518,-4.37934],[-80.2197,-4.37636],[-80.22191,-4.36806],[-80.2171,-4.36414],[-80.21901,-4.35532],[-80.21135,-4.35925],[-80.20916,-4.35268],[-80.19486,-4.34636],[-80.20548,-4.33867],[-80.20231,-4.33635],[-80.1872,-4.33556],[-80.18659,-4.32418],[-80.17871,-4.30378],[-80.17916,-4.29751],[-80.17035,-4.28922],[-80.16479,-4.2899],[-80.16581,-4.3007],[-80.15399,-4.30327],[-80.15254,-4.29837],[-80.1418,-4.28563],[-80.13576,-4.28533],[-80.13826,-4.29362],[-80.13496,-4.29628],[-80.11725,-4.29447],[-80.108,-4.29804],[-80.10424,-4.29096],[-80.09699,-4.294],[-80.09145,-4.30092],[-80.08347,-4.30185],[-80.07198,-4.30923],[-80.06148,-4.31022],[-80.05105,-4.33079],[-80.04022,-4.33587],[-80.0345,-4.34875],[-80.03028,-4.34827],[-80.01409,-4.35688],[-80.00819,-4.36897],[-79.99177,-4.37996],[-79.97878,-4.37921],[-79.97156,-4.3874],[-79.95992,-4.39498],[-79.9515,-4.39083],[-79.94919,-4.39486],[-79.93811,-4.39656],[-79.93088,-4.39434],[-79.9207,-4.38561],[-79.89182,-4.40152],[-79.88222,-4.41042],[-79.87135,-4.41298],[-79.85405,-4.43447],[-79.853,-4.45131],[-79.85544,-4.46204],[-79.85996,-4.46824],[-79.87327,-4.47805],[-79.87828,-4.50399],[-79.87508,-4.51113],[-79.87865,-4.52313],[-79.85903,-4.53561],[-79.84399,-4.54038],[-79.8379,-4.54664],[-79.84247,-4.56381],[-79.85123,-4.56948],[-79.85782,-4.58326]]]}},{"type":"Feature","properties":{"ubigeo":"200301","nombre":"Huancabamba"},"geometry":{"type":"Polygon","coordinates":[[[-79.37226,-5.18392],[-79.37841,-5.19052],[-79.37421,-5.19489],[-79.3683,-5.21342],[-79.3549,-5.22405],[-79.34865,-5.23258],[-79.34895,-5.25927],[-79.37843,-5.26099],[-79.40063,-5.25286],[-79.43294,-5.26554],[-79.43937,-5.28087],[-79.43668,-5.28937],[-79.44997,-5.30121],[-79.47069,-5.30357],[-79.48383,-5.31054],[-79.5,-5.31196],[-79.51092,-5.30817],[-79.51305,-5.30176],[-79.53483,-5.29842],[-79.54886,-5.30899],[-79.5622,-5.30685],[-79.56392,-5.29821],[-79.57153,-5.27967],[-79.56735,-5.26215],[-79.56144,-5.2531],[-79.5607,-5.23501],[-79.55722,-5.23205],[-79.55592,-5.22044],[-79.5566,-5.20201],[-79.55982,-5.19325],[-79.56687,-5.19078],[-79.57158,-5.19376],[-79.59179,-5.1943],[-79.59774,-5.18298],[-79.60801,-5.17496],[-79.59953,-5.14673],[-79.59784,-5.13634],[-79.61134,-5.12311],[-79.6173,-5.10957],[-79.61873,-5.09922],[-79.60004,-5.08438],[-79.59983,-5.07252],[-79.59563,-5.0664],[-79.59525,-5.05665],[-79.57893,-5.06106],[-79.57812,-5.07091],[-79.56679,-5.06947],[-79.55598,-5.076],[-79.54606,-5.07497],[-79.53949,-5.07999],[-79.53319,-5.07933],[-79.52893,-5.08538],[-79.51819,-5.08476],[-79.49686,-5.10819],[-79.48782,-5.11079],[-79.50015,-5.11962],[-79.49995,-5.133],[-79.48798,-5.14035],[-79.46782,-5.1459],[-79.4627,-5.15245],[-79.44254,-5.15201],[-79.43978,-5.16338],[-79.42142,-5.1583],[-79.39291,-5.1648],[-79.37594,-5.17006],[-79.37226,-5.18392]]]}},{"type":"Feature","properties":{"ubigeo":"200302","nombre":"Canchaque"},"geometry":{"type":"Polygon","coordinates":[[[-79.53821,-5.33801],[-79.5387,-5.35485],[-79.54752,-5.36482],[-79.54802,-5.36928],[-79.56527,-5.37248],[-79.58376,-5.38763],[-79.59502,-5.38778],[-79.59797,-5.3911],[-79.60939,-5.39191],[-79.61232,-5.39528],[-79.62296,-5.39488],[-79.62566,-5.40226],[-79.63254,-5.40388],[-79.6478,-5.41474],[-79.65407,-5.4115],[-79.66679,-5.41023],[-79.67284,-5.41256],[-79.68667,-5.41171],[-79.69111,-5.41728],[-79.70311,-5.42063],[-79.71485,-5.4181],[-79.72747,-5.42269],[-79.73526,-5.41987],[-79.75185,-5.42166],[-79.76021,-5.42575],[-79.76859,-5.42503],[-79.76482,-5.40378],[-79.74605,-5.39126],[-79.74036,-5.38093],[-79.73199,-5.37704],[-79.71085,-5.37708],[-79.7042,-5.38426],[-79.69804,-5.38566],[-79.67633,-5.38104],[-79.66282,-5.36895],[-79.65988,-5.34874],[-79.65152,-5.34287],[-79.6478,-5.33546],[-79.6552,-5.3333],[-79.66984,-5.31743],[-79.67128,-5.30272],[-79.6686,-5.29665],[-79.6733,-5.28757],[-79.68666,-5.27219],[-79.6872,-5.26571],[-79.6945,-5.25805],[-79.68212,-5.25805],[-79.67438,-5.25486],[-79.66314,-5.24326],[-79.65944,-5.24386],[-79.65507,-5.23539],[-79.64447,-5.22366],[-79.64385,-5.21349],[-79.63949,-5.21106],[-79.63076,-5.19785],[-79.6247,-5.19524],[-79.62062,-5.18178],[-79.60801,-5.17496],[-79.59774,-5.18298],[-79.59179,-5.1943],[-79.57158,-5.19376],[-79.56687,-5.19078],[-79.55982,-5.19325],[-79.5566,-5.20201],[-79.55592,-5.22044],[-79.55722,-5.23205],[-79.5607,-5.23501],[-79.56144,-5.2531],[-79.56735,-5.26215],[-79.57153,-5.27967],[-79.56392,-5.29821],[-79.5622,-5.30685],[-79.54886,-5.30899],[-79.5429,-5.32088],[-79.54149,-5.3331],[-79.53821,-5.33801]]]}},{"type":"Feature","properties":{"ubigeo":"200303","nombre":"El Carmen de la Frontera"},"geometry":{"type":"Polygon","coordinates":[[[-79.34177,-5.16327],[-79.35355,-5.16688],[-79.36252,-5.17414],[-79.36748,-5.17451],[-79.37226,-5.18392],[-79.37594,-5.17006],[-79.39291,-5.1648],[-79.42142,-5.1583],[-79.43978,-5.16338],[-79.44254,-5.15201],[-79.4627,-5.15245],[-79.46782,-5.1459],[-79.48798,-5.14035],[-79.49995,-5.133],[-79.50015,-5.11962],[-79.48782,-5.11079],[-79.49283,-5.10762],[-79.49648,-5.09745],[-79.49172,-5.09278],[-79.4921,-5.08564],[-79.48465,-5.07866],[-79.48091,-5.06111],[-79.47493,-5.05285],[-79.48034,-5.03681],[-79.48192,-5.02153],[-79.46272,-4.98637],[-79.45433,-4.98862],[-79.45321,-4.97087],[-79.4498,-4.96626],[-79.43374,-4.96426],[-79.41475,-4.95505],[-79.40481,-4.94494],[-79.40918,-4.93528],[-79.4098,-4.92643],[-79.40619,-4.9093],[-79.41115,-4.90221],[-79.41071,-4.8963],[-79.4172,-4.88479],[-79.40858,-4.86705],[-79.40554,-4.85011],[-79.39355,-4.83617],[-79.38916,-4.83336],[-79.37376,-4.83271],[-79.36614,-4.83767],[-79.35378,-4.87058],[-79.3524,-4.88027],[-79.3457,-4.88565],[-79.33393,-4.8842],[-79.33155,-4.89122],[-79.32057,-4.90067],[-79.31181,-4.9012],[-79.3098,-4.89769],[-79.30167,-4.9092],[-79.30029,-4.92096],[-79.29233,-4.93063],[-79.28803,-4.94315],[-79.27749,-4.952],[-79.2677,-4.96572],[-79.26177,-4.96844],[-79.2236,-4.96447],[-79.21004,-4.96585],[-79.21285,-4.97635],[-79.22218,-4.9824],[-79.21614,-4.991],[-79.21502,-5.01014],[-79.21989,-5.01261],[-79.21911,-5.02128],[-79.22774,-5.0498],[-79.24113,-5.04967],[-79.24509,-5.05563],[-79.27301,-5.05852],[-79.27326,-5.07278],[-79.27962,-5.08314],[-79.28627,-5.08596],[-79.28877,-5.0963],[-79.29619,-5.10122],[-79.29603,-5.11198],[-79.30348,-5.11706],[-79.31152,-5.11706],[-79.33035,-5.12443],[-79.34056,-5.13914],[-79.34257,-5.14702],[-79.34177,-5.16327]]]}},{"type":"Feature","properties":{"ubigeo":"200304","nombre":"Huarmaca"},"geometry":{"type":"Polygon","coordinates":[[[-79.64253,-5.48519],[-79.63277,-5.48727],[-79.62979,-5.48324],[-79.61412,-5.48407],[-79.59866,-5.48026],[-79.58111,-5.46818],[-79.57255,-5.46464],[-79.56554,-5.45735],[-79.55421,-5.45392],[-79.55021,-5.44726],[-79.54513,-5.44693],[-79.53194,-5.43964],[-79.52752,-5.43031],[-79.52139,-5.42487],[-79.51042,-5.43998],[-79.49686,-5.43791],[-79.48874,-5.44713],[-79.48063,-5.46055],[-79.47627,-5.46108],[-79.47206,-5.472],[-79.4746,-5.48228],[-79.47092,-5.48899],[-79.46342,-5.48846],[-79.45515,-5.49445],[-79.45519,-5.50556],[-79.44298,-5.51685],[-79.44385,-5.53047],[-79.42851,-5.52863],[-79.42323,-5.52512],[-79.40927,-5.52265],[-79.40368,-5.52422],[-79.40425,-5.53209],[-79.39862,-5.53348],[-79.3995,-5.53875],[-79.39013,-5.55826],[-79.38025,-5.5704],[-79.37856,-5.58295],[-79.38054,-5.58952],[-79.37213,-5.59803],[-79.37628,-5.60679],[-79.37951,-5.63061],[-79.3828,-5.63626],[-79.378,-5.64772],[-79.38414,-5.65739],[-79.38451,-5.68027],[-79.39827,-5.69937],[-79.39711,-5.72278],[-79.39923,-5.72852],[-79.40155,-5.74925],[-79.39815,-5.77448],[-79.38914,-5.79355],[-79.376,-5.80053],[-79.37831,-5.81468],[-79.37626,-5.82405],[-79.36304,-5.8425],[-79.35854,-5.84358],[-79.35577,-5.85193],[-79.35028,-5.85595],[-79.3549,-5.86095],[-79.35364,-5.87112],[-79.33916,-5.88198],[-79.33972,-5.88973],[-79.33544,-5.89397],[-79.35137,-5.89818],[-79.36186,-5.89774],[-79.37462,-5.90768],[-79.39295,-5.91639],[-79.39578,-5.92082],[-79.40875,-5.9254],[-79.4246,-5.92702],[-79.43932,-5.92359],[-79.45184,-5.91305],[-79.45039,-5.90501],[-79.45735,-5.89549],[-79.47072,-5.89682],[-79.48392,-5.88811],[-79.49959,-5.89553],[-79.50885,-5.89583],[-79.52886,-5.91382],[-79.53153,-5.9207],[-79.54299,-5.9251],[-79.55168,-5.93293],[-79.55242,-5.93746],[-79.56382,-5.93387],[-79.57154,-5.93779],[-79.58119,-5.93525],[-79.58696,-5.93842],[-79.59375,-5.93381],[-79.60132,-5.93954],[-79.61125,-5.94125],[-79.61663,-5.93525],[-79.61743,-5.92659],[-79.63153,-5.90702],[-79.63504,-5.89839],[-79.6451,-5.88932],[-79.64513,-5.87936],[-79.66006,-5.86053],[-79.6594,-5.84735],[-79.6627,-5.83475],[-79.66988,-5.83546],[-79.68271,-5.84645],[-79.69809,-5.84639],[-79.71261,-5.83801],[-79.72309,-5.83877],[-79.73294,-5.83477],[-79.74193,-5.81897],[-79.73815,-5.80883],[-79.73932,-5.79959],[-79.73321,-5.79452],[-79.73455,-5.7874],[-79.72743,-5.78194],[-79.71775,-5.75039],[-79.71728,-5.73935],[-79.73648,-5.72144],[-79.74395,-5.71894],[-79.74927,-5.70967],[-79.75837,-5.71204],[-79.76642,-5.70825],[-79.75437,-5.6885],[-79.7678,-5.68531],[-79.76149,-5.66904],[-79.77015,-5.65921],[-79.77757,-5.65885],[-79.78693,-5.64659],[-79.80501,-5.64641],[-79.81757,-5.6579],[-79.82446,-5.65468],[-79.8276,-5.64494],[-79.83294,-5.64549],[-79.83944,-5.63003],[-79.83203,-5.61181],[-79.83273,-5.6061],[-79.81035,-5.5747],[-79.80222,-5.56813],[-79.8004,-5.56215],[-79.77705,-5.56192],[-79.77323,-5.55393],[-79.75705,-5.53894],[-79.75707,-5.53076],[-79.74918,-5.51962],[-79.74188,-5.51577],[-79.73738,-5.509],[-79.73489,-5.49315],[-79.73004,-5.48278],[-79.7294,-5.47337],[-79.71733,-5.48554],[-79.71352,-5.49688],[-79.70658,-5.50178],[-79.68434,-5.5247],[-79.68161,-5.53098],[-79.66956,-5.52863],[-79.66113,-5.53168],[-79.65885,-5.52493],[-79.6509,-5.52271],[-79.64879,-5.50623],[-79.65173,-5.50052],[-79.64751,-5.48952],[-79.64253,-5.48519]]]}},{"type":"Feature","properties":{"ubigeo":"200305","nombre":"Lalaquiz"},"geometry":{"type":"Polygon","coordinates":[[[-79.61873,-5.09922],[-79.6173,-5.10957],[-79.61134,-5.12311],[-79.59784,-5.13634],[-79.59953,-5.14673],[-79.60801,-5.17496],[-79.62062,-5.18178],[-79.6247,-5.19524],[-79.63076,-5.19785],[-79.63949,-5.21106],[-79.64385,-5.21349],[-79.64447,-5.22366],[-79.65507,-5.23539],[-79.65944,-5.24386],[-79.66314,-5.24326],[-79.67438,-5.25486],[-79.68212,-5.25805],[-79.6945,-5.25805],[-79.70053,-5.23904],[-79.71119,-5.22134],[-79.72004,-5.21525],[-79.7101,-5.21001],[-79.70311,-5.20981],[-79.69999,-5.20337],[-79.70737,-5.18992],[-79.72033,-5.18209],[-79.71258,-5.15427],[-79.71492,-5.12663],[-79.70519,-5.11439],[-79.69579,-5.10889],[-79.68804,-5.09788],[-79.67601,-5.10724],[-79.67082,-5.12382],[-79.66258,-5.12832],[-79.6625,-5.14337],[-79.66637,-5.1488],[-79.66091,-5.15118],[-79.65231,-5.14049],[-79.64751,-5.13912],[-79.64726,-5.13237],[-79.65493,-5.12143],[-79.64352,-5.11573],[-79.64221,-5.10722],[-79.61873,-5.09922]]]}},{"type":"Feature","properties":{"ubigeo":"200306","nombre":"San Miguel de El Faique"},"geometry":{"type":"Polygon","coordinates":[[[-79.64253,-5.48519],[-79.64386,-5.47574],[-79.65473,-5.4701],[-79.66899,-5.47161],[-79.67776,-5.46449],[-79.69103,-5.45903],[-79.72257,-5.45299],[-79.73283,-5.44436],[-79.74999,-5.44644],[-79.76038,-5.4401],[-79.76859,-5.42503],[-79.76021,-5.42575],[-79.75185,-5.42166],[-79.73526,-5.41987],[-79.72747,-5.42269],[-79.71485,-5.4181],[-79.70311,-5.42063],[-79.69111,-5.41728],[-79.68667,-5.41171],[-79.67284,-5.41256],[-79.66679,-5.41023],[-79.65407,-5.4115],[-79.6478,-5.41474],[-79.63254,-5.40388],[-79.62566,-5.40226],[-79.62296,-5.39488],[-79.61232,-5.39528],[-79.60939,-5.39191],[-79.59797,-5.3911],[-79.59502,-5.38778],[-79.58376,-5.38763],[-79.56527,-5.37248],[-79.54802,-5.36928],[-79.54752,-5.36482],[-79.5387,-5.35485],[-79.53821,-5.33801],[-79.53403,-5.3491],[-79.52422,-5.36092],[-79.498,-5.37257],[-79.49172,-5.37277],[-79.4812,-5.39925],[-79.46818,-5.41262],[-79.48702,-5.41508],[-79.51445,-5.41229],[-79.52139,-5.42487],[-79.52752,-5.43031],[-79.53194,-5.43964],[-79.54513,-5.44693],[-79.55021,-5.44726],[-79.55421,-5.45392],[-79.56554,-5.45735],[-79.57255,-5.46464],[-79.58111,-5.46818],[-79.59866,-5.48026],[-79.61412,-5.48407],[-79.62979,-5.48324],[-79.63277,-5.48727],[-79.64253,-5.48519]]]}},{"type":"Feature","properties":{"ubigeo":"200307","nombre":"Sondor"},"geometry":{"type":"Polygon","coordinates":[[[-79.27596,-5.51974],[-79.28195,-5.52523],[-79.29306,-5.52545],[-79.31066,-5.52006],[-79.32049,-5.53124],[-79.32896,-5.5351],[-79.33746,-5.53005],[-79.35222,-5.52749],[-79.36784,-5.52871],[-79.37287,-5.52505],[-79.38698,-5.52237],[-79.39862,-5.53348],[-79.40425,-5.53209],[-79.40368,-5.52422],[-79.39965,-5.51108],[-79.40302,-5.5043],[-79.39935,-5.49302],[-79.40788,-5.4852],[-79.40728,-5.46895],[-79.41235,-5.45612],[-79.40895,-5.45109],[-79.41524,-5.44664],[-79.41976,-5.43697],[-79.41871,-5.42191],[-79.41481,-5.41459],[-79.41804,-5.4084],[-79.41777,-5.39671],[-79.40651,-5.38792],[-79.41136,-5.38172],[-79.40914,-5.35952],[-79.41323,-5.35666],[-79.41762,-5.33719],[-79.42439,-5.322],[-79.43192,-5.31435],[-79.43272,-5.29723],[-79.43668,-5.28937],[-79.43937,-5.28087],[-79.43294,-5.26554],[-79.40063,-5.25286],[-79.37843,-5.26099],[-79.34895,-5.25927],[-79.35293,-5.26819],[-79.35937,-5.27292],[-79.35905,-5.28863],[-79.34548,-5.29985],[-79.34365,-5.30773],[-79.33294,-5.30982],[-79.32807,-5.31591],[-79.33036,-5.32545],[-79.32539,-5.34095],[-79.32579,-5.34851],[-79.31974,-5.36227],[-79.30836,-5.36467],[-79.31008,-5.37498],[-79.3044,-5.3918],[-79.30585,-5.41038],[-79.30464,-5.42829],[-79.29451,-5.44025],[-79.2977,-5.45813],[-79.28864,-5.48002],[-79.28075,-5.48738],[-79.27847,-5.50152],[-79.27872,-5.51757],[-79.27596,-5.51974]]]}},{"type":"Feature","properties":{"ubigeo":"200308","nombre":"Sondorillo"},"geometry":{"type":"Polygon","coordinates":[[[-79.52139,-5.42487],[-79.51445,-5.41229],[-79.48702,-5.41508],[-79.46818,-5.41262],[-79.4812,-5.39925],[-79.49172,-5.37277],[-79.498,-5.37257],[-79.52422,-5.36092],[-79.53403,-5.3491],[-79.53821,-5.33801],[-79.54149,-5.3331],[-79.5429,-5.32088],[-79.54886,-5.30899],[-79.53483,-5.29842],[-79.51305,-5.30176],[-79.51092,-5.30817],[-79.5,-5.31196],[-79.48383,-5.31054],[-79.47069,-5.30357],[-79.44997,-5.30121],[-79.43668,-5.28937],[-79.43272,-5.29723],[-79.43192,-5.31435],[-79.42439,-5.322],[-79.41762,-5.33719],[-79.41323,-5.35666],[-79.40914,-5.35952],[-79.41136,-5.38172],[-79.40651,-5.38792],[-79.41777,-5.39671],[-79.41804,-5.4084],[-79.41481,-5.41459],[-79.41871,-5.42191],[-79.41976,-5.43697],[-79.41524,-5.44664],[-79.40895,-5.45109],[-79.41235,-5.45612],[-79.40728,-5.46895],[-79.40788,-5.4852],[-79.39935,-5.49302],[-79.40302,-5.5043],[-79.39965,-5.51108],[-79.40368,-5.52422],[-79.40927,-5.52265],[-79.42323,-5.52512],[-79.42851,-5.52863],[-79.44385,-5.53047],[-79.44298,-5.51685],[-79.45519,-5.50556],[-79.45515,-5.49445],[-79.46342,-5.48846],[-79.47092,-5.48899],[-79.4746,-5.48228],[-79.47206,-5.472],[-79.47627,-5.46108],[-79.48063,-5.46055],[-79.48874,-5.44713],[-79.49686,-5.43791],[-79.51042,-5.43998],[-79.52139,-5.42487]]]}},{"type":"Feature","properties":{"ubigeo":"200401","nombre":"Chulucanas"},"geometry":{"type":"Polygon","coordinates":[[[-80.00221,-5.05923],[-80.00618,-5.06808],[-80.01156,-5.07091],[-80.01683,-5.08234],[-80.02316,-5.08897],[-80.03565,-5.09353],[-80.03873,-5.10179],[-80.04725,-5.10352],[-80.06071,-5.11506],[-80.05765,-5.12979],[-80.06928,-5.14589],[-80.07855,-5.14857],[-80.09252,-5.16224],[-80.10194,-5.1593],[-80.12099,-5.16731],[-80.12835,-5.16551],[-80.13251,-5.16019],[-80.14428,-5.1705],[-80.15343,-5.17082],[-80.16112,-5.1806],[-80.16927,-5.18485],[-80.17897,-5.19489],[-80.18272,-5.20634],[-80.18624,-5.2076],[-80.18879,-5.22167],[-80.1948,-5.23915],[-80.22732,-5.27285],[-80.25968,-5.32998],[-80.33029,-5.28406],[-80.35141,-5.25983],[-80.34774,-5.24661],[-80.34666,-5.2332],[-80.36426,-5.2325],[-80.35612,-5.18757],[-80.35233,-5.17402],[-80.34971,-5.14808],[-80.35372,-5.14015],[-80.33807,-5.13717],[-80.33554,-5.12172],[-80.3246,-5.11137],[-80.32031,-5.10328],[-80.31032,-5.09305],[-80.30199,-5.09317],[-80.29307,-5.08591],[-80.28706,-5.06848],[-80.27867,-5.07056],[-80.25417,-5.06914],[-80.23906,-5.06485],[-80.22852,-5.05587],[-80.22228,-5.05354],[-80.22467,-5.04234],[-80.222,-5.02993],[-80.23386,-5.02287],[-80.23264,-5.0108],[-80.24292,-5.00382],[-80.25524,-5.00759],[-80.25897,-5.00377],[-80.22829,-4.98967],[-80.22541,-4.99313],[-80.21121,-4.99444],[-80.20937,-5.00133],[-80.20409,-5.00346],[-80.18632,-4.98643],[-80.18214,-4.99048],[-80.17611,-4.98809],[-80.17417,-4.97999],[-80.16291,-4.96524],[-80.15767,-4.95506],[-80.13329,-4.94488],[-80.11619,-4.93271],[-80.11054,-4.91236],[-80.10214,-4.92844],[-80.09003,-4.93186],[-80.07925,-4.94014],[-80.07839,-4.94412],[-80.09008,-4.9682],[-80.08665,-4.99482],[-80.08256,-5.00447],[-80.07172,-5.00641],[-80.06412,-5.01229],[-80.0566,-5.01147],[-80.04293,-5.0188],[-80.0388,-5.02636],[-80.02199,-5.0183],[-80.0101,-5.02142],[-80.00225,-5.01597],[-79.99607,-5.01769],[-79.99197,-5.02468],[-79.97798,-5.0265],[-79.9836,-5.03998],[-79.98962,-5.04651],[-79.9928,-5.05619],[-80.00221,-5.05923]]]}},{"type":"Feature","properties":{"ubigeo":"200402","nombre":"Buenos Aires"},"geometry":{"type":"Polygon","coordinates":[[[-79.808,-5.22962],[-79.82092,-5.24472],[-79.82577,-5.26268],[-79.83562,-5.26585],[-79.85525,-5.26776],[-79.86619,-5.26448],[-79.88038,-5.27946],[-79.89728,-5.28565],[-79.90239,-5.29388],[-79.91114,-5.29627],[-79.90863,-5.30209],[-79.90935,-5.31462],[-79.89847,-5.33354],[-79.89923,-5.34002],[-79.90568,-5.33982],[-79.92301,-5.35596],[-79.92248,-5.36012],[-79.93683,-5.37117],[-79.93867,-5.37917],[-79.94983,-5.37565],[-79.95849,-5.36298],[-79.96006,-5.35007],[-79.97245,-5.34538],[-79.97276,-5.33679],[-79.98133,-5.32956],[-79.98929,-5.31608],[-79.98821,-5.30916],[-79.99414,-5.29922],[-79.99865,-5.29759],[-80.01091,-5.27725],[-80.01045,-5.26423],[-80.00475,-5.25162],[-79.99836,-5.24471],[-79.99923,-5.23645],[-80.00609,-5.22675],[-80.01702,-5.225],[-80.02103,-5.21518],[-80.01712,-5.20724],[-80.01737,-5.21582],[-80.00507,-5.21636],[-80.00221,-5.21917],[-79.98913,-5.21843],[-79.97986,-5.21441],[-79.9636,-5.21477],[-79.95371,-5.21006],[-79.94293,-5.19834],[-79.9302,-5.19575],[-79.90922,-5.18672],[-79.9044,-5.18281],[-79.89095,-5.18902],[-79.88895,-5.19679],[-79.87565,-5.20008],[-79.84331,-5.20568],[-79.828,-5.21187],[-79.808,-5.22962]]]}},{"type":"Feature","properties":{"ubigeo":"200403","nombre":"Chalaco"},"geometry":{"type":"Polygon","coordinates":[[[-79.85246,-5.13597],[-79.84932,-5.13008],[-79.83516,-5.12732],[-79.81988,-5.11478],[-79.82547,-5.10151],[-79.83351,-5.09036],[-79.8321,-5.07383],[-79.82893,-5.06787],[-79.83621,-5.06681],[-79.84346,-5.07304],[-79.85854,-5.07094],[-79.87953,-5.07353],[-79.88315,-5.07118],[-79.8707,-5.05478],[-79.83927,-5.04078],[-79.83253,-5.03336],[-79.82784,-5.023],[-79.81973,-5.02146],[-79.81439,-5.00896],[-79.80262,-5.00428],[-79.79431,-4.9926],[-79.78848,-4.99082],[-79.77522,-5.00096],[-79.76328,-5.01844],[-79.75463,-5.02484],[-79.74405,-5.0248],[-79.73237,-5.01807],[-79.72943,-5.02178],[-79.73121,-5.04509],[-79.72528,-5.0568],[-79.71348,-5.06023],[-79.70597,-5.06656],[-79.71569,-5.07815],[-79.72658,-5.0832],[-79.73886,-5.08137],[-79.74717,-5.08371],[-79.76365,-5.09531],[-79.76719,-5.10293],[-79.77745,-5.10682],[-79.78828,-5.12294],[-79.79488,-5.12534],[-79.79681,-5.13646],[-79.80693,-5.14416],[-79.81805,-5.14279],[-79.8315,-5.14514],[-79.84378,-5.15596],[-79.84672,-5.13941],[-79.85246,-5.13597]]]}},{"type":"Feature","properties":{"ubigeo":"200404","nombre":"La Matanza"},"geometry":{"type":"Polygon","coordinates":[[[-80.25968,-5.32998],[-80.22732,-5.27285],[-80.1948,-5.23915],[-80.18879,-5.22167],[-80.18624,-5.2076],[-80.18272,-5.20634],[-80.17897,-5.19489],[-80.16927,-5.18485],[-80.16112,-5.1806],[-80.15343,-5.17082],[-80.14428,-5.1705],[-80.13251,-5.16019],[-80.12835,-5.16551],[-80.12099,-5.16731],[-80.10194,-5.1593],[-80.09252,-5.16224],[-80.08699,-5.17304],[-80.07695,-5.17423],[-80.07659,-5.18124],[-80.07184,-5.18123],[-80.06171,-5.1744],[-80.05109,-5.17986],[-80.03539,-5.17827],[-80.025,-5.18874],[-80.01807,-5.19928],[-80.01712,-5.20724],[-80.02103,-5.21518],[-80.01702,-5.225],[-80.00609,-5.22675],[-79.99923,-5.23645],[-79.99836,-5.24471],[-80.00475,-5.25162],[-80.01045,-5.26423],[-80.01091,-5.27725],[-79.99865,-5.29759],[-79.99414,-5.29922],[-79.98821,-5.30916],[-79.98929,-5.31608],[-79.98133,-5.32956],[-79.97276,-5.33679],[-79.97245,-5.34538],[-79.96006,-5.35007],[-79.95849,-5.36298],[-79.94983,-5.37565],[-79.93867,-5.37917],[-79.94369,-5.41938],[-79.94146,-5.4258],[-79.94744,-5.4304],[-79.94349,-5.44458],[-79.94251,-5.45858],[-79.94651,-5.47389],[-79.95564,-5.48206],[-79.95646,-5.50636],[-79.94587,-5.515],[-79.94981,-5.51513],[-79.98335,-5.52875],[-80.01881,-5.53506],[-80.02671,-5.54122],[-80.05065,-5.54061],[-80.05312,-5.55503],[-80.06822,-5.5573],[-80.07274,-5.55546],[-80.08287,-5.56041],[-80.08755,-5.54617],[-80.10295,-5.53235],[-80.10668,-5.51892],[-80.12683,-5.51081],[-80.16297,-5.45991],[-80.18475,-5.43148],[-80.23356,-5.36474],[-80.25968,-5.32998]]]}},{"type":"Feature","properties":{"ubigeo":"200405","nombre":"Morropon"},"geometry":{"type":"Polygon","coordinates":[[[-79.9302,-5.19575],[-79.94293,-5.19834],[-79.95371,-5.21006],[-79.9636,-5.21477],[-79.97986,-5.21441],[-79.98913,-5.21843],[-80.00221,-5.21917],[-80.00507,-5.21636],[-80.01737,-5.21582],[-80.01712,-5.20724],[-80.01807,-5.19928],[-80.025,-5.18874],[-80.03539,-5.17827],[-80.05109,-5.17986],[-80.06171,-5.1744],[-80.07184,-5.18123],[-80.07659,-5.18124],[-80.07695,-5.17423],[-80.08699,-5.17304],[-80.09252,-5.16224],[-80.07855,-5.14857],[-80.06928,-5.14589],[-80.05765,-5.12979],[-80.06071,-5.11506],[-80.04725,-5.10352],[-80.03873,-5.10179],[-80.03565,-5.09353],[-80.02316,-5.08897],[-80.01683,-5.08234],[-80.01156,-5.07091],[-80.00618,-5.06808],[-80.00221,-5.05923],[-79.99631,-5.06947],[-80.0015,-5.08172],[-79.99876,-5.09213],[-80.00306,-5.10161],[-79.99608,-5.10476],[-79.9809,-5.09874],[-79.97496,-5.10509],[-79.97295,-5.1144],[-79.96849,-5.11878],[-79.94676,-5.12316],[-79.93751,-5.11854],[-79.93305,-5.12081],[-79.93029,-5.12997],[-79.92202,-5.14287],[-79.92609,-5.1481],[-79.92859,-5.15552],[-79.92583,-5.15998],[-79.91481,-5.16588],[-79.92429,-5.17312],[-79.92841,-5.18303],[-79.9302,-5.19575]]]}},{"type":"Feature","properties":{"ubigeo":"200406","nombre":"Salitral"},"geometry":{"type":"Polygon","coordinates":[[[-79.76859,-5.42503],[-79.76038,-5.4401],[-79.74999,-5.44644],[-79.73283,-5.44436],[-79.72257,-5.45299],[-79.69103,-5.45903],[-79.67776,-5.46449],[-79.66899,-5.47161],[-79.65473,-5.4701],[-79.64386,-5.47574],[-79.64253,-5.48519],[-79.64751,-5.48952],[-79.65173,-5.50052],[-79.64879,-5.50623],[-79.6509,-5.52271],[-79.65885,-5.52493],[-79.66113,-5.53168],[-79.66956,-5.52863],[-79.68161,-5.53098],[-79.68434,-5.5247],[-79.70658,-5.50178],[-79.71352,-5.49688],[-79.71733,-5.48554],[-79.7294,-5.47337],[-79.73004,-5.48278],[-79.73489,-5.49315],[-79.73738,-5.509],[-79.74188,-5.51577],[-79.74918,-5.51962],[-79.75707,-5.53076],[-79.75705,-5.53894],[-79.77323,-5.55393],[-79.77705,-5.56192],[-79.8004,-5.56215],[-79.80222,-5.56813],[-79.81035,-5.5747],[-79.83273,-5.6061],[-79.83203,-5.61181],[-79.83944,-5.63003],[-79.85381,-5.59911],[-79.86014,-5.57529],[-79.85844,-5.57135],[-79.86442,-5.56342],[-79.8641,-5.54868],[-79.85399,-5.53182],[-79.86231,-5.52129],[-79.86737,-5.52063],[-79.87751,-5.50964],[-79.87903,-5.49927],[-79.89536,-5.48213],[-79.90184,-5.48131],[-79.90305,-5.49145],[-79.92136,-5.50217],[-79.93246,-5.50537],[-79.93874,-5.51666],[-79.94587,-5.515],[-79.95646,-5.50636],[-79.95564,-5.48206],[-79.94651,-5.47389],[-79.94251,-5.45858],[-79.94349,-5.44458],[-79.94744,-5.4304],[-79.94146,-5.4258],[-79.94369,-5.41938],[-79.93867,-5.37917],[-79.93683,-5.37117],[-79.92248,-5.36012],[-79.92301,-5.35596],[-79.90568,-5.33982],[-79.89923,-5.34002],[-79.89847,-5.33354],[-79.90935,-5.31462],[-79.90863,-5.30209],[-79.91114,-5.29627],[-79.90239,-5.29388],[-79.89728,-5.28565],[-79.88038,-5.27946],[-79.86619,-5.26448],[-79.85525,-5.26776],[-79.83562,-5.26585],[-79.82577,-5.26268],[-79.82977,-5.2867],[-79.81927,-5.29164],[-79.81562,-5.30373],[-79.81858,-5.30989],[-79.81625,-5.32037],[-79.8027,-5.3358],[-79.79415,-5.34066],[-79.78309,-5.34084],[-79.77589,-5.34526],[-79.76519,-5.34497],[-79.75994,-5.36029],[-79.74857,-5.36186],[-79.74613,-5.36727],[-79.73382,-5.37335],[-79.73199,-5.37704],[-79.74036,-5.38093],[-79.74605,-5.39126],[-79.76482,-5.40378],[-79.76859,-5.42503]]]}},{"type":"Feature","properties":{"ubigeo":"200407","nombre":"San Juan de Bigote"},"geometry":{"type":"Polygon","coordinates":[[[-79.6945,-5.25805],[-79.6872,-5.26571],[-79.68666,-5.27219],[-79.6733,-5.28757],[-79.6686,-5.29665],[-79.67128,-5.30272],[-79.66984,-5.31743],[-79.6552,-5.3333],[-79.6478,-5.33546],[-79.65152,-5.34287],[-79.65988,-5.34874],[-79.66282,-5.36895],[-79.67633,-5.38104],[-79.69804,-5.38566],[-79.7042,-5.38426],[-79.71085,-5.37708],[-79.73199,-5.37704],[-79.73382,-5.37335],[-79.74613,-5.36727],[-79.74857,-5.36186],[-79.75994,-5.36029],[-79.76519,-5.34497],[-79.77589,-5.34526],[-79.78309,-5.34084],[-79.79415,-5.34066],[-79.8027,-5.3358],[-79.81625,-5.32037],[-79.81858,-5.30989],[-79.81562,-5.30373],[-79.81927,-5.29164],[-79.82977,-5.2867],[-79.82577,-5.26268],[-79.82092,-5.24472],[-79.808,-5.22962],[-79.79731,-5.22567],[-79.79189,-5.22014],[-79.77458,-5.21708],[-79.76959,-5.21873],[-79.76208,-5.21328],[-79.75521,-5.21431],[-79.74865,-5.2085],[-79.74191,-5.20999],[-79.73541,-5.20479],[-79.72004,-5.21525],[-79.71119,-5.22134],[-79.70053,-5.23904],[-79.6945,-5.25805]]]}},{"type":"Feature","properties":{"ubigeo":"200408","nombre":"Santa Catalina de Mossa"},"geometry":{"type":"Polygon","coordinates":[[[-79.89095,-5.18902],[-79.9044,-5.18281],[-79.90922,-5.18672],[-79.9302,-5.19575],[-79.92841,-5.18303],[-79.92429,-5.17312],[-79.91481,-5.16588],[-79.92583,-5.15998],[-79.92859,-5.15552],[-79.92609,-5.1481],[-79.91296,-5.14595],[-79.90648,-5.12671],[-79.8938,-5.11548],[-79.88915,-5.09823],[-79.88841,-5.08194],[-79.88315,-5.07118],[-79.87953,-5.07353],[-79.85854,-5.07094],[-79.84346,-5.07304],[-79.83621,-5.06681],[-79.82893,-5.06787],[-79.8321,-5.07383],[-79.83351,-5.09036],[-79.82547,-5.10151],[-79.81988,-5.11478],[-79.83516,-5.12732],[-79.84932,-5.13008],[-79.85246,-5.13597],[-79.85842,-5.13968],[-79.87195,-5.15525],[-79.8725,-5.15945],[-79.88354,-5.17104],[-79.88384,-5.1799],[-79.89095,-5.18902]]]}},{"type":"Feature","properties":{"ubigeo":"200409","nombre":"Santo Domingo"},"geometry":{"type":"Polygon","coordinates":[[[-79.88315,-5.07118],[-79.88841,-5.08194],[-79.88915,-5.09823],[-79.8938,-5.11548],[-79.90648,-5.12671],[-79.91296,-5.14595],[-79.92609,-5.1481],[-79.92202,-5.14287],[-79.93029,-5.12997],[-79.93305,-5.12081],[-79.93751,-5.11854],[-79.94676,-5.12316],[-79.96849,-5.11878],[-79.97295,-5.1144],[-79.97496,-5.10509],[-79.9809,-5.09874],[-79.99608,-5.10476],[-80.00306,-5.10161],[-79.99876,-5.09213],[-80.0015,-5.08172],[-79.99631,-5.06947],[-80.00221,-5.05923],[-79.9928,-5.05619],[-79.98962,-5.04651],[-79.9836,-5.03998],[-79.97798,-5.0265],[-79.96919,-5.02734],[-79.95932,-5.0367],[-79.94047,-5.0314],[-79.92528,-5.01938],[-79.90917,-5.0194],[-79.90225,-5.01149],[-79.9001,-4.99476],[-79.89271,-4.98813],[-79.87857,-4.98484],[-79.86243,-4.97204],[-79.86425,-4.96509],[-79.85861,-4.95513],[-79.85335,-4.9535],[-79.84856,-4.9646],[-79.84956,-4.97238],[-79.83876,-4.97532],[-79.83908,-4.98137],[-79.83134,-4.99391],[-79.82008,-4.9919],[-79.80637,-4.99789],[-79.79431,-4.9926],[-79.80262,-5.00428],[-79.81439,-5.00896],[-79.81973,-5.02146],[-79.82784,-5.023],[-79.83253,-5.03336],[-79.83927,-5.04078],[-79.8707,-5.05478],[-79.88315,-5.07118]]]}},{"type":"Feature","properties":{"ubigeo":"200410","nombre":"Yamango"},"geometry":{"type":"Polygon","coordinates":[[[-79.72004,-5.21525],[-79.73541,-5.20479],[-79.74191,-5.20999],[-79.74865,-5.2085],[-79.75521,-5.21431],[-79.76208,-5.21328],[-79.76959,-5.21873],[-79.77458,-5.21708],[-79.79189,-5.22014],[-79.79731,-5.22567],[-79.808,-5.22962],[-79.828,-5.21187],[-79.84331,-5.20568],[-79.87565,-5.20008],[-79.88895,-5.19679],[-79.89095,-5.18902],[-79.88384,-5.1799],[-79.88354,-5.17104],[-79.8725,-5.15945],[-79.87195,-5.15525],[-79.85842,-5.13968],[-79.85246,-5.13597],[-79.84672,-5.13941],[-79.84378,-5.15596],[-79.8315,-5.14514],[-79.81805,-5.14279],[-79.80693,-5.14416],[-79.79681,-5.13646],[-79.79488,-5.12534],[-79.78828,-5.12294],[-79.77745,-5.10682],[-79.76719,-5.10293],[-79.76365,-5.09531],[-79.74717,-5.08371],[-79.73886,-5.08137],[-79.72658,-5.0832],[-79.71569,-5.07815],[-79.70597,-5.06656],[-79.67826,-5.09355],[-79.66442,-5.09791],[-79.64886,-5.09165],[-79.65141,-5.09987],[-79.64221,-5.10722],[-79.64352,-5.11573],[-79.65493,-5.12143],[-79.64726,-5.13237],[-79.64751,-5.13912],[-79.65231,-5.14049],[-79.66091,-5.15118],[-79.66637,-5.1488],[-79.6625,-5.14337],[-79.66258,-5.12832],[-79.67082,-5.12382],[-79.67601,-5.10724],[-79.68804,-5.09788],[-79.69579,-5.10889],[-79.70519,-5.11439],[-79.71492,-5.12663],[-79.71258,-5.15427],[-79.72033,-5.18209],[-79.70737,-5.18992],[-79.69999,-5.20337],[-79.70311,-5.20981],[-79.7101,-5.21001],[-79.72004,-5.21525]]]}},{"type":"Feature","properties":{"ubigeo":"200501","nombre":"Paita"},"geometry":{"type":"Polygon","coordinates":[[[-80.96108,-5.35045],[-80.9722,-5.3526],[-80.98715,-5.37371],[-80.99395,-5.38846],[-81.01059,-5.37019],[-81.02849,-5.35261],[-81.05298,-5.33099],[-81.07817,-5.31321],[-81.09184,-5.30837],[-81.10115,-5.31433],[-81.10815,-5.31475],[-81.1185,-5.29187],[-81.12621,-5.28645],[-81.12623,-5.28207],[-81.13812,-5.26362],[-81.14996,-5.25814],[-81.15037,-5.25494],[-81.16726,-5.23795],[-81.18427,-5.22273],[-81.18843,-5.22161],[-81.19455,-5.21212],[-81.189,-5.19404],[-81.18497,-5.19383],[-81.17357,-5.18413],[-81.16736,-5.16712],[-81.1676,-5.15641],[-81.17619,-5.14189],[-81.17902,-5.13217],[-81.1698,-5.13184],[-81.16047,-5.12341],[-81.16028,-5.11127],[-81.16736,-5.0918],[-81.17136,-5.08832],[-81.15998,-5.07275],[-81.14929,-5.07932],[-81.13316,-5.07028],[-81.12332,-5.07255],[-81.11711,-5.08206],[-81.10931,-5.08486],[-81.10206,-5.08098],[-81.09067,-5.08174],[-81.08142,-5.07179],[-81.07538,-5.06972],[-81.06598,-5.05225],[-81.05938,-5.05651],[-81.05594,-5.04667],[-81.04158,-4.97721],[-81.03577,-4.96908],[-81.02629,-4.93357],[-81.01689,-4.9245],[-80.98394,-4.96458],[-80.97213,-4.97776],[-80.96616,-5.10323],[-80.96257,-5.15905],[-80.96238,-5.17523],[-80.96504,-5.18961],[-80.96955,-5.19043],[-80.97773,-5.20024],[-80.98539,-5.19618],[-80.99879,-5.2184],[-81.00752,-5.2294],[-81.00656,-5.23272],[-81.01652,-5.23428],[-81.02251,-5.24209],[-81.01714,-5.26654],[-80.99532,-5.27669],[-80.96169,-5.31018],[-80.96108,-5.35045]]]}},{"type":"Feature","properties":{"ubigeo":"200502","nombre":"Amotape"},"geometry":{"type":"Polygon","coordinates":[[[-81.01186,-4.90401],[-81.02355,-4.89666],[-81.02442,-4.88481],[-81.02437,-4.86779],[-81.02892,-4.85694],[-81.02172,-4.84536],[-81.01612,-4.84532],[-81.02216,-4.83633],[-81.02763,-4.81757],[-81.03233,-4.81392],[-81.0431,-4.78543],[-80.97687,-4.7732],[-80.97707,-4.78284],[-80.98116,-4.78302],[-80.98097,-4.79649],[-80.98936,-4.81079],[-80.98655,-4.81593],[-80.99127,-4.82561],[-80.97487,-4.84379],[-80.98727,-4.84434],[-80.99689,-4.85045],[-80.98883,-4.85961],[-80.98656,-4.87053],[-80.99163,-4.8802],[-80.98721,-4.8867],[-80.98918,-4.89355],[-80.98375,-4.89646],[-80.99307,-4.90877],[-81.01186,-4.90401]]]}},{"type":"Feature","properties":{"ubigeo":"200503","nombre":"Arenal"},"geometry":{"type":"Polygon","coordinates":[[[-81.01186,-4.90401],[-81.01887,-4.91788],[-81.03046,-4.91656],[-81.02985,-4.90712],[-81.04523,-4.90501],[-81.04346,-4.885],[-81.02751,-4.88177],[-81.02442,-4.88481],[-81.02355,-4.89666],[-81.01186,-4.90401]]]}},{"type":"Feature","properties":{"ubigeo":"200504","nombre":"Colan"},"geometry":{"type":"Polygon","coordinates":[[[-81.02442,-4.88481],[-81.02751,-4.88177],[-81.04346,-4.885],[-81.04523,-4.90501],[-81.02985,-4.90712],[-81.03046,-4.91656],[-81.01887,-4.91788],[-81.01689,-4.9245],[-81.02629,-4.93357],[-81.03577,-4.96908],[-81.04158,-4.97721],[-81.05594,-5.04667],[-81.05938,-5.05651],[-81.06598,-5.05225],[-81.06254,-5.05027],[-81.06022,-5.03928],[-81.06241,-5.02062],[-81.06674,-5.00535],[-81.08642,-4.96733],[-81.09774,-4.95347],[-81.14217,-4.90763],[-81.15049,-4.89168],[-81.14182,-4.9055],[-81.12941,-4.89342],[-81.12101,-4.89362],[-81.11716,-4.88287],[-81.11283,-4.87948],[-81.09048,-4.88232],[-81.08062,-4.86234],[-81.07621,-4.87468],[-81.06976,-4.87941],[-81.04899,-4.87878],[-81.05111,-4.86883],[-81.04235,-4.86385],[-81.04004,-4.85353],[-81.03431,-4.85044],[-81.02892,-4.85694],[-81.02437,-4.86779],[-81.02442,-4.88481]]]}},{"type":"Feature","properties":{"ubigeo":"200505","nombre":"La Huaca"},"geometry":{"type":"Polygon","coordinates":[[[-80.8382,-4.90165],[-80.82836,-4.90419],[-80.82436,-4.91876],[-80.82534,-4.93325],[-80.829,-4.94058],[-80.83963,-4.94381],[-80.85082,-4.95061],[-80.84816,-5.09313],[-80.85955,-5.28064],[-80.87509,-5.27851],[-80.89787,-5.26257],[-80.90623,-5.26199],[-80.92263,-5.25029],[-80.93024,-5.24181],[-80.93923,-5.23754],[-80.96057,-5.23759],[-80.97061,-5.24134],[-80.9875,-5.23699],[-80.99892,-5.23106],[-81.00656,-5.23272],[-81.00752,-5.2294],[-80.99879,-5.2184],[-80.98539,-5.19618],[-80.97773,-5.20024],[-80.96955,-5.19043],[-80.96504,-5.18961],[-80.96238,-5.17523],[-80.96257,-5.15905],[-80.96616,-5.10323],[-80.97213,-4.97776],[-80.98394,-4.96458],[-81.01689,-4.9245],[-81.01887,-4.91788],[-81.01186,-4.90401],[-80.99307,-4.90877],[-80.98375,-4.89646],[-80.98918,-4.89355],[-80.98721,-4.8867],[-80.9768,-4.88641],[-80.96527,-4.90189],[-80.96065,-4.89726],[-80.96311,-4.89136],[-80.95975,-4.88116],[-80.95244,-4.88314],[-80.94137,-4.89242],[-80.93853,-4.90293],[-80.93198,-4.90252],[-80.9243,-4.89339],[-80.90908,-4.89448],[-80.88161,-4.89212],[-80.87217,-4.89357],[-80.8666,-4.89867],[-80.85766,-4.89592],[-80.85691,-4.90594],[-80.85247,-4.90943],[-80.8382,-4.90165]]]}},{"type":"Feature","properties":{"ubigeo":"200506","nombre":"Tamarindo"},"geometry":{"type":"Polygon","coordinates":[[[-80.98721,-4.8867],[-80.99163,-4.8802],[-80.98656,-4.87053],[-80.98883,-4.85961],[-80.99689,-4.85045],[-80.98727,-4.84434],[-80.97487,-4.84379],[-80.99127,-4.82561],[-80.98655,-4.81593],[-80.98936,-4.81079],[-80.98097,-4.79649],[-80.98116,-4.78302],[-80.97707,-4.78284],[-80.97687,-4.7732],[-80.96826,-4.77179],[-80.93193,-4.80492],[-80.93104,-4.81595],[-80.93411,-4.82726],[-80.94162,-4.83887],[-80.94037,-4.8463],[-80.95376,-4.86319],[-80.95032,-4.86836],[-80.93936,-4.86868],[-80.93815,-4.88184],[-80.93286,-4.88914],[-80.9243,-4.89339],[-80.93198,-4.90252],[-80.93853,-4.90293],[-80.94137,-4.89242],[-80.95244,-4.88314],[-80.95975,-4.88116],[-80.96311,-4.89136],[-80.96065,-4.89726],[-80.96527,-4.90189],[-80.9768,-4.88641],[-80.98721,-4.8867]]]}},{"type":"Feature","properties":{"ubigeo":"200507","nombre":"Vichayal"},"geometry":{"type":"Polygon","coordinates":[[[-81.15049,-4.89168],[-81.17662,-4.85536],[-81.21055,-4.8164],[-81.0431,-4.78543],[-81.03233,-4.81392],[-81.02763,-4.81757],[-81.02216,-4.83633],[-81.01612,-4.84532],[-81.02172,-4.84536],[-81.02892,-4.85694],[-81.03431,-4.85044],[-81.04004,-4.85353],[-81.04235,-4.86385],[-81.05111,-4.86883],[-81.04899,-4.87878],[-81.06976,-4.87941],[-81.07621,-4.87468],[-81.08062,-4.86234],[-81.09048,-4.88232],[-81.11283,-4.87948],[-81.11716,-4.88287],[-81.12101,-4.89362],[-81.12941,-4.89342],[-81.14182,-4.9055],[-81.15049,-4.89168]]]}},{"type":"Feature","properties":{"ubigeo":"200601","nombre":"Sullana"},"geometry":{"type":"Polygon","coordinates":[[[-80.34754,-4.79229],[-80.36185,-4.80101],[-80.37668,-4.79817],[-80.38191,-4.79959],[-80.38599,-4.8071],[-80.40496,-4.81256],[-80.40884,-4.82174],[-80.41887,-4.82896],[-80.43489,-4.82596],[-80.45052,-4.82813],[-80.45444,-4.83257],[-80.47653,-4.82583],[-80.48917,-4.8312],[-80.49881,-4.82942],[-80.50743,-4.82337],[-80.52201,-4.82606],[-80.54005,-4.83979],[-80.54554,-4.84657],[-80.54962,-4.85897],[-80.55453,-4.86305],[-80.55298,-4.87555],[-80.56289,-4.88317],[-80.57224,-4.88483],[-80.57359,-4.89972],[-80.5826,-4.90551],[-80.59569,-4.90606],[-80.60529,-4.91801],[-80.60628,-4.92949],[-80.61803,-4.94076],[-80.62704,-4.96136],[-80.62996,-4.97493],[-80.64529,-4.97858],[-80.64944,-5.00663],[-80.65688,-5.02355],[-80.70032,-5.01762],[-80.7001,-4.9985],[-80.69769,-4.96009],[-80.73713,-4.89919],[-80.73456,-4.89076],[-80.72433,-4.88561],[-80.71104,-4.89594],[-80.70203,-4.89832],[-80.6942,-4.89318],[-80.68744,-4.88627],[-80.67943,-4.88332],[-80.67682,-4.87178],[-80.68037,-4.86305],[-80.67024,-4.85894],[-80.6564,-4.86502],[-80.64415,-4.86164],[-80.63619,-4.84467],[-80.62455,-4.84075],[-80.61642,-4.8417],[-80.61992,-4.83221],[-80.61376,-4.82996],[-80.61148,-4.8058],[-80.60831,-4.79954],[-80.59983,-4.80383],[-80.58788,-4.79346],[-80.58563,-4.78491],[-80.57199,-4.7789],[-80.56222,-4.78044],[-80.55749,-4.77119],[-80.55925,-4.75843],[-80.5481,-4.74014],[-80.54653,-4.7279],[-80.5413,-4.7221],[-80.54384,-4.71564],[-80.54178,-4.70382],[-80.52986,-4.69822],[-80.52307,-4.68918],[-80.51689,-4.67583],[-80.50946,-4.67108],[-80.49671,-4.66555],[-80.48038,-4.68046],[-80.47032,-4.67895],[-80.45568,-4.68113],[-80.44252,-4.68999],[-80.43348,-4.69039],[-80.43454,-4.70318],[-80.44025,-4.71149],[-80.44013,-4.71835],[-80.42603,-4.7252],[-80.41656,-4.71963],[-80.41241,-4.70707],[-80.4067,-4.70073],[-80.40612,-4.70841],[-80.39869,-4.72571],[-80.39279,-4.72815],[-80.38525,-4.74709],[-80.36793,-4.76552],[-80.35575,-4.77108],[-80.36011,-4.7779],[-80.34754,-4.79229]],[[-80.67598,-4.8837],[-80.68302,-4.88993],[-80.68202,-4.89455],[-80.66746,-4.89717],[-80.66986,-4.88225],[-80.67598,-4.8837]]]}},{"type":"Feature","properties":{"ubigeo":"200602","nombre":"Bellavista"},"geometry":{"type":"Polygon","coordinates":[[[-80.67598,-4.8837],[-80.66986,-4.88225],[-80.66746,-4.89717],[-80.68202,-4.89455],[-80.68302,-4.88993],[-80.67598,-4.8837]]]}},{"type":"Feature","properties":{"ubigeo":"200603","nombre":"Ignacio Escudero"},"geometry":{"type":"Polygon","coordinates":[[[-80.9243,-4.89339],[-80.93286,-4.88914],[-80.93815,-4.88184],[-80.93936,-4.86868],[-80.95032,-4.86836],[-80.95376,-4.86319],[-80.94037,-4.8463],[-80.94162,-4.83887],[-80.93411,-4.82726],[-80.93104,-4.81595],[-80.93193,-4.80492],[-80.96826,-4.77179],[-80.84821,-4.74837],[-80.8337,-4.77424],[-80.83872,-4.78153],[-80.83486,-4.79418],[-80.83377,-4.80809],[-80.83737,-4.83213],[-80.8318,-4.8379],[-80.81977,-4.84285],[-80.82203,-4.8659],[-80.82767,-4.8802],[-80.83399,-4.88627],[-80.8382,-4.90165],[-80.85247,-4.90943],[-80.85691,-4.90594],[-80.85766,-4.89592],[-80.8666,-4.89867],[-80.87217,-4.89357],[-80.88161,-4.89212],[-80.90908,-4.89448],[-80.9243,-4.89339]]]}},{"type":"Feature","properties":{"ubigeo":"200604","nombre":"Lancones"},"geometry":{"type":"Polygon","coordinates":[[[-80.22143,-4.59545],[-80.22518,-4.5898],[-80.23787,-4.58986],[-80.24875,-4.58504],[-80.26344,-4.59061],[-80.27369,-4.60029],[-80.29067,-4.60366],[-80.29944,-4.60778],[-80.30978,-4.61904],[-80.3368,-4.62808],[-80.33882,-4.63778],[-80.3472,-4.64417],[-80.3486,-4.65829],[-80.37117,-4.66178],[-80.37316,-4.66514],[-80.38803,-4.66662],[-80.39305,-4.67518],[-80.39216,-4.68129],[-80.39861,-4.69127],[-80.40153,-4.70078],[-80.4067,-4.70073],[-80.41241,-4.70707],[-80.41656,-4.71963],[-80.42603,-4.7252],[-80.44013,-4.71835],[-80.44025,-4.71149],[-80.43454,-4.70318],[-80.43348,-4.69039],[-80.44252,-4.68999],[-80.45568,-4.68113],[-80.47032,-4.67895],[-80.48038,-4.68046],[-80.49671,-4.66555],[-80.50946,-4.67108],[-80.5098,-4.66184],[-80.51427,-4.65408],[-80.51969,-4.65404],[-80.52195,-4.64361],[-80.52741,-4.63727],[-80.53601,-4.6375],[-80.55018,-4.63299],[-80.55352,-4.62408],[-80.57303,-4.62205],[-80.58383,-4.62612],[-80.59915,-4.62237],[-80.60155,-4.62498],[-80.61163,-4.62214],[-80.61826,-4.62593],[-80.62914,-4.6261],[-80.62976,-4.61663],[-80.63866,-4.59461],[-80.6431,-4.58982],[-80.63893,-4.58124],[-80.63832,-4.56489],[-80.63226,-4.54443],[-80.64232,-4.54757],[-80.65442,-4.54796],[-80.65999,-4.53758],[-80.68333,-4.52868],[-80.68441,-4.52391],[-80.67238,-4.51985],[-80.65926,-4.51925],[-80.6556,-4.50723],[-80.67053,-4.49881],[-80.68213,-4.47939],[-80.70301,-4.47733],[-80.7089,-4.4666],[-80.71953,-4.46052],[-80.72308,-4.45468],[-80.72374,-4.43577],[-80.7329,-4.42878],[-80.73343,-4.41816],[-80.72192,-4.40831],[-80.72602,-4.39573],[-80.7242,-4.38165],[-80.70823,-4.36554],[-80.70542,-4.36021],[-80.70819,-4.35046],[-80.72125,-4.35223],[-80.72526,-4.35758],[-80.74275,-4.34645],[-80.75037,-4.33847],[-80.75662,-4.33636],[-80.76173,-4.3271],[-80.76976,-4.32342],[-80.76928,-4.31761],[-80.74946,-4.30112],[-80.74034,-4.27992],[-80.73239,-4.27442],[-80.7295,-4.2626],[-80.71859,-4.25586],[-80.71562,-4.24895],[-80.7191,-4.24492],[-80.71639,-4.23678],[-80.72053,-4.22941],[-80.71398,-4.22317],[-80.72438,-4.21508],[-80.72514,-4.20032],[-80.71968,-4.20072],[-80.71457,-4.19345],[-80.7091,-4.18906],[-80.70032,-4.1878],[-80.68037,-4.20078],[-80.66645,-4.21506],[-80.64523,-4.22956],[-80.63266,-4.22804],[-80.62322,-4.23178],[-80.61133,-4.22539],[-80.60458,-4.21115],[-80.58982,-4.21412],[-80.58723,-4.19951],[-80.57768,-4.19604],[-80.57245,-4.18117],[-80.56083,-4.1747],[-80.56214,-4.16723],[-80.55898,-4.16108],[-80.55198,-4.1579],[-80.55169,-4.15312],[-80.54166,-4.14139],[-80.53299,-4.1217],[-80.52642,-4.12036],[-80.52435,-4.10741],[-80.5172,-4.09804],[-80.48733,-4.08313],[-80.48134,-4.08867],[-80.47501,-4.10384],[-80.46385,-4.1158],[-80.46738,-4.12729],[-80.46493,-4.12937],[-80.4486,-4.12073],[-80.44931,-4.20934],[-80.43427,-4.19594],[-80.4189,-4.20335],[-80.41629,-4.21101],[-80.40928,-4.21854],[-80.3883,-4.20248],[-80.3823,-4.20725],[-80.37129,-4.19755],[-80.36511,-4.20019],[-80.36477,-4.20657],[-80.35268,-4.2207],[-80.33938,-4.20854],[-80.32937,-4.21458],[-80.31319,-4.19825],[-80.30958,-4.20562],[-80.32883,-4.22313],[-80.34257,-4.24307],[-80.35235,-4.25288],[-80.35251,-4.25872],[-80.36725,-4.26995],[-80.36718,-4.28205],[-80.39838,-4.30378],[-80.42046,-4.32975],[-80.42993,-4.34283],[-80.42963,-4.35137],[-80.4354,-4.36165],[-80.44414,-4.36599],[-80.45249,-4.38083],[-80.45338,-4.38861],[-80.4486,-4.39406],[-80.45232,-4.39729],[-80.44765,-4.40284],[-80.45353,-4.40697],[-80.44905,-4.41937],[-80.45198,-4.43034],[-80.44588,-4.43955],[-80.4491,-4.44719],[-80.44438,-4.44643],[-80.43879,-4.45644],[-80.42474,-4.45918],[-80.41995,-4.4667],[-80.41727,-4.45969],[-80.39607,-4.47656],[-80.39718,-4.48098],[-80.38954,-4.48611],[-80.37987,-4.4767],[-80.36189,-4.48008],[-80.35523,-4.47265],[-80.33587,-4.4674],[-80.3185,-4.45132],[-80.30847,-4.44899],[-80.30231,-4.4401],[-80.29354,-4.43828],[-80.28988,-4.43324],[-80.28376,-4.42577],[-80.27748,-4.43591],[-80.27223,-4.43871],[-80.26526,-4.42937],[-80.25868,-4.4298],[-80.24929,-4.43932],[-80.23493,-4.43755],[-80.22604,-4.44596],[-80.22792,-4.45123],[-80.21236,-4.46302],[-80.21433,-4.46714],[-80.223,-4.46923],[-80.2233,-4.47764],[-80.21425,-4.48447],[-80.2169,-4.49153],[-80.21276,-4.50699],[-80.22377,-4.51396],[-80.22019,-4.52453],[-80.22172,-4.53646],[-80.21712,-4.54252],[-80.20832,-4.54659],[-80.20911,-4.55387],[-80.20375,-4.56369],[-80.20159,-4.57385],[-80.20768,-4.58466],[-80.22143,-4.59545]]]}},{"type":"Feature","properties":{"ubigeo":"200605","nombre":"Marcavelica"},"geometry":{"type":"Polygon","coordinates":[[[-80.71457,-4.19345],[-80.71968,-4.20072],[-80.72514,-4.20032],[-80.72438,-4.21508],[-80.71398,-4.22317],[-80.72053,-4.22941],[-80.71639,-4.23678],[-80.7191,-4.24492],[-80.71562,-4.24895],[-80.71859,-4.25586],[-80.7295,-4.2626],[-80.73239,-4.27442],[-80.74034,-4.27992],[-80.74946,-4.30112],[-80.76928,-4.31761],[-80.76976,-4.32342],[-80.76173,-4.3271],[-80.75662,-4.33636],[-80.75037,-4.33847],[-80.74275,-4.34645],[-80.72526,-4.35758],[-80.72125,-4.35223],[-80.70819,-4.35046],[-80.70542,-4.36021],[-80.70823,-4.36554],[-80.7242,-4.38165],[-80.72602,-4.39573],[-80.72192,-4.40831],[-80.73343,-4.41816],[-80.7329,-4.42878],[-80.72374,-4.43577],[-80.72308,-4.45468],[-80.71953,-4.46052],[-80.7089,-4.4666],[-80.70301,-4.47733],[-80.68213,-4.47939],[-80.67053,-4.49881],[-80.6556,-4.50723],[-80.65926,-4.51925],[-80.67238,-4.51985],[-80.68441,-4.52391],[-80.68333,-4.52868],[-80.65999,-4.53758],[-80.65442,-4.54796],[-80.64232,-4.54757],[-80.63226,-4.54443],[-80.63832,-4.56489],[-80.63893,-4.58124],[-80.6431,-4.58982],[-80.63866,-4.59461],[-80.62976,-4.61663],[-80.62914,-4.6261],[-80.63254,-4.63776],[-80.63742,-4.6413],[-80.64197,-4.65388],[-80.63858,-4.66295],[-80.6334,-4.66722],[-80.63339,-4.68145],[-80.6499,-4.71283],[-80.66272,-4.72099],[-80.67548,-4.74032],[-80.67661,-4.75205],[-80.68043,-4.76098],[-80.67879,-4.78622],[-80.67609,-4.78932],[-80.69035,-4.794],[-80.69447,-4.80407],[-80.69211,-4.80655],[-80.69863,-4.81422],[-80.70085,-4.83123],[-80.70054,-4.84439],[-80.6972,-4.84983],[-80.69426,-4.86543],[-80.69705,-4.87881],[-80.70029,-4.88169],[-80.6942,-4.89318],[-80.70203,-4.89832],[-80.71104,-4.89594],[-80.72433,-4.88561],[-80.73456,-4.89076],[-80.73713,-4.89919],[-80.7475,-4.89671],[-80.75512,-4.89072],[-80.77209,-4.89094],[-80.78418,-4.88623],[-80.79508,-4.8945],[-80.80182,-4.89354],[-80.80699,-4.88541],[-80.82122,-4.88762],[-80.82128,-4.89827],[-80.82836,-4.90419],[-80.8382,-4.90165],[-80.83399,-4.88627],[-80.82767,-4.8802],[-80.82203,-4.8659],[-80.81977,-4.84285],[-80.8318,-4.8379],[-80.83737,-4.83213],[-80.83377,-4.80809],[-80.83486,-4.79418],[-80.83872,-4.78153],[-80.8337,-4.77424],[-80.84821,-4.74837],[-80.85248,-4.7321],[-80.86673,-4.69748],[-80.87248,-4.68843],[-80.88579,-4.68142],[-80.89842,-4.67163],[-80.91629,-4.64737],[-80.92304,-4.63288],[-80.92944,-4.63287],[-80.93471,-4.62326],[-80.93638,-4.6181],[-80.92517,-4.6143],[-80.9142,-4.61551],[-80.90441,-4.60061],[-80.89096,-4.59547],[-80.88587,-4.57949],[-80.89323,-4.57563],[-80.89636,-4.56118],[-80.904,-4.55024],[-80.91321,-4.55249],[-80.91959,-4.54466],[-80.92155,-4.53254],[-80.91717,-4.52827],[-80.91944,-4.52033],[-80.88042,-4.49153],[-80.87378,-4.49039],[-80.87635,-4.47536],[-80.87066,-4.47191],[-80.87005,-4.46231],[-80.85029,-4.45628],[-80.85604,-4.44858],[-80.85851,-4.43586],[-80.85265,-4.43219],[-80.84545,-4.42216],[-80.85113,-4.40909],[-80.83954,-4.39743],[-80.83281,-4.39646],[-80.82912,-4.38534],[-80.85231,-4.38307],[-80.85837,-4.37395],[-80.8661,-4.36836],[-80.87718,-4.36472],[-80.87987,-4.35378],[-80.87727,-4.3417],[-80.86885,-4.33554],[-80.87079,-4.3275],[-80.86748,-4.31644],[-80.87242,-4.31548],[-80.89239,-4.31887],[-80.90492,-4.3078],[-80.91473,-4.31795],[-80.92315,-4.30786],[-80.93327,-4.30076],[-80.93771,-4.29109],[-80.92896,-4.26462],[-80.92704,-4.24631],[-80.9103,-4.22815],[-80.90893,-4.22452],[-80.92297,-4.21076],[-80.92426,-4.20412],[-80.93041,-4.19772],[-80.92882,-4.19116],[-80.93638,-4.18977],[-80.93638,-4.17824],[-80.93154,-4.17673],[-80.92831,-4.16903],[-80.91597,-4.17499],[-80.90077,-4.17942],[-80.89737,-4.18437],[-80.8889,-4.18661],[-80.88282,-4.1928],[-80.86988,-4.19187],[-80.8657,-4.18888],[-80.85053,-4.19099],[-80.84341,-4.18858],[-80.82402,-4.18562],[-80.80331,-4.17597],[-80.79015,-4.18024],[-80.78151,-4.1797],[-80.78038,-4.17573],[-80.77046,-4.17422],[-80.75399,-4.17982],[-80.74874,-4.1774],[-80.74551,-4.18403],[-80.73338,-4.17889],[-80.72821,-4.18669],[-80.71865,-4.19425],[-80.71457,-4.19345]]]}},{"type":"Feature","properties":{"ubigeo":"200606","nombre":"Miguel Checa"},"geometry":{"type":"Polygon","coordinates":[[[-80.70032,-5.01762],[-80.7416,-5.12364],[-80.75926,-5.13882],[-80.76776,-5.1515],[-80.77574,-5.17385],[-80.78559,-5.18459],[-80.79035,-5.19671],[-80.79723,-5.20539],[-80.80508,-5.22193],[-80.82176,-5.21678],[-80.82194,-5.22225],[-80.82947,-5.2277],[-80.83037,-5.23586],[-80.83625,-5.24755],[-80.83489,-5.2651],[-80.8397,-5.27274],[-80.84328,-5.28687],[-80.84909,-5.29321],[-80.85955,-5.28064],[-80.84816,-5.09313],[-80.85082,-4.95061],[-80.83963,-4.94381],[-80.829,-4.94058],[-80.82534,-4.93325],[-80.82436,-4.91876],[-80.82836,-4.90419],[-80.82128,-4.89827],[-80.82122,-4.88762],[-80.80699,-4.88541],[-80.80182,-4.89354],[-80.79508,-4.8945],[-80.78418,-4.88623],[-80.77209,-4.89094],[-80.75512,-4.89072],[-80.7475,-4.89671],[-80.73713,-4.89919],[-80.69769,-4.96009],[-80.7001,-4.9985],[-80.70032,-5.01762]]]}},{"type":"Feature","properties":{"ubigeo":"200607","nombre":"Querecotillo"},"geometry":{"type":"Polygon","coordinates":[[[-80.6564,-4.86502],[-80.65861,-4.85559],[-80.66962,-4.84135],[-80.66881,-4.83365],[-80.67479,-4.83053],[-80.6649,-4.81618],[-80.67179,-4.79441],[-80.67609,-4.78932],[-80.67879,-4.78622],[-80.68043,-4.76098],[-80.67661,-4.75205],[-80.67548,-4.74032],[-80.66272,-4.72099],[-80.6499,-4.71283],[-80.63339,-4.68145],[-80.6334,-4.66722],[-80.63858,-4.66295],[-80.64197,-4.65388],[-80.63742,-4.6413],[-80.63254,-4.63776],[-80.62914,-4.6261],[-80.61826,-4.62593],[-80.61163,-4.62214],[-80.60155,-4.62498],[-80.59915,-4.62237],[-80.58383,-4.62612],[-80.57303,-4.62205],[-80.55352,-4.62408],[-80.55018,-4.63299],[-80.53601,-4.6375],[-80.52741,-4.63727],[-80.52195,-4.64361],[-80.51969,-4.65404],[-80.51427,-4.65408],[-80.5098,-4.66184],[-80.50946,-4.67108],[-80.51689,-4.67583],[-80.52307,-4.68918],[-80.52986,-4.69822],[-80.54178,-4.70382],[-80.54384,-4.71564],[-80.5413,-4.7221],[-80.54653,-4.7279],[-80.5481,-4.74014],[-80.55925,-4.75843],[-80.55749,-4.77119],[-80.56222,-4.78044],[-80.57199,-4.7789],[-80.58563,-4.78491],[-80.58788,-4.79346],[-80.59983,-4.80383],[-80.60831,-4.79954],[-80.61148,-4.8058],[-80.61376,-4.82996],[-80.61992,-4.83221],[-80.61642,-4.8417],[-80.62455,-4.84075],[-80.63619,-4.84467],[-80.64415,-4.86164],[-80.6564,-4.86502]]]}},{"type":"Feature","properties":{"ubigeo":"200608","nombre":"Salitral"},"geometry":{"type":"Polygon","coordinates":[[[-80.6942,-4.89318],[-80.70029,-4.88169],[-80.69705,-4.87881],[-80.69426,-4.86543],[-80.6972,-4.84983],[-80.70054,-4.84439],[-80.70085,-4.83123],[-80.69863,-4.81422],[-80.69211,-4.80655],[-80.69447,-4.80407],[-80.69035,-4.794],[-80.67609,-4.78932],[-80.67179,-4.79441],[-80.6649,-4.81618],[-80.67479,-4.83053],[-80.66881,-4.83365],[-80.66962,-4.84135],[-80.65861,-4.85559],[-80.6564,-4.86502],[-80.67024,-4.85894],[-80.68037,-4.86305],[-80.67682,-4.87178],[-80.67943,-4.88332],[-80.68744,-4.88627],[-80.6942,-4.89318]]]}},{"type":"Feature","properties":{"ubigeo":"200701","nombre":"Pariñas"},"geometry":{"type":"Polygon","coordinates":[[[-81.29318,-4.59536],[-81.28699,-4.58621],[-81.28619,-4.57542],[-81.2748,-4.57223],[-81.28046,-4.55056],[-81.27841,-4.54657],[-81.28311,-4.53396],[-81.28245,-4.52519],[-81.2978,-4.4964],[-81.27364,-4.50523],[-81.23788,-4.47921],[-81.22874,-4.4806],[-81.21834,-4.47665],[-81.20921,-4.46162],[-81.1999,-4.45277],[-81.1902,-4.45489],[-81.17625,-4.4492],[-81.15375,-4.42305],[-81.14537,-4.4032],[-81.04074,-4.38641],[-81.02924,-4.38166],[-81.00037,-4.37581],[-80.99298,-4.36685],[-80.99153,-4.3568],[-80.98674,-4.34727],[-80.97986,-4.34248],[-80.97105,-4.34438],[-80.96128,-4.33418],[-80.94981,-4.32938],[-80.95328,-4.32378],[-80.92315,-4.30786],[-80.91473,-4.31795],[-80.90492,-4.3078],[-80.89239,-4.31887],[-80.87242,-4.31548],[-80.86748,-4.31644],[-80.87079,-4.3275],[-80.86885,-4.33554],[-80.87727,-4.3417],[-80.87987,-4.35378],[-80.87718,-4.36472],[-80.8661,-4.36836],[-80.85837,-4.37395],[-80.85231,-4.38307],[-80.82912,-4.38534],[-80.83281,-4.39646],[-80.83954,-4.39743],[-80.85113,-4.40909],[-80.84545,-4.42216],[-80.85265,-4.43219],[-80.85851,-4.43586],[-80.85604,-4.44858],[-80.85029,-4.45628],[-80.87005,-4.46231],[-80.87066,-4.47191],[-80.87635,-4.47536],[-80.87378,-4.49039],[-80.88042,-4.49153],[-80.91944,-4.52033],[-80.91717,-4.52827],[-80.92155,-4.53254],[-80.91959,-4.54466],[-80.91321,-4.55249],[-80.904,-4.55024],[-80.89636,-4.56118],[-80.89323,-4.57563],[-80.88587,-4.57949],[-80.89096,-4.59547],[-80.90441,-4.60061],[-80.9142,-4.61551],[-80.92517,-4.6143],[-80.93638,-4.6181],[-80.93471,-4.62326],[-80.94581,-4.62639],[-80.95111,-4.63214],[-80.94453,-4.63893],[-80.94641,-4.64583],[-80.95212,-4.64586],[-80.96458,-4.65796],[-80.96934,-4.66759],[-80.98053,-4.66763],[-80.98934,-4.65851],[-80.99909,-4.65991],[-81.00195,-4.66601],[-81.01508,-4.65528],[-81.02299,-4.6607],[-81.03635,-4.65553],[-81.05248,-4.65549],[-81.06004,-4.65123],[-81.05842,-4.63924],[-81.06551,-4.63215],[-81.06859,-4.62344],[-81.0756,-4.62146],[-81.09421,-4.60882],[-81.09925,-4.59902],[-81.10911,-4.59582],[-81.12663,-4.60081],[-81.15162,-4.61267],[-81.16853,-4.59771],[-81.24341,-4.60897],[-81.25903,-4.60819],[-81.26792,-4.61117],[-81.27701,-4.60863],[-81.28068,-4.60095],[-81.29318,-4.59536]]]}},{"type":"Feature","properties":{"ubigeo":"200702","nombre":"El Alto"},"geometry":{"type":"Polygon","coordinates":[[[-81.04074,-4.38641],[-81.17022,-4.34027],[-81.26028,-4.3078],[-81.25627,-4.29784],[-81.25449,-4.27941],[-81.24615,-4.26317],[-81.23705,-4.25068],[-81.22169,-4.24733],[-81.21007,-4.23345],[-81.20185,-4.22721],[-81.00687,-4.22643],[-80.90893,-4.22452],[-80.9103,-4.22815],[-80.92704,-4.24631],[-80.92896,-4.26462],[-80.93771,-4.29109],[-80.93327,-4.30076],[-80.92315,-4.30786],[-80.95328,-4.32378],[-80.94981,-4.32938],[-80.96128,-4.33418],[-80.97105,-4.34438],[-80.97986,-4.34248],[-80.98674,-4.34727],[-80.99153,-4.3568],[-80.99298,-4.36685],[-81.00037,-4.37581],[-81.02924,-4.38166],[-81.04074,-4.38641]]]}},{"type":"Feature","properties":{"ubigeo":"200703","nombre":"La Brea"},"geometry":{"type":"Polygon","coordinates":[[[-80.84821,-4.74837],[-80.96826,-4.77179],[-80.97687,-4.7732],[-81.0431,-4.78543],[-81.21055,-4.8164],[-81.24212,-4.78159],[-81.28518,-4.73165],[-81.31507,-4.69881],[-81.3281,-4.68188],[-81.327,-4.66887],[-81.31956,-4.6696],[-81.30965,-4.66182],[-81.3037,-4.64125],[-81.30045,-4.63613],[-81.29473,-4.61722],[-81.29551,-4.60649],[-81.29318,-4.59536],[-81.28068,-4.60095],[-81.27701,-4.60863],[-81.26792,-4.61117],[-81.25903,-4.60819],[-81.24341,-4.60897],[-81.16853,-4.59771],[-81.15162,-4.61267],[-81.12663,-4.60081],[-81.10911,-4.59582],[-81.09925,-4.59902],[-81.09421,-4.60882],[-81.0756,-4.62146],[-81.06859,-4.62344],[-81.06551,-4.63215],[-81.05842,-4.63924],[-81.06004,-4.65123],[-81.05248,-4.65549],[-81.03635,-4.65553],[-81.02299,-4.6607],[-81.01508,-4.65528],[-81.00195,-4.66601],[-80.99909,-4.65991],[-80.98934,-4.65851],[-80.98053,-4.66763],[-80.96934,-4.66759],[-80.96458,-4.65796],[-80.95212,-4.64586],[-80.94641,-4.64583],[-80.94453,-4.63893],[-80.95111,-4.63214],[-80.94581,-4.62639],[-80.93471,-4.62326],[-80.92944,-4.63287],[-80.92304,-4.63288],[-80.91629,-4.64737],[-80.89842,-4.67163],[-80.88579,-4.68142],[-80.87248,-4.68843],[-80.86673,-4.69748],[-80.85248,-4.7321],[-80.84821,-4.74837]]]}},{"type":"Feature","properties":{"ubigeo":"200704","nombre":"Lobitos"},"geometry":{"type":"Polygon","coordinates":[[[-81.2978,-4.4964],[-81.30361,-4.48325],[-81.29839,-4.47234],[-81.29984,-4.45971],[-81.28997,-4.45258],[-81.2801,-4.45273],[-81.27345,-4.44578],[-81.26479,-4.42824],[-81.26099,-4.40711],[-81.25529,-4.40263],[-81.25227,-4.39269],[-81.2525,-4.373],[-81.24928,-4.35482],[-81.25309,-4.32752],[-81.26028,-4.3078],[-81.17022,-4.34027],[-81.04074,-4.38641],[-81.14537,-4.4032],[-81.15375,-4.42305],[-81.17625,-4.4492],[-81.1902,-4.45489],[-81.1999,-4.45277],[-81.20921,-4.46162],[-81.21834,-4.47665],[-81.22874,-4.4806],[-81.23788,-4.47921],[-81.27364,-4.50523],[-81.2978,-4.4964]]]}},{"type":"Feature","properties":{"ubigeo":"200705","nombre":"Los Organos"},"geometry":{"type":"Polygon","coordinates":[[[-81.20185,-4.22721],[-81.18613,-4.21858],[-81.17672,-4.21713],[-81.16858,-4.21046],[-81.15233,-4.18866],[-81.14291,-4.178],[-81.13801,-4.18003],[-81.12695,-4.17214],[-81.09989,-4.12805],[-81.01357,-4.17332],[-80.92265,-4.21751],[-80.90893,-4.22452],[-81.00687,-4.22643],[-81.20185,-4.22721]]]}},{"type":"Feature","properties":{"ubigeo":"200706","nombre":"Mancora"},"geometry":{"type":"Polygon","coordinates":[[[-80.90893,-4.22452],[-80.92265,-4.21751],[-81.01357,-4.17332],[-81.09989,-4.12805],[-81.08914,-4.11893],[-81.07571,-4.11135],[-81.06493,-4.10991],[-81.05428,-4.10284],[-81.04191,-4.08292],[-81.03812,-4.09348],[-81.02888,-4.10522],[-81.01992,-4.11216],[-81.01197,-4.11423],[-81.00065,-4.1112],[-80.99349,-4.11762],[-80.98778,-4.11713],[-80.97889,-4.12676],[-80.97132,-4.12712],[-80.96797,-4.14095],[-80.96189,-4.15049],[-80.97078,-4.16691],[-80.96756,-4.1726],[-80.95473,-4.17345],[-80.94275,-4.169],[-80.93638,-4.17824],[-80.93638,-4.18977],[-80.92882,-4.19116],[-80.93041,-4.19772],[-80.92426,-4.20412],[-80.92297,-4.21076],[-80.90893,-4.22452]]]}},{"type":"Feature","properties":{"ubigeo":"200801","nombre":"Sechura"},"geometry":{"type":"Polygon","coordinates":[[[-80.62713,-6.37208],[-80.65994,-6.3545],[-80.70995,-6.3301],[-80.75691,-6.31215],[-80.77911,-6.30176],[-80.79792,-6.28898],[-80.82334,-6.26382],[-80.86109,-6.22885],[-80.89454,-6.20335],[-80.91313,-6.19058],[-81.00743,-6.13286],[-81.05108,-6.10858],[-81.09157,-6.08203],[-81.1115,-6.06194],[-81.11729,-6.04034],[-81.1316,-6.02285],[-81.14036,-6.00666],[-81.14926,-5.98124],[-81.14514,-5.97032],[-81.14956,-5.94761],[-81.14497,-5.93121],[-81.14577,-5.89878],[-81.14929,-5.88923],[-81.13834,-5.87792],[-81.12851,-5.86446],[-81.12443,-5.85398],[-81.12351,-5.84297],[-81.11257,-5.84112],[-81.10263,-5.84321],[-81.09746,-5.83817],[-81.08782,-5.82093],[-81.08284,-5.80637],[-81.08435,-5.79477],[-81.08014,-5.78962],[-81.06845,-5.78575],[-81.05864,-5.79329],[-81.04227,-5.81711],[-81.0217,-5.83056],[-81.01396,-5.82803],[-81.00199,-5.83591],[-80.99202,-5.83285],[-80.98909,-5.83816],[-80.97646,-5.83838],[-80.96751,-5.8447],[-80.94314,-5.84568],[-80.92196,-5.83686],[-80.90463,-5.82427],[-80.89149,-5.80982],[-80.88489,-5.79806],[-80.87628,-5.77517],[-80.86124,-5.74967],[-80.85389,-5.71655],[-80.85023,-5.66355],[-80.85255,-5.63549],[-80.86214,-5.60898],[-80.8663,-5.59015],[-80.87252,-5.57149],[-80.88264,-5.54792],[-80.87347,-5.54219],[-80.86248,-5.52964],[-80.82806,-5.50274],[-80.82374,-5.49651],[-80.82324,-5.48626],[-80.81414,-5.48209],[-80.8088,-5.47048],[-80.79481,-5.47469],[-80.79119,-5.48393],[-80.78794,-5.49195],[-80.78827,-5.50426],[-80.79433,-5.51053],[-80.79435,-5.51841],[-80.78628,-5.51692],[-80.77849,-5.51104],[-80.76843,-5.51282],[-80.76846,-5.51985],[-80.77557,-5.53294],[-80.76525,-5.53627],[-80.68314,-5.57364],[-80.62592,-5.59886],[-80.53463,-5.60161],[-80.5023,-5.61412],[-80.44785,-5.63347],[-80.32249,-5.67994],[-80.30594,-5.67662],[-80.29273,-5.6781],[-80.2511,-5.69689],[-80.24449,-5.70888],[-80.20755,-5.72183],[-80.19171,-5.73256],[-80.17213,-5.75054],[-80.1407,-5.76519],[-80.11141,-5.78509],[-80.09237,-5.79509],[-80.07971,-5.80231],[-80.05298,-5.81124],[-80.05818,-5.8191],[-80.06466,-5.82105],[-80.07999,-5.8353],[-80.09276,-5.85239],[-80.10607,-5.86745],[-80.12036,-5.87257],[-80.12385,-5.89131],[-80.13778,-5.88388],[-80.15535,-5.8798],[-80.17098,-5.87994],[-80.18535,-5.88756],[-80.20103,-5.89105],[-80.24279,-5.90627],[-80.25959,-5.91098],[-80.28743,-5.92074],[-80.30432,-5.92883],[-80.31526,-5.93644],[-80.33016,-5.94987],[-80.33697,-5.97093],[-80.34982,-5.9787],[-80.34005,-5.987],[-80.32706,-5.99453],[-80.32802,-6.00579],[-80.33388,-6.00696],[-80.34496,-6.00096],[-80.34796,-5.99572],[-80.36779,-5.99398],[-80.38815,-5.99613],[-80.42451,-6.02768],[-80.47916,-6.11241],[-80.5288,-6.19802],[-80.62468,-6.36831],[-80.62706,-6.37187],[-80.62713,-6.37208]]]}},{"type":"Feature","properties":{"ubigeo":"200802","nombre":"Bellavista de la Unión"},"geometry":{"type":"Polygon","coordinates":[[[-80.75422,-5.44941],[-80.7571,-5.44451],[-80.75646,-5.43785],[-80.7685,-5.42609],[-80.76396,-5.42028],[-80.75644,-5.42006],[-80.74918,-5.41362],[-80.7379,-5.4052],[-80.723,-5.4117],[-80.72089,-5.41974],[-80.73387,-5.44285],[-80.74179,-5.44101],[-80.75422,-5.44941]]]}},{"type":"Feature","properties":{"ubigeo":"200803","nombre":"Bernal"},"geometry":{"type":"Polygon","coordinates":[[[-80.64514,-5.4871],[-80.66661,-5.48247],[-80.70173,-5.47715],[-80.70595,-5.48043],[-80.72067,-5.4841],[-80.73754,-5.48256],[-80.73893,-5.48743],[-80.74807,-5.49198],[-80.76371,-5.49297],[-80.75981,-5.47332],[-80.76195,-5.46561],[-80.75646,-5.46386],[-80.75422,-5.44941],[-80.74179,-5.44101],[-80.73387,-5.44285],[-80.72089,-5.41974],[-80.70377,-5.42492],[-80.69038,-5.42634],[-80.6537,-5.43384],[-80.64432,-5.43673],[-80.64223,-5.44476],[-80.64725,-5.44653],[-80.64868,-5.46184],[-80.64514,-5.4871]]]}},{"type":"Feature","properties":{"ubigeo":"200804","nombre":"Cristo Nos Valga"},"geometry":{"type":"Polygon","coordinates":[[[-80.56757,-5.48685],[-80.55258,-5.49227],[-80.53753,-5.56817],[-80.53463,-5.60161],[-80.62592,-5.59886],[-80.68314,-5.57364],[-80.76525,-5.53627],[-80.77557,-5.53294],[-80.76846,-5.51985],[-80.76843,-5.51282],[-80.7638,-5.50652],[-80.7691,-5.50005],[-80.76371,-5.49297],[-80.74807,-5.49198],[-80.73893,-5.48743],[-80.73754,-5.48256],[-80.72067,-5.4841],[-80.70595,-5.48043],[-80.70173,-5.47715],[-80.66661,-5.48247],[-80.64514,-5.4871],[-80.60152,-5.47921],[-80.59146,-5.47937],[-80.56757,-5.48685]]]}},{"type":"Feature","properties":{"ubigeo":"200805","nombre":"Vice"},"geometry":{"type":"Polygon","coordinates":[[[-80.7571,-5.44451],[-80.7628,-5.44778],[-80.77469,-5.44896],[-80.77634,-5.45948],[-80.78791,-5.47459],[-80.79119,-5.48393],[-80.79481,-5.47469],[-80.8088,-5.47048],[-80.81414,-5.48209],[-80.82324,-5.48626],[-80.82374,-5.49651],[-80.82806,-5.50274],[-80.86248,-5.52964],[-80.87347,-5.54219],[-80.88264,-5.54792],[-80.89229,-5.52879],[-80.89758,-5.51145],[-80.91156,-5.48565],[-80.93022,-5.45752],[-80.95848,-5.42309],[-80.97186,-5.41234],[-80.99395,-5.38846],[-80.98715,-5.37371],[-80.9722,-5.3526],[-80.96108,-5.35045],[-80.95976,-5.35072],[-80.85102,-5.40605],[-80.77221,-5.40023],[-80.75191,-5.40266],[-80.75306,-5.41065],[-80.74918,-5.41362],[-80.75644,-5.42006],[-80.76396,-5.42028],[-80.7685,-5.42609],[-80.75646,-5.43785],[-80.7571,-5.44451]]]}},{"type":"Feature","properties":{"ubigeo":"200806","nombre":"Rinconada Llicuar"},"geometry":{"type":"Polygon","coordinates":[[[-80.75422,-5.44941],[-80.75646,-5.46386],[-80.76195,-5.46561],[-80.75981,-5.47332],[-80.76371,-5.49297],[-80.7691,-5.50005],[-80.7638,-5.50652],[-80.76843,-5.51282],[-80.77849,-5.51104],[-80.78628,-5.51692],[-80.79435,-5.51841],[-80.79433,-5.51053],[-80.78827,-5.50426],[-80.78794,-5.49195],[-80.79119,-5.48393],[-80.78791,-5.47459],[-80.77634,-5.45948],[-80.77469,-5.44896],[-80.7628,-5.44778],[-80.7571,-5.44451],[-80.75422,-5.44941]]]}}]}