{"type":"FeatureCollection","features":[{"type":"Feature","properties":{"ubigeo":"230101","nombre":"Tacna"},"geometry":{"type":"Polygon","coordinates":[[[-70.2371,-18.02246],[-70.25173,-18.02832],[-70.26979,-18.03798],[-70.26333,-18.04274],[-70.2694,-18.07112],[-70.28685,-18.09912],[-70.30389,-18.1333],[-70.3308,-18.13199],[-70.33758,-18.14812],[-70.33744,-18.157],[-70.32852,-18.18456],[-70.31577,-18.18175],[-70.28996,-18.18296],[-70.28178,-18.18041],[-70.25837,-18.16579],[-70.24777,-18.16223],[-70.23492,-18.15196],[-70.22141,-18.1501],[-70.20112,-18.14043],[-70.19375,-18.13966],[-70.17512,-18.13044],[-70.16457,-18.11674],[-70.15414,-18.10846],[-70.14409,-18.09309],[-70.12842,-18.0787],[-70.11851,-18.06335],[-70.11307,-18.06051],[-70.0966,-18.05953],[-70.08646,-18.062],[-70.07614,-18.05655],[-70.04568,-18.05925],[-70.0421,-18.06371],[-70.0296,-18.0604],[-70.01082,-18.0354],[-69.99988,-18.03099],[-69.99811,-18.02536],[-69.98288,-18.01171],[-69.97099,-18.00844],[-69.94877,-17.98933],[-69.94358,-17.98786],[-69.92888,-17.96589],[-69.9116,-17.95841],[-69.90467,-17.95829],[-69.89406,-17.96684],[-69.88105,-17.97049],[-69.8597,-17.97188],[-69.84665,-17.96831],[-69.83538,-17.97008],[-69.83231,-17.97415],[-69.81091,-17.97207],[-69.80502,-17.97975],[-69.79352,-17.97895],[-69.7819,-17.98298],[-69.77203,-17.97588],[-69.76314,-17.97885],[-69.76223,-17.98423],[-69.75253,-17.98799],[-69.81308,-18.11448],[-69.85431,-18.16535],[-69.90075,-18.20191],[-69.96055,-18.26288],[-69.98023,-18.27026],[-70.05071,-18.2688],[-70.07475,-18.2825],[-70.1108,-18.30039],[-70.14965,-18.31837],[-70.19717,-18.32219],[-70.24895,-18.31314],[-70.2868,-18.30811],[-70.31745,-18.3097],[-70.32639,-18.31278],[-70.32693,-18.29816],[-70.3156,-18.29355],[-70.32681,-18.19993],[-70.3345,-18.20368],[-70.33685,-18.18695],[-70.34853,-18.18908],[-70.34322,-18.17031],[-70.34193,-18.14956],[-70.34393,-18.1395],[-70.33649,-18.13029],[-70.35916,-18.10939],[-70.37385,-18.11894],[-70.38343,-18.10456],[-70.42255,-18.08956],[-70.46859,-18.0754],[-70.51251,-18.08992],[-70.54309,-18.1163],[-70.54628,-18.12008],[-70.56906,-18.12959],[-70.56949,-18.14812],[-70.57651,-18.17235],[-70.58577,-18.17843],[-70.58395,-18.18809],[-70.58516,-18.19936],[-70.5745,-18.20542],[-70.57725,-18.21671],[-70.60465,-18.20111],[-70.60345,-18.18645],[-70.59591,-18.17973],[-70.59648,-18.1589],[-70.61319,-18.14842],[-70.62012,-18.10486],[-70.62246,-18.09487],[-70.63421,-18.08186],[-70.63856,-18.07165],[-70.58805,-18.06563],[-70.56769,-18.04575],[-70.55766,-18.0316],[-70.5467,-18.02162],[-70.53715,-18.00153],[-70.52995,-17.99026],[-70.51136,-17.96718],[-70.48178,-17.94816],[-70.42374,-17.88983],[-70.31302,-17.94563],[-70.28014,-17.98041],[-70.27341,-17.98533],[-70.26511,-17.98459],[-70.26852,-18.0051],[-70.25291,-17.99468],[-70.235,-17.99231],[-70.22901,-18.0008],[-70.23305,-18.00357],[-70.22201,-18.01643],[-70.2371,-18.02246]]]}},{"type":"Feature","properties":{"ubigeo":"230102","nombre":"Alto de la Alianza"},"geometry":{"type":"Polygon","coordinates":[[[-70.19023,-17.77594],[-70.19489,-17.78476],[-70.20518,-17.79644],[-70.21406,-17.8101],[-70.2211,-17.82566],[-70.22314,-17.83598],[-70.23442,-17.85228],[-70.23711,-17.86416],[-70.24641,-17.88303],[-70.25022,-17.88708],[-70.25431,-17.90313],[-70.25786,-17.93946],[-70.25491,-17.94818],[-70.25492,-17.96606],[-70.235,-17.99231],[-70.25291,-17.99468],[-70.26852,-18.0051],[-70.26511,-17.98459],[-70.27341,-17.98533],[-70.28014,-17.98041],[-70.31302,-17.94563],[-70.42374,-17.88983],[-70.3972,-17.86311],[-70.37888,-17.83711],[-70.37289,-17.82543],[-70.35904,-17.81903],[-70.35512,-17.81404],[-70.33251,-17.79882],[-70.32965,-17.79433],[-70.32099,-17.79202],[-70.30537,-17.77724],[-70.30141,-17.76952],[-70.29107,-17.77118],[-70.26331,-17.76092],[-70.25848,-17.75576],[-70.25144,-17.75525],[-70.2237,-17.73754],[-70.21753,-17.72267],[-70.21685,-17.71453],[-70.2017,-17.7003],[-70.18585,-17.6758],[-70.18617,-17.66986],[-70.176,-17.65054],[-70.16404,-17.64146],[-70.1621,-17.63134],[-70.16806,-17.61697],[-70.16899,-17.6067],[-70.16546,-17.59915],[-70.1608,-17.59947],[-70.15533,-17.59527],[-70.15003,-17.59927],[-70.15183,-17.62414],[-70.14339,-17.63171],[-70.14557,-17.64848],[-70.15161,-17.65932],[-70.15372,-17.6934],[-70.16546,-17.70953],[-70.17865,-17.72281],[-70.18371,-17.73241],[-70.18958,-17.73727],[-70.19523,-17.75422],[-70.20138,-17.76294],[-70.19324,-17.7756],[-70.19023,-17.77594]]]}},{"type":"Feature","properties":{"ubigeo":"230103","nombre":"Calana"},"geometry":{"type":"Polygon","coordinates":[[[-70.22352,-17.9584],[-70.22202,-17.9532],[-70.20068,-17.9363],[-70.19871,-17.93058],[-70.18422,-17.91437],[-70.17197,-17.92352],[-70.15135,-17.93081],[-70.14546,-17.92321],[-70.13603,-17.91972],[-70.12255,-17.90401],[-70.11628,-17.90893],[-70.08747,-17.90882],[-70.07029,-17.91383],[-70.06986,-17.921],[-70.07571,-17.92081],[-70.08904,-17.93979],[-70.07785,-17.94776],[-70.08854,-17.96269],[-70.09201,-17.98026],[-70.11332,-17.98398],[-70.12502,-17.98884],[-70.13664,-17.98945],[-70.15433,-17.99965],[-70.16543,-18.00159],[-70.17243,-18.00567],[-70.19631,-17.99235],[-70.20434,-17.98542],[-70.21002,-17.97471],[-70.22352,-17.9584]]]}},{"type":"Feature","properties":{"ubigeo":"230104","nombre":"Ciudad Nueva"},"geometry":{"type":"Polygon","coordinates":[[[-70.22352,-17.9584],[-70.22536,-17.97009],[-70.22165,-17.97448],[-70.22872,-17.99031],[-70.235,-17.99231],[-70.25492,-17.96606],[-70.25491,-17.94818],[-70.25786,-17.93946],[-70.25431,-17.90313],[-70.25022,-17.88708],[-70.24641,-17.88303],[-70.23711,-17.86416],[-70.23442,-17.85228],[-70.22314,-17.83598],[-70.2211,-17.82566],[-70.21406,-17.8101],[-70.20518,-17.79644],[-70.19489,-17.78476],[-70.19023,-17.77594],[-70.18075,-17.77821],[-70.16208,-17.77317],[-70.13761,-17.77267],[-70.12175,-17.76674],[-70.109,-17.7593],[-70.09977,-17.74403],[-70.09691,-17.72865],[-70.08861,-17.71893],[-70.0822,-17.71863],[-70.07227,-17.71081],[-70.072,-17.71809],[-70.08125,-17.73739],[-70.09297,-17.74982],[-70.094,-17.75899],[-70.10446,-17.77301],[-70.10614,-17.78492],[-70.11349,-17.78597],[-70.12696,-17.79353],[-70.13442,-17.80177],[-70.13461,-17.80944],[-70.14243,-17.81754],[-70.15057,-17.83177],[-70.15504,-17.85815],[-70.15556,-17.86866],[-70.16214,-17.88046],[-70.16548,-17.89276],[-70.18422,-17.91437],[-70.19871,-17.93058],[-70.20068,-17.9363],[-70.22202,-17.9532],[-70.22352,-17.9584]]]}},{"type":"Feature","properties":{"ubigeo":"230105","nombre":"Inclan"},"geometry":{"type":"Polygon","coordinates":[[[-70.16997,-17.58819],[-70.1608,-17.59947],[-70.16546,-17.59915],[-70.16899,-17.6067],[-70.16806,-17.61697],[-70.1621,-17.63134],[-70.16404,-17.64146],[-70.176,-17.65054],[-70.18617,-17.66986],[-70.18585,-17.6758],[-70.2017,-17.7003],[-70.21685,-17.71453],[-70.21753,-17.72267],[-70.2237,-17.73754],[-70.25144,-17.75525],[-70.25848,-17.75576],[-70.26331,-17.76092],[-70.29107,-17.77118],[-70.30141,-17.76952],[-70.30537,-17.77724],[-70.32099,-17.79202],[-70.32965,-17.79433],[-70.33251,-17.79882],[-70.35512,-17.81404],[-70.35904,-17.81903],[-70.37289,-17.82543],[-70.37888,-17.83711],[-70.3972,-17.86311],[-70.42374,-17.88983],[-70.54538,-17.82879],[-70.59346,-17.80408],[-70.65802,-17.79072],[-70.71644,-17.7781],[-70.69787,-17.76803],[-70.6974,-17.75685],[-70.68791,-17.7333],[-70.68362,-17.72957],[-70.68306,-17.71962],[-70.67608,-17.71152],[-70.65547,-17.70017],[-70.64984,-17.69103],[-70.60842,-17.65628],[-70.57259,-17.61992],[-70.51462,-17.55642],[-70.5089,-17.54534],[-70.48039,-17.53076],[-70.44683,-17.51591],[-70.44437,-17.50904],[-70.43414,-17.50003],[-70.42828,-17.48334],[-70.42098,-17.48368],[-70.41677,-17.47893],[-70.40533,-17.47838],[-70.39225,-17.46431],[-70.37346,-17.45956],[-70.36101,-17.46176],[-70.34579,-17.46074],[-70.34059,-17.4719],[-70.34164,-17.48279],[-70.33432,-17.49822],[-70.3318,-17.50932],[-70.31287,-17.51956],[-70.30593,-17.529],[-70.3047,-17.53781],[-70.29621,-17.54003],[-70.28997,-17.5372],[-70.28584,-17.54061],[-70.28125,-17.56073],[-70.26094,-17.57725],[-70.23745,-17.58967],[-70.22571,-17.59181],[-70.21679,-17.58899],[-70.18073,-17.58928],[-70.16997,-17.58819]]]}},{"type":"Feature","properties":{"ubigeo":"230106","nombre":"Pachia"},"geometry":{"type":"Polygon","coordinates":[[[-69.93217,-17.92612],[-69.96494,-17.92964],[-69.98151,-17.94186],[-69.99898,-17.94794],[-70.00717,-17.9542],[-70.01414,-17.95229],[-70.04059,-17.96535],[-70.04947,-17.97289],[-70.06912,-17.97966],[-70.08353,-17.97683],[-70.09201,-17.98026],[-70.08854,-17.96269],[-70.07785,-17.94776],[-70.08904,-17.93979],[-70.07571,-17.92081],[-70.06986,-17.921],[-70.07029,-17.91383],[-70.08747,-17.90882],[-70.11628,-17.90893],[-70.12255,-17.90401],[-70.13603,-17.91972],[-70.14546,-17.92321],[-70.15135,-17.93081],[-70.17197,-17.92352],[-70.18422,-17.91437],[-70.16548,-17.89276],[-70.16214,-17.88046],[-70.15556,-17.86866],[-70.15504,-17.85815],[-70.15057,-17.83177],[-70.14243,-17.81754],[-70.13461,-17.80944],[-70.13442,-17.80177],[-70.12696,-17.79353],[-70.11349,-17.78597],[-70.10614,-17.78492],[-70.10446,-17.77301],[-70.094,-17.75899],[-70.09297,-17.74982],[-70.08125,-17.73739],[-70.072,-17.71809],[-70.07227,-17.71081],[-70.0652,-17.70066],[-70.05466,-17.69398],[-70.04749,-17.67927],[-70.04866,-17.67327],[-70.04106,-17.66554],[-70.02936,-17.66492],[-70.02031,-17.66158],[-70.01527,-17.64967],[-70.0073,-17.64206],[-70.01466,-17.62641],[-69.99852,-17.61739],[-69.99201,-17.61122],[-69.98322,-17.59714],[-69.97248,-17.59565],[-69.96714,-17.58622],[-69.95765,-17.59075],[-69.94552,-17.57883],[-69.93477,-17.58381],[-69.93171,-17.58907],[-69.91981,-17.58925],[-69.89407,-17.58277],[-69.87575,-17.58484],[-69.86179,-17.59715],[-69.8733,-17.6198],[-69.8764,-17.63277],[-69.88282,-17.64768],[-69.9261,-17.70025],[-69.94071,-17.7094],[-69.95371,-17.70988],[-69.95881,-17.71495],[-69.95852,-17.72391],[-69.98432,-17.73059],[-69.98833,-17.74522],[-69.97959,-17.75823],[-69.97254,-17.76421],[-69.97791,-17.7736],[-69.99336,-17.78191],[-70.00591,-17.79891],[-70.0067,-17.81015],[-70.01085,-17.81341],[-70.00464,-17.82797],[-70.00854,-17.83749],[-70.00384,-17.86063],[-70.0076,-17.86741],[-69.99768,-17.86292],[-69.98704,-17.86233],[-69.96343,-17.85435],[-69.95642,-17.87262],[-69.94939,-17.89732],[-69.94797,-17.91093],[-69.93217,-17.92612]]]}},{"type":"Feature","properties":{"ubigeo":"230107","nombre":"Palca"},"geometry":{"type":"Polygon","coordinates":[[[-69.75253,-17.98799],[-69.76223,-17.98423],[-69.76314,-17.97885],[-69.77203,-17.97588],[-69.7819,-17.98298],[-69.79352,-17.97895],[-69.80502,-17.97975],[-69.81091,-17.97207],[-69.83231,-17.97415],[-69.83538,-17.97008],[-69.84665,-17.96831],[-69.8597,-17.97188],[-69.88105,-17.97049],[-69.89406,-17.96684],[-69.90467,-17.95829],[-69.90672,-17.95366],[-69.93217,-17.92612],[-69.94797,-17.91093],[-69.94939,-17.89732],[-69.95642,-17.87262],[-69.96343,-17.85435],[-69.98704,-17.86233],[-69.99768,-17.86292],[-70.0076,-17.86741],[-70.00384,-17.86063],[-70.00854,-17.83749],[-70.00464,-17.82797],[-70.01085,-17.81341],[-70.0067,-17.81015],[-70.00591,-17.79891],[-69.99336,-17.78191],[-69.97791,-17.7736],[-69.97254,-17.76421],[-69.97959,-17.75823],[-69.98833,-17.74522],[-69.98432,-17.73059],[-69.95852,-17.72391],[-69.95881,-17.71495],[-69.95371,-17.70988],[-69.94071,-17.7094],[-69.9261,-17.70025],[-69.88282,-17.64768],[-69.8764,-17.63277],[-69.8733,-17.6198],[-69.86179,-17.59715],[-69.87575,-17.58484],[-69.87205,-17.57812],[-69.87217,-17.56769],[-69.87533,-17.56257],[-69.8707,-17.55521],[-69.87211,-17.54637],[-69.85983,-17.53288],[-69.85624,-17.51793],[-69.84662,-17.50646],[-69.84906,-17.49739],[-69.8498,-17.48942],[-69.84328,-17.4845],[-69.83669,-17.47138],[-69.83826,-17.46008],[-69.81955,-17.45465],[-69.80298,-17.46127],[-69.77286,-17.45604],[-69.76905,-17.45845],[-69.74698,-17.45847],[-69.73555,-17.46249],[-69.72316,-17.46105],[-69.7075,-17.47422],[-69.69923,-17.47257],[-69.69558,-17.4658],[-69.68573,-17.46396],[-69.67988,-17.45757],[-69.69047,-17.44363],[-69.66412,-17.42769],[-69.65419,-17.4123],[-69.64634,-17.4103],[-69.62145,-17.41885],[-69.61015,-17.41412],[-69.60321,-17.39666],[-69.59849,-17.39304],[-69.58936,-17.40094],[-69.57678,-17.40019],[-69.56562,-17.40384],[-69.55501,-17.40278],[-69.54257,-17.40729],[-69.5388,-17.40597],[-69.52379,-17.41299],[-69.51915,-17.42388],[-69.4944,-17.43245],[-69.47657,-17.45203],[-69.47602,-17.45913],[-69.46838,-17.46479],[-69.46829,-17.50417],[-69.55136,-17.57509],[-69.61801,-17.62291],[-69.66541,-17.6599],[-69.75233,-17.64969],[-69.79599,-17.64624],[-69.8212,-17.68636],[-69.82504,-17.70441],[-69.82168,-17.74381],[-69.80005,-17.76233],[-69.79991,-17.7844],[-69.79571,-17.86226],[-69.79204,-17.86946],[-69.77672,-17.90816],[-69.74718,-17.94394],[-69.7515,-17.98559],[-69.75253,-17.98799]]]}},{"type":"Feature","properties":{"ubigeo":"230108","nombre":"Pocollay"},"geometry":{"type":"Polygon","coordinates":[[[-70.14409,-18.09309],[-70.1828,-18.05144],[-70.21866,-18.03419],[-70.2371,-18.02246],[-70.22201,-18.01643],[-70.23305,-18.00357],[-70.22901,-18.0008],[-70.235,-17.99231],[-70.22872,-17.99031],[-70.22165,-17.97448],[-70.22536,-17.97009],[-70.22352,-17.9584],[-70.21002,-17.97471],[-70.20434,-17.98542],[-70.19631,-17.99235],[-70.17243,-18.00567],[-70.16543,-18.00159],[-70.15433,-17.99965],[-70.13664,-17.98945],[-70.12502,-17.98884],[-70.11332,-17.98398],[-70.09201,-17.98026],[-70.08353,-17.97683],[-70.06912,-17.97966],[-70.04947,-17.97289],[-70.04059,-17.96535],[-70.01414,-17.95229],[-70.00717,-17.9542],[-69.99898,-17.94794],[-69.98151,-17.94186],[-69.96494,-17.92964],[-69.93217,-17.92612],[-69.90672,-17.95366],[-69.90467,-17.95829],[-69.9116,-17.95841],[-69.92888,-17.96589],[-69.94358,-17.98786],[-69.94877,-17.98933],[-69.97099,-18.00844],[-69.98288,-18.01171],[-69.99811,-18.02536],[-69.99988,-18.03099],[-70.01082,-18.0354],[-70.0296,-18.0604],[-70.0421,-18.06371],[-70.04568,-18.05925],[-70.07614,-18.05655],[-70.08646,-18.062],[-70.0966,-18.05953],[-70.11307,-18.06051],[-70.11851,-18.06335],[-70.12842,-18.0787],[-70.14409,-18.09309]]]}},{"type":"Feature","properties":{"ubigeo":"230109","nombre":"Sama"},"geometry":{"type":"Polygon","coordinates":[[[-70.60465,-18.20111],[-70.6115,-18.19702],[-70.67925,-18.1617],[-70.70701,-18.13824],[-70.71189,-18.12887],[-70.72906,-18.11682],[-70.7316,-18.10633],[-70.75028,-18.0921],[-70.7627,-18.07971],[-70.77729,-18.07092],[-70.77943,-18.06574],[-70.79992,-18.05214],[-70.81024,-18.05084],[-70.81316,-18.04049],[-70.82301,-18.03501],[-70.83779,-18.03376],[-70.84839,-18.02678],[-70.85526,-18.02708],[-70.86445,-18.01883],[-70.87004,-18.01991],[-70.87919,-18.01475],[-70.88921,-18.00398],[-70.88256,-17.99397],[-70.88873,-17.98315],[-70.88947,-17.97652],[-70.87354,-17.9729],[-70.86334,-17.9668],[-70.85307,-17.95213],[-70.84921,-17.94303],[-70.8487,-17.93144],[-70.84149,-17.92594],[-70.8393,-17.91152],[-70.82874,-17.90593],[-70.82286,-17.89394],[-70.81001,-17.89166],[-70.7992,-17.87136],[-70.79479,-17.86847],[-70.7905,-17.85777],[-70.77817,-17.84525],[-70.77576,-17.84005],[-70.76424,-17.829],[-70.76006,-17.81823],[-70.74583,-17.80382],[-70.73209,-17.79226],[-70.72932,-17.78509],[-70.71644,-17.7781],[-70.65802,-17.79072],[-70.59346,-17.80408],[-70.54538,-17.82879],[-70.42374,-17.88983],[-70.48178,-17.94816],[-70.51136,-17.96718],[-70.52995,-17.99026],[-70.53715,-18.00153],[-70.5467,-18.02162],[-70.55766,-18.0316],[-70.56769,-18.04575],[-70.58805,-18.06563],[-70.63856,-18.07165],[-70.63421,-18.08186],[-70.62246,-18.09487],[-70.62012,-18.10486],[-70.61319,-18.14842],[-70.59648,-18.1589],[-70.59591,-18.17973],[-70.60345,-18.18645],[-70.60465,-18.20111]]]}},{"type":"Feature","properties":{"ubigeo":"230110","nombre":"Coronel Gregorio Albarracín Lanchipa"},"geometry":{"type":"Polygon","coordinates":[[[-70.2371,-18.02246],[-70.21866,-18.03419],[-70.1828,-18.05144],[-70.14409,-18.09309],[-70.15414,-18.10846],[-70.16457,-18.11674],[-70.17512,-18.13044],[-70.19375,-18.13966],[-70.20112,-18.14043],[-70.22141,-18.1501],[-70.23492,-18.15196],[-70.24777,-18.16223],[-70.25837,-18.16579],[-70.28178,-18.18041],[-70.28996,-18.18296],[-70.31577,-18.18175],[-70.32852,-18.18456],[-70.33744,-18.157],[-70.33758,-18.14812],[-70.3308,-18.13199],[-70.30389,-18.1333],[-70.28685,-18.09912],[-70.2694,-18.07112],[-70.26333,-18.04274],[-70.26979,-18.03798],[-70.25173,-18.02832],[-70.2371,-18.02246]]]}},{"type":"Feature","properties":{"ubigeo":"230111","nombre":"La Yarada los Palos"},"geometry":{"type":"Polygon","coordinates":[[[-70.57725,-18.21671],[-70.5745,-18.20542],[-70.58516,-18.19936],[-70.58395,-18.18809],[-70.58577,-18.17843],[-70.57651,-18.17235],[-70.56949,-18.14812],[-70.56906,-18.12959],[-70.54628,-18.12008],[-70.54309,-18.1163],[-70.51251,-18.08992],[-70.46859,-18.0754],[-70.42255,-18.08956],[-70.38343,-18.10456],[-70.37385,-18.11894],[-70.35916,-18.10939],[-70.33649,-18.13029],[-70.34393,-18.1395],[-70.34193,-18.14956],[-70.34322,-18.17031],[-70.34853,-18.18908],[-70.33685,-18.18695],[-70.3345,-18.20368],[-70.32681,-18.19993],[-70.3156,-18.29355],[-70.32693,-18.29816],[-70.32639,-18.31278],[-70.33515,-18.31557],[-70.35388,-18.32619],[-70.37083,-18.3411],[-70.37671,-18.35093],[-70.39596,-18.33362],[-70.43902,-18.30237],[-70.48129,-18.27341],[-70.50586,-18.25925],[-70.52473,-18.24666],[-70.56295,-18.22421],[-70.57725,-18.21671]]]}},{"type":"Feature","properties":{"ubigeo":"230201","nombre":"Candarave"},"geometry":{"type":"Polygon","coordinates":[[[-70.07315,-17.03491],[-70.07715,-17.04797],[-70.07,-17.08118],[-70.0809,-17.0895],[-70.0867,-17.10016],[-70.08676,-17.10982],[-70.09531,-17.12289],[-70.09341,-17.13235],[-70.09766,-17.13862],[-70.09706,-17.1544],[-70.09935,-17.16476],[-70.09548,-17.17056],[-70.09622,-17.18671],[-70.08637,-17.19614],[-70.1019,-17.20126],[-70.09906,-17.21733],[-70.11442,-17.2356],[-70.10903,-17.24135],[-70.10715,-17.25348],[-70.10136,-17.27276],[-70.09332,-17.29005],[-70.1004,-17.30487],[-70.11259,-17.31507],[-70.12875,-17.31921],[-70.1308,-17.31617],[-70.1424,-17.31453],[-70.14826,-17.32068],[-70.15625,-17.32166],[-70.16813,-17.3162],[-70.17886,-17.31839],[-70.18305,-17.32248],[-70.19438,-17.3243],[-70.19723,-17.3283],[-70.21019,-17.33394],[-70.21853,-17.34174],[-70.22079,-17.34085],[-70.22094,-17.32466],[-70.22442,-17.31831],[-70.21953,-17.29919],[-70.23673,-17.29669],[-70.24843,-17.29768],[-70.25975,-17.29028],[-70.26904,-17.29274],[-70.28418,-17.27933],[-70.28484,-17.2598],[-70.28113,-17.23971],[-70.28253,-17.23167],[-70.30368,-17.23611],[-70.30208,-17.21027],[-70.3098,-17.20026],[-70.30269,-17.19813],[-70.29931,-17.18909],[-70.30528,-17.18133],[-70.30217,-17.17084],[-70.30807,-17.16707],[-70.30319,-17.15585],[-70.29559,-17.14705],[-70.29289,-17.12895],[-70.28926,-17.1224],[-70.28708,-17.10604],[-70.30154,-17.07562],[-70.31133,-17.06054],[-70.3185,-17.05567],[-70.34639,-17.04704],[-70.35466,-17.04263],[-70.35654,-17.03251],[-70.3743,-17.0224],[-70.37735,-17.0093],[-70.39641,-16.99782],[-70.4015,-16.99081],[-70.41134,-16.99422],[-70.42596,-16.99441],[-70.43915,-17.00183],[-70.45251,-17.00251],[-70.46079,-16.99788],[-70.45203,-16.9864],[-70.446,-16.97393],[-70.44347,-16.96205],[-70.46472,-16.94568],[-70.46082,-16.93447],[-70.45342,-16.92857],[-70.45919,-16.92274],[-70.45169,-16.91312],[-70.45175,-16.90001],[-70.44202,-16.89313],[-70.44244,-16.888],[-70.45012,-16.8801],[-70.44775,-16.87413],[-70.45037,-16.86032],[-70.44327,-16.8531],[-70.44069,-16.84005],[-70.4326,-16.83985],[-70.42548,-16.83329],[-70.40939,-16.83019],[-70.39969,-16.8188],[-70.38523,-16.81587],[-70.37867,-16.8095],[-70.37279,-16.79818],[-70.35919,-16.79569],[-70.354,-16.78948],[-70.34493,-16.79146],[-70.33482,-16.78503],[-70.32368,-16.78299],[-70.31787,-16.77529],[-70.30761,-16.77305],[-70.29186,-16.78135],[-70.2698,-16.77057],[-70.26386,-16.77267],[-70.26646,-16.77843],[-70.25388,-16.78885],[-70.25284,-16.79888],[-70.2473,-16.80246],[-70.2255,-16.80953],[-70.20335,-16.8086],[-70.19426,-16.81811],[-70.18155,-16.81716],[-70.18407,-16.83469],[-70.19737,-16.84184],[-70.20483,-16.83901],[-70.21687,-16.84331],[-70.22308,-16.85609],[-70.23766,-16.85485],[-70.24377,-16.86024],[-70.24993,-16.87654],[-70.25228,-16.88942],[-70.25907,-16.90203],[-70.25931,-16.92052],[-70.25362,-16.93177],[-70.25433,-16.94003],[-70.24718,-16.95244],[-70.23957,-16.95695],[-70.22511,-16.95855],[-70.22393,-16.95203],[-70.21134,-16.9436],[-70.20097,-16.94401],[-70.18972,-16.93921],[-70.18129,-16.93212],[-70.17731,-16.91619],[-70.14837,-16.92187],[-70.152,-16.93317],[-70.14662,-16.93873],[-70.14559,-16.94269],[-70.13342,-16.94527],[-70.12542,-16.95652],[-70.11878,-16.96011],[-70.11709,-16.97261],[-70.10601,-16.97712],[-70.09577,-16.98523],[-70.09848,-16.99459],[-70.09605,-16.99852],[-70.09964,-17.00601],[-70.08195,-17.02226],[-70.07315,-17.03491]]]}},{"type":"Feature","properties":{"ubigeo":"230202","nombre":"Cairani"},"geometry":{"type":"Polygon","coordinates":[[[-70.41178,-17.34738],[-70.43725,-17.33462],[-70.43039,-17.3314],[-70.4232,-17.31657],[-70.41835,-17.31405],[-70.41496,-17.30562],[-70.38809,-17.29128],[-70.37819,-17.27789],[-70.36004,-17.26343],[-70.35509,-17.25267],[-70.35493,-17.23967],[-70.35805,-17.23046],[-70.34984,-17.20856],[-70.34112,-17.19724],[-70.3452,-17.19051],[-70.34592,-17.17419],[-70.35204,-17.16883],[-70.36353,-17.15154],[-70.36931,-17.12641],[-70.35747,-17.10295],[-70.3589,-17.09691],[-70.35456,-17.08776],[-70.35629,-17.07757],[-70.34719,-17.06215],[-70.35207,-17.05538],[-70.35466,-17.04263],[-70.34639,-17.04704],[-70.3185,-17.05567],[-70.31133,-17.06054],[-70.30154,-17.07562],[-70.28708,-17.10604],[-70.28926,-17.1224],[-70.29289,-17.12895],[-70.29559,-17.14705],[-70.30319,-17.15585],[-70.30807,-17.16707],[-70.30217,-17.17084],[-70.30528,-17.18133],[-70.29931,-17.18909],[-70.30269,-17.19813],[-70.3098,-17.20026],[-70.30208,-17.21027],[-70.30368,-17.23611],[-70.30559,-17.24404],[-70.31337,-17.25263],[-70.32382,-17.25847],[-70.32414,-17.26213],[-70.33542,-17.27738],[-70.33869,-17.29317],[-70.3556,-17.30466],[-70.36796,-17.30801],[-70.39626,-17.33988],[-70.405,-17.34115],[-70.41178,-17.34738]]]}},{"type":"Feature","properties":{"ubigeo":"230203","nombre":"Camilaca"},"geometry":{"type":"Polygon","coordinates":[[[-70.43725,-17.33462],[-70.44141,-17.33265],[-70.45296,-17.31949],[-70.45427,-17.30064],[-70.51301,-17.24738],[-70.57251,-17.19411],[-70.55505,-17.19766],[-70.55002,-17.18576],[-70.53536,-17.17275],[-70.5278,-17.16831],[-70.52114,-17.15823],[-70.51687,-17.14286],[-70.50745,-17.1317],[-70.50204,-17.11884],[-70.49513,-17.11034],[-70.49186,-17.09137],[-70.47999,-17.08441],[-70.46822,-17.08753],[-70.46522,-17.08332],[-70.45297,-17.08305],[-70.44833,-17.07983],[-70.44825,-17.07208],[-70.44364,-17.05574],[-70.4392,-17.05036],[-70.44408,-17.04563],[-70.45375,-17.01731],[-70.46324,-17.00861],[-70.46079,-16.99788],[-70.45251,-17.00251],[-70.43915,-17.00183],[-70.42596,-16.99441],[-70.41134,-16.99422],[-70.4015,-16.99081],[-70.39641,-16.99782],[-70.37735,-17.0093],[-70.3743,-17.0224],[-70.35654,-17.03251],[-70.35466,-17.04263],[-70.35207,-17.05538],[-70.34719,-17.06215],[-70.35629,-17.07757],[-70.35456,-17.08776],[-70.3589,-17.09691],[-70.35747,-17.10295],[-70.36931,-17.12641],[-70.36353,-17.15154],[-70.35204,-17.16883],[-70.34592,-17.17419],[-70.3452,-17.19051],[-70.34112,-17.19724],[-70.34984,-17.20856],[-70.35805,-17.23046],[-70.35493,-17.23967],[-70.35509,-17.25267],[-70.36004,-17.26343],[-70.37819,-17.27789],[-70.38809,-17.29128],[-70.41496,-17.30562],[-70.41835,-17.31405],[-70.4232,-17.31657],[-70.43039,-17.3314],[-70.43725,-17.33462]]]}},{"type":"Feature","properties":{"ubigeo":"230204","nombre":"Curibaya"},"geometry":{"type":"Polygon","coordinates":[[[-70.34579,-17.46074],[-70.34398,-17.45747],[-70.3504,-17.44993],[-70.38821,-17.42717],[-70.40051,-17.42123],[-70.40545,-17.39919],[-70.39008,-17.38584],[-70.37961,-17.38459],[-70.36339,-17.37438],[-70.34862,-17.35803],[-70.33814,-17.34147],[-70.32008,-17.33595],[-70.30551,-17.33761],[-70.29947,-17.33554],[-70.28266,-17.34539],[-70.27236,-17.36499],[-70.27759,-17.37324],[-70.27841,-17.38725],[-70.27461,-17.38926],[-70.28347,-17.39781],[-70.27583,-17.40534],[-70.28111,-17.41035],[-70.29063,-17.40928],[-70.29423,-17.41591],[-70.30725,-17.42427],[-70.31316,-17.43205],[-70.32415,-17.4394],[-70.32579,-17.44677],[-70.34579,-17.46074]]]}},{"type":"Feature","properties":{"ubigeo":"230205","nombre":"Huanuara"},"geometry":{"type":"Polygon","coordinates":[[[-70.30551,-17.33761],[-70.32008,-17.33595],[-70.33814,-17.34147],[-70.34862,-17.35803],[-70.36339,-17.37438],[-70.41178,-17.34738],[-70.405,-17.34115],[-70.39626,-17.33988],[-70.36796,-17.30801],[-70.3556,-17.30466],[-70.33869,-17.29317],[-70.33542,-17.27738],[-70.32414,-17.26213],[-70.32382,-17.25847],[-70.31337,-17.25263],[-70.30559,-17.24404],[-70.30368,-17.23611],[-70.28253,-17.23167],[-70.28113,-17.23971],[-70.28484,-17.2598],[-70.28418,-17.27933],[-70.26904,-17.29274],[-70.27873,-17.30172],[-70.28203,-17.31519],[-70.28936,-17.32266],[-70.29637,-17.32335],[-70.30791,-17.33184],[-70.30551,-17.33761]]]}},{"type":"Feature","properties":{"ubigeo":"230206","nombre":"Quilahuani"},"geometry":{"type":"Polygon","coordinates":[[[-70.26457,-17.38814],[-70.27461,-17.38926],[-70.27841,-17.38725],[-70.27759,-17.37324],[-70.27236,-17.36499],[-70.28266,-17.34539],[-70.29947,-17.33554],[-70.30551,-17.33761],[-70.30791,-17.33184],[-70.29637,-17.32335],[-70.28936,-17.32266],[-70.28203,-17.31519],[-70.27873,-17.30172],[-70.26904,-17.29274],[-70.25975,-17.29028],[-70.24843,-17.29768],[-70.23673,-17.29669],[-70.21953,-17.29919],[-70.22442,-17.31831],[-70.22094,-17.32466],[-70.22079,-17.34085],[-70.21853,-17.34174],[-70.21935,-17.34871],[-70.22558,-17.35778],[-70.2438,-17.35871],[-70.25762,-17.37019],[-70.26338,-17.37824],[-70.26457,-17.38814]]]}},{"type":"Feature","properties":{"ubigeo":"230301","nombre":"Locumba"},"geometry":{"type":"Polygon","coordinates":[[[-70.71644,-17.7781],[-70.78852,-17.76276],[-70.80971,-17.74344],[-70.81162,-17.73742],[-70.80628,-17.73078],[-70.8104,-17.7177],[-70.82755,-17.70782],[-70.837,-17.71195],[-70.8418,-17.71025],[-70.84251,-17.68688],[-70.84836,-17.68509],[-70.85565,-17.6924],[-70.86097,-17.69139],[-70.89704,-17.64949],[-70.90781,-17.64722],[-70.90514,-17.64351],[-70.9026,-17.6195],[-70.89708,-17.61232],[-70.89316,-17.59285],[-70.88408,-17.58164],[-70.87965,-17.55524],[-70.86676,-17.54738],[-70.85603,-17.5316],[-70.84376,-17.52466],[-70.82036,-17.49315],[-70.81041,-17.48644],[-70.80285,-17.47532],[-70.78767,-17.46028],[-70.76092,-17.47129],[-70.75505,-17.46413],[-70.73215,-17.45446],[-70.70361,-17.43772],[-70.68639,-17.44279],[-70.68227,-17.45341],[-70.66876,-17.45828],[-70.65971,-17.46442],[-70.65011,-17.46322],[-70.63004,-17.45528],[-70.63213,-17.46264],[-70.62966,-17.46973],[-70.6334,-17.48288],[-70.63218,-17.49718],[-70.64072,-17.50801],[-70.6404,-17.52128],[-70.64757,-17.5297],[-70.65114,-17.54167],[-70.64976,-17.55258],[-70.63456,-17.56988],[-70.62533,-17.57341],[-70.60357,-17.56723],[-70.56921,-17.54274],[-70.55604,-17.53649],[-70.54699,-17.53815],[-70.5354,-17.53451],[-70.52055,-17.54483],[-70.5089,-17.54534],[-70.51462,-17.55642],[-70.57259,-17.61992],[-70.60842,-17.65628],[-70.64984,-17.69103],[-70.65547,-17.70017],[-70.67608,-17.71152],[-70.68306,-17.71962],[-70.68362,-17.72957],[-70.68791,-17.7333],[-70.6974,-17.75685],[-70.69787,-17.76803],[-70.71644,-17.7781]]]}},{"type":"Feature","properties":{"ubigeo":"230302","nombre":"Ilabaya"},"geometry":{"type":"Polygon","coordinates":[[[-70.41178,-17.34738],[-70.36339,-17.37438],[-70.37961,-17.38459],[-70.39008,-17.38584],[-70.40545,-17.39919],[-70.40051,-17.42123],[-70.38821,-17.42717],[-70.3504,-17.44993],[-70.34398,-17.45747],[-70.34579,-17.46074],[-70.36101,-17.46176],[-70.37346,-17.45956],[-70.39225,-17.46431],[-70.40533,-17.47838],[-70.41677,-17.47893],[-70.42098,-17.48368],[-70.42828,-17.48334],[-70.43414,-17.50003],[-70.44437,-17.50904],[-70.44683,-17.51591],[-70.48039,-17.53076],[-70.5089,-17.54534],[-70.52055,-17.54483],[-70.5354,-17.53451],[-70.54699,-17.53815],[-70.55604,-17.53649],[-70.56921,-17.54274],[-70.60357,-17.56723],[-70.62533,-17.57341],[-70.63456,-17.56988],[-70.64976,-17.55258],[-70.65114,-17.54167],[-70.64757,-17.5297],[-70.6404,-17.52128],[-70.64072,-17.50801],[-70.63218,-17.49718],[-70.6334,-17.48288],[-70.62966,-17.46973],[-70.63213,-17.46264],[-70.63004,-17.45528],[-70.65011,-17.46322],[-70.65971,-17.46442],[-70.66876,-17.45828],[-70.68227,-17.45341],[-70.68639,-17.44279],[-70.70361,-17.43772],[-70.73215,-17.45446],[-70.75505,-17.46413],[-70.76092,-17.47129],[-70.78767,-17.46028],[-70.77998,-17.4506],[-70.77071,-17.44834],[-70.76357,-17.44052],[-70.75463,-17.43758],[-70.75115,-17.42238],[-70.73931,-17.41196],[-70.7356,-17.40123],[-70.74266,-17.39629],[-70.7524,-17.38057],[-70.75168,-17.37048],[-70.74614,-17.34953],[-70.73811,-17.33062],[-70.73001,-17.31823],[-70.7208,-17.31103],[-70.71587,-17.30177],[-70.70592,-17.28961],[-70.71227,-17.28748],[-70.71592,-17.27365],[-70.70428,-17.26721],[-70.7012,-17.2546],[-70.69298,-17.24118],[-70.68832,-17.23964],[-70.68422,-17.22498],[-70.67113,-17.21979],[-70.66644,-17.21421],[-70.65241,-17.2095],[-70.63355,-17.21084],[-70.63003,-17.21397],[-70.61887,-17.20917],[-70.60998,-17.2145],[-70.59916,-17.21038],[-70.57658,-17.19838],[-70.57251,-17.19411],[-70.51301,-17.24738],[-70.45427,-17.30064],[-70.45296,-17.31949],[-70.44141,-17.33265],[-70.43725,-17.33462],[-70.41178,-17.34738]]]}},{"type":"Feature","properties":{"ubigeo":"230303","nombre":"Ite"},"geometry":{"type":"Polygon","coordinates":[[[-70.88947,-17.97652],[-70.89077,-17.96873],[-70.90994,-17.95219],[-70.90931,-17.94159],[-70.91459,-17.93745],[-70.92333,-17.93779],[-70.92378,-17.92858],[-70.93033,-17.92577],[-70.93543,-17.92931],[-70.94351,-17.9136],[-70.95968,-17.91067],[-70.97518,-17.89679],[-71.01101,-17.87675],[-71.02985,-17.88483],[-71.04121,-17.87899],[-71.05237,-17.88033],[-71.05826,-17.87478],[-71.09684,-17.86772],[-71.09857,-17.85737],[-71.10383,-17.85292],[-71.10579,-17.84314],[-71.13944,-17.82148],[-71.12628,-17.81283],[-71.12107,-17.80146],[-71.12158,-17.786],[-71.10314,-17.75528],[-71.10113,-17.7395],[-71.09424,-17.73324],[-71.08199,-17.73399],[-71.08412,-17.72128],[-71.08334,-17.71753],[-71.07348,-17.71375],[-71.06054,-17.71864],[-71.04938,-17.70883],[-71.03694,-17.70965],[-71.02692,-17.70387],[-71.01663,-17.70877],[-71.00514,-17.6926],[-71.00335,-17.6837],[-70.98969,-17.67926],[-70.98316,-17.68463],[-70.96456,-17.67602],[-70.95628,-17.67596],[-70.93089,-17.68768],[-70.9125,-17.68737],[-70.90746,-17.66177],[-70.90781,-17.64722],[-70.89704,-17.64949],[-70.86097,-17.69139],[-70.85565,-17.6924],[-70.84836,-17.68509],[-70.84251,-17.68688],[-70.8418,-17.71025],[-70.837,-17.71195],[-70.82755,-17.70782],[-70.8104,-17.7177],[-70.80628,-17.73078],[-70.81162,-17.73742],[-70.80971,-17.74344],[-70.78852,-17.76276],[-70.71644,-17.7781],[-70.72932,-17.78509],[-70.73209,-17.79226],[-70.74583,-17.80382],[-70.76006,-17.81823],[-70.76424,-17.829],[-70.77576,-17.84005],[-70.77817,-17.84525],[-70.7905,-17.85777],[-70.79479,-17.86847],[-70.7992,-17.87136],[-70.81001,-17.89166],[-70.82286,-17.89394],[-70.82874,-17.90593],[-70.8393,-17.91152],[-70.84149,-17.92594],[-70.8487,-17.93144],[-70.84921,-17.94303],[-70.85307,-17.95213],[-70.86334,-17.9668],[-70.87354,-17.9729],[-70.88947,-17.97652]]]}},{"type":"Feature","properties":{"ubigeo":"230401","nombre":"Tarata"},"geometry":{"type":"Polygon","coordinates":[[[-69.46838,-17.46479],[-69.47602,-17.45913],[-69.47657,-17.45203],[-69.4944,-17.43245],[-69.51915,-17.42388],[-69.52379,-17.41299],[-69.5388,-17.40597],[-69.54257,-17.40729],[-69.55501,-17.40278],[-69.56562,-17.40384],[-69.57678,-17.40019],[-69.58936,-17.40094],[-69.59849,-17.39304],[-69.60321,-17.39666],[-69.61015,-17.41412],[-69.62145,-17.41885],[-69.64634,-17.4103],[-69.65419,-17.4123],[-69.66412,-17.42769],[-69.69047,-17.44363],[-69.67988,-17.45757],[-69.68573,-17.46396],[-69.69558,-17.4658],[-69.69923,-17.47257],[-69.7075,-17.47422],[-69.72316,-17.46105],[-69.73555,-17.46249],[-69.74698,-17.45847],[-69.76905,-17.45845],[-69.77286,-17.45604],[-69.80298,-17.46127],[-69.81955,-17.45465],[-69.83826,-17.46008],[-69.83669,-17.47138],[-69.84328,-17.4845],[-69.8498,-17.48942],[-69.88796,-17.47181],[-69.90375,-17.4739],[-69.91562,-17.46864],[-69.92737,-17.48038],[-69.94263,-17.46367],[-69.96738,-17.46906],[-69.98062,-17.4781],[-70.00586,-17.48229],[-70.01313,-17.48866],[-70.02463,-17.49331],[-70.03124,-17.50232],[-70.04182,-17.50487],[-70.05321,-17.50278],[-70.06661,-17.50556],[-70.07975,-17.48551],[-70.06288,-17.48429],[-70.05506,-17.4727],[-70.0455,-17.46708],[-70.04384,-17.46044],[-70.0345,-17.45029],[-70.02261,-17.45182],[-70.01514,-17.44863],[-70.00861,-17.43887],[-69.99978,-17.43642],[-69.99192,-17.43918],[-69.97613,-17.43542],[-69.96935,-17.42716],[-69.96604,-17.41798],[-69.95953,-17.41164],[-69.94825,-17.42],[-69.93695,-17.42152],[-69.93251,-17.41038],[-69.94408,-17.39918],[-69.94676,-17.38957],[-69.9423,-17.38358],[-69.94539,-17.37521],[-69.93801,-17.36709],[-69.92553,-17.36194],[-69.91529,-17.34557],[-69.91657,-17.34237],[-69.91024,-17.33243],[-69.89954,-17.32733],[-69.8911,-17.31529],[-69.88519,-17.31133],[-69.85738,-17.29874],[-69.84525,-17.28201],[-69.82703,-17.26648],[-69.81418,-17.24716],[-69.80785,-17.2447],[-69.79624,-17.23293],[-69.78454,-17.23935],[-69.77435,-17.24994],[-69.76497,-17.26402],[-69.76615,-17.27178],[-69.76184,-17.28044],[-69.75052,-17.28387],[-69.74488,-17.28981],[-69.73107,-17.29547],[-69.71563,-17.29163],[-69.71108,-17.28194],[-69.6936,-17.27464],[-69.68293,-17.27874],[-69.65474,-17.27078],[-69.64582,-17.28667],[-69.64132,-17.28745],[-69.61628,-17.28644],[-69.59435,-17.28828],[-69.57522,-17.29259],[-69.51968,-17.3349],[-69.46732,-17.37354],[-69.46838,-17.46479]]]}},{"type":"Feature","properties":{"ubigeo":"230402","nombre":"Héroes Albarracín"},"geometry":{"type":"Polygon","coordinates":[[[-70.07975,-17.48551],[-70.06661,-17.50556],[-70.07352,-17.51873],[-70.07613,-17.52166],[-70.07114,-17.53618],[-70.07587,-17.54429],[-70.08857,-17.55751],[-70.09526,-17.54989],[-70.11059,-17.5543],[-70.12141,-17.55051],[-70.13196,-17.54191],[-70.13293,-17.54625],[-70.14202,-17.55134],[-70.15032,-17.55985],[-70.15907,-17.56488],[-70.15795,-17.5703],[-70.16383,-17.57021],[-70.16032,-17.57743],[-70.16997,-17.58819],[-70.18073,-17.58928],[-70.21679,-17.58899],[-70.22571,-17.59181],[-70.23745,-17.58967],[-70.26094,-17.57725],[-70.28125,-17.56073],[-70.28584,-17.54061],[-70.28997,-17.5372],[-70.29621,-17.54003],[-70.3047,-17.53781],[-70.30593,-17.529],[-70.31287,-17.51956],[-70.3318,-17.50932],[-70.33432,-17.49822],[-70.34164,-17.48279],[-70.34059,-17.4719],[-70.34579,-17.46074],[-70.32579,-17.44677],[-70.32415,-17.4394],[-70.31316,-17.43205],[-70.30725,-17.42427],[-70.29423,-17.41591],[-70.29063,-17.40928],[-70.28111,-17.41035],[-70.27583,-17.40534],[-70.28347,-17.39781],[-70.27461,-17.38926],[-70.26457,-17.38814],[-70.25971,-17.39011],[-70.24968,-17.38462],[-70.24399,-17.3893],[-70.24067,-17.40491],[-70.22324,-17.41277],[-70.21622,-17.43672],[-70.21594,-17.4422],[-70.20471,-17.44625],[-70.19819,-17.45226],[-70.1987,-17.45928],[-70.19327,-17.46097],[-70.1897,-17.46998],[-70.17902,-17.46853],[-70.16999,-17.47421],[-70.15268,-17.46161],[-70.14389,-17.45866],[-70.14148,-17.46534],[-70.11886,-17.45458],[-70.10772,-17.46332],[-70.09053,-17.45907],[-70.08624,-17.46004],[-70.08485,-17.47681],[-70.07975,-17.48551]]]}},{"type":"Feature","properties":{"ubigeo":"230403","nombre":"Estique"},"geometry":{"type":"Polygon","coordinates":[[[-70.07227,-17.71081],[-70.0822,-17.71863],[-70.08861,-17.71893],[-70.09691,-17.72865],[-70.09977,-17.74403],[-70.109,-17.7593],[-70.12175,-17.76674],[-70.13761,-17.77267],[-70.16208,-17.77317],[-70.18075,-17.77821],[-70.19023,-17.77594],[-70.19324,-17.7756],[-70.18743,-17.7649],[-70.17882,-17.7576],[-70.17074,-17.74227],[-70.15445,-17.72293],[-70.13365,-17.69248],[-70.12832,-17.69078],[-70.12208,-17.68],[-70.11208,-17.67655],[-70.10854,-17.66583],[-70.10976,-17.65935],[-70.09936,-17.65574],[-70.09709,-17.63674],[-70.08849,-17.62319],[-70.09195,-17.61211],[-70.0857,-17.60946],[-70.0781,-17.59795],[-70.06981,-17.5896],[-70.07045,-17.57335],[-70.0615,-17.56997],[-70.05604,-17.56337],[-70.05233,-17.56835],[-70.03871,-17.57282],[-70.02774,-17.56378],[-70.02158,-17.56365],[-70.02065,-17.55078],[-70.03104,-17.5376],[-70.02064,-17.52941],[-70.0059,-17.53519],[-70.00205,-17.53431],[-69.98915,-17.54203],[-69.97137,-17.53388],[-69.9621,-17.53327],[-69.95122,-17.52318],[-69.93668,-17.52629],[-69.91962,-17.52116],[-69.91639,-17.51562],[-69.89363,-17.51384],[-69.85938,-17.50437],[-69.84906,-17.49739],[-69.84662,-17.50646],[-69.85624,-17.51793],[-69.85983,-17.53288],[-69.87211,-17.54637],[-69.8707,-17.55521],[-69.87533,-17.56257],[-69.87217,-17.56769],[-69.87205,-17.57812],[-69.87575,-17.58484],[-69.89407,-17.58277],[-69.91981,-17.58925],[-69.93171,-17.58907],[-69.93477,-17.58381],[-69.94552,-17.57883],[-69.95765,-17.59075],[-69.96714,-17.58622],[-69.97248,-17.59565],[-69.98322,-17.59714],[-69.99201,-17.61122],[-69.99852,-17.61739],[-70.01466,-17.62641],[-70.0073,-17.64206],[-70.01527,-17.64967],[-70.02031,-17.66158],[-70.02936,-17.66492],[-70.04106,-17.66554],[-70.04866,-17.67327],[-70.04749,-17.67927],[-70.05466,-17.69398],[-70.0652,-17.70066],[-70.07227,-17.71081]]]}},{"type":"Feature","properties":{"ubigeo":"230404","nombre":"Estique-Pampa"},"geometry":{"type":"Polygon","coordinates":[[[-70.19324,-17.7756],[-70.20138,-17.76294],[-70.19523,-17.75422],[-70.18958,-17.73727],[-70.18371,-17.73241],[-70.17865,-17.72281],[-70.16546,-17.70953],[-70.15372,-17.6934],[-70.15161,-17.65932],[-70.14557,-17.64848],[-70.14339,-17.63171],[-70.15183,-17.62414],[-70.15003,-17.59927],[-70.15533,-17.59527],[-70.1608,-17.59947],[-70.16997,-17.58819],[-70.16032,-17.57743],[-70.16383,-17.57021],[-70.15795,-17.5703],[-70.15907,-17.56488],[-70.15032,-17.55985],[-70.14202,-17.55134],[-70.13293,-17.54625],[-70.13196,-17.54191],[-70.12141,-17.55051],[-70.11059,-17.5543],[-70.09526,-17.54989],[-70.08857,-17.55751],[-70.07587,-17.54429],[-70.07114,-17.53618],[-70.07613,-17.52166],[-70.07352,-17.51873],[-70.05867,-17.51966],[-70.04472,-17.5276],[-70.03602,-17.52596],[-70.02064,-17.52941],[-70.03104,-17.5376],[-70.02065,-17.55078],[-70.02158,-17.56365],[-70.02774,-17.56378],[-70.03871,-17.57282],[-70.05233,-17.56835],[-70.05604,-17.56337],[-70.0615,-17.56997],[-70.07045,-17.57335],[-70.06981,-17.5896],[-70.0781,-17.59795],[-70.0857,-17.60946],[-70.09195,-17.61211],[-70.08849,-17.62319],[-70.09709,-17.63674],[-70.09936,-17.65574],[-70.10976,-17.65935],[-70.10854,-17.66583],[-70.11208,-17.67655],[-70.12208,-17.68],[-70.12832,-17.69078],[-70.13365,-17.69248],[-70.15445,-17.72293],[-70.17074,-17.74227],[-70.17882,-17.7576],[-70.18743,-17.7649],[-70.19324,-17.7756]]]}},{"type":"Feature","properties":{"ubigeo":"230405","nombre":"Sitajara"},"geometry":{"type":"Polygon","coordinates":[[[-70.04267,-17.35242],[-70.04233,-17.36526],[-70.05205,-17.38669],[-70.07681,-17.4117],[-70.0811,-17.41942],[-70.07985,-17.42481],[-70.08652,-17.42975],[-70.09053,-17.45907],[-70.10772,-17.46332],[-70.11886,-17.45458],[-70.14148,-17.46534],[-70.14389,-17.45866],[-70.15268,-17.46161],[-70.16999,-17.47421],[-70.17902,-17.46853],[-70.1897,-17.46998],[-70.19327,-17.46097],[-70.1987,-17.45928],[-70.19819,-17.45226],[-70.20471,-17.44625],[-70.21594,-17.4422],[-70.21622,-17.43672],[-70.22324,-17.41277],[-70.24067,-17.40491],[-70.24399,-17.3893],[-70.24968,-17.38462],[-70.25971,-17.39011],[-70.26457,-17.38814],[-70.26338,-17.37824],[-70.25762,-17.37019],[-70.2438,-17.35871],[-70.22558,-17.35778],[-70.21935,-17.34871],[-70.21853,-17.34174],[-70.21019,-17.33394],[-70.19723,-17.3283],[-70.19438,-17.3243],[-70.18305,-17.32248],[-70.17886,-17.31839],[-70.16813,-17.3162],[-70.15625,-17.32166],[-70.14826,-17.32068],[-70.1424,-17.31453],[-70.1308,-17.31617],[-70.12875,-17.31921],[-70.13459,-17.33187],[-70.14364,-17.3444],[-70.14735,-17.35313],[-70.14674,-17.3647],[-70.13388,-17.37143],[-70.12111,-17.3658],[-70.10607,-17.36718],[-70.101,-17.36166],[-70.08623,-17.35438],[-70.07505,-17.35254],[-70.06169,-17.34369],[-70.05517,-17.34379],[-70.04984,-17.35009],[-70.04267,-17.35242]]]}},{"type":"Feature","properties":{"ubigeo":"230406","nombre":"Susapaya"},"geometry":{"type":"Polygon","coordinates":[[[-70.04267,-17.35242],[-70.04984,-17.35009],[-70.05517,-17.34379],[-70.06169,-17.34369],[-70.07505,-17.35254],[-70.08623,-17.35438],[-70.101,-17.36166],[-70.10607,-17.36718],[-70.12111,-17.3658],[-70.13388,-17.37143],[-70.14674,-17.3647],[-70.14735,-17.35313],[-70.14364,-17.3444],[-70.13459,-17.33187],[-70.12875,-17.31921],[-70.11259,-17.31507],[-70.1004,-17.30487],[-70.09332,-17.29005],[-70.10136,-17.27276],[-70.10715,-17.25348],[-70.10903,-17.24135],[-70.11442,-17.2356],[-70.09906,-17.21733],[-70.1019,-17.20126],[-70.08637,-17.19614],[-70.09622,-17.18671],[-70.09548,-17.17056],[-70.09935,-17.16476],[-70.09706,-17.1544],[-70.09766,-17.13862],[-70.09341,-17.13235],[-70.09531,-17.12289],[-70.08676,-17.10982],[-70.0867,-17.10016],[-70.0809,-17.0895],[-70.07,-17.08118],[-70.07715,-17.04797],[-70.07315,-17.03491],[-70.04677,-17.05638],[-70.04157,-17.0774],[-70.0468,-17.09943],[-70.04579,-17.11156],[-70.03972,-17.12797],[-70.03105,-17.12321],[-70.02313,-17.12381],[-70.02029,-17.13179],[-70.01199,-17.14139],[-69.99902,-17.1487],[-69.98763,-17.15142],[-69.98736,-17.15771],[-69.98136,-17.16862],[-69.97312,-17.16564],[-69.96767,-17.17882],[-69.94656,-17.19259],[-69.9428,-17.19784],[-69.92967,-17.2022],[-69.93388,-17.20357],[-69.95423,-17.22393],[-69.95342,-17.23019],[-69.96514,-17.26411],[-69.97791,-17.27032],[-69.97903,-17.27608],[-69.9876,-17.28167],[-69.99793,-17.28251],[-70.00402,-17.29004],[-70.01127,-17.29083],[-70.01565,-17.29796],[-70.01135,-17.30095],[-70.01169,-17.31003],[-70.02231,-17.31714],[-70.03332,-17.31104],[-70.04115,-17.31714],[-70.03446,-17.3261],[-70.041,-17.34108],[-70.04267,-17.35242]]]}},{"type":"Feature","properties":{"ubigeo":"230407","nombre":"Tarucachi"},"geometry":{"type":"Polygon","coordinates":[[[-69.84906,-17.49739],[-69.85938,-17.50437],[-69.89363,-17.51384],[-69.91639,-17.51562],[-69.91962,-17.52116],[-69.93668,-17.52629],[-69.95122,-17.52318],[-69.9621,-17.53327],[-69.97137,-17.53388],[-69.98915,-17.54203],[-70.00205,-17.53431],[-70.0059,-17.53519],[-70.02064,-17.52941],[-70.03602,-17.52596],[-70.04472,-17.5276],[-70.05867,-17.51966],[-70.07352,-17.51873],[-70.06661,-17.50556],[-70.05321,-17.50278],[-70.04182,-17.50487],[-70.03124,-17.50232],[-70.02463,-17.49331],[-70.01313,-17.48866],[-70.00586,-17.48229],[-69.98062,-17.4781],[-69.96738,-17.46906],[-69.94263,-17.46367],[-69.92737,-17.48038],[-69.91562,-17.46864],[-69.90375,-17.4739],[-69.88796,-17.47181],[-69.8498,-17.48942],[-69.84906,-17.49739]]]}},{"type":"Feature","properties":{"ubigeo":"230408","nombre":"Ticaco"},"geometry":{"type":"Polygon","coordinates":[[[-70.07975,-17.48551],[-70.08485,-17.47681],[-70.08624,-17.46004],[-70.09053,-17.45907],[-70.08652,-17.42975],[-70.07985,-17.42481],[-70.0811,-17.41942],[-70.07681,-17.4117],[-70.05205,-17.38669],[-70.04233,-17.36526],[-70.04267,-17.35242],[-70.041,-17.34108],[-70.03446,-17.3261],[-70.04115,-17.31714],[-70.03332,-17.31104],[-70.02231,-17.31714],[-70.01169,-17.31003],[-70.01135,-17.30095],[-70.01565,-17.29796],[-70.01127,-17.29083],[-70.00402,-17.29004],[-69.99793,-17.28251],[-69.9876,-17.28167],[-69.97903,-17.27608],[-69.97791,-17.27032],[-69.96514,-17.26411],[-69.95342,-17.23019],[-69.95423,-17.22393],[-69.93388,-17.20357],[-69.92967,-17.2022],[-69.91737,-17.20994],[-69.91101,-17.21038],[-69.89813,-17.22107],[-69.8731,-17.22383],[-69.86893,-17.23171],[-69.85879,-17.23328],[-69.8514,-17.24374],[-69.83125,-17.24357],[-69.81967,-17.24136],[-69.81005,-17.23392],[-69.79624,-17.23293],[-69.80785,-17.2447],[-69.81418,-17.24716],[-69.82703,-17.26648],[-69.84525,-17.28201],[-69.85738,-17.29874],[-69.88519,-17.31133],[-69.8911,-17.31529],[-69.89954,-17.32733],[-69.91024,-17.33243],[-69.91657,-17.34237],[-69.91529,-17.34557],[-69.92553,-17.36194],[-69.93801,-17.36709],[-69.94539,-17.37521],[-69.9423,-17.38358],[-69.94676,-17.38957],[-69.94408,-17.39918],[-69.93251,-17.41038],[-69.93695,-17.42152],[-69.94825,-17.42],[-69.95953,-17.41164],[-69.96604,-17.41798],[-69.96935,-17.42716],[-69.97613,-17.43542],[-69.99192,-17.43918],[-69.99978,-17.43642],[-70.00861,-17.43887],[-70.01514,-17.44863],[-70.02261,-17.45182],[-70.0345,-17.45029],[-70.04384,-17.46044],[-70.0455,-17.46708],[-70.05506,-17.4727],[-70.06288,-17.48429],[-70.07975,-17.48551]]]}}]}