{"type":"FeatureCollection","features":[{"type":"Feature","properties":{"ubigeo":"240101","nombre":"Tumbes"},"geometry":{"type":"Polygon","coordinates":[[[-80.3423,-3.62312],[-80.34227,-3.62509],[-80.35197,-3.62135],[-80.36253,-3.62661],[-80.37046,-3.61505],[-80.37795,-3.61401],[-80.39341,-3.6056],[-80.40037,-3.60772],[-80.42426,-3.60086],[-80.43336,-3.60357],[-80.44572,-3.5991],[-80.45395,-3.60103],[-80.46066,-3.59746],[-80.45903,-3.58601],[-80.46554,-3.58319],[-80.45679,-3.57638],[-80.46859,-3.56115],[-80.47703,-3.55308],[-80.47813,-3.54594],[-80.48828,-3.54076],[-80.48813,-3.53215],[-80.49534,-3.52981],[-80.49185,-3.5226],[-80.48316,-3.51919],[-80.484,-3.51356],[-80.49111,-3.51342],[-80.49718,-3.50344],[-80.49035,-3.49912],[-80.47982,-3.50568],[-80.46077,-3.50375],[-80.45118,-3.4975],[-80.42249,-3.4862],[-80.43242,-3.49732],[-80.4195,-3.49568],[-80.41368,-3.50025],[-80.42373,-3.50624],[-80.41946,-3.51221],[-80.40206,-3.50596],[-80.37883,-3.49461],[-80.34321,-3.61876],[-80.3423,-3.62312]]]}},{"type":"Feature","properties":{"ubigeo":"240102","nombre":"Corrales"},"geometry":{"type":"Polygon","coordinates":[[[-80.45395,-3.60103],[-80.44011,-3.60726],[-80.43825,-3.61341],[-80.44548,-3.61457],[-80.44166,-3.62292],[-80.4526,-3.62544],[-80.46405,-3.63609],[-80.47751,-3.64086],[-80.47959,-3.6477],[-80.49251,-3.65125],[-80.5081,-3.67403],[-80.52042,-3.67768],[-80.52698,-3.67519],[-80.52967,-3.66551],[-80.54537,-3.65391],[-80.55032,-3.6528],[-80.55297,-3.64567],[-80.54265,-3.63761],[-80.54218,-3.63134],[-80.55333,-3.61547],[-80.55548,-3.60569],[-80.54485,-3.58973],[-80.52193,-3.54371],[-80.51858,-3.53497],[-80.50487,-3.50895],[-80.49893,-3.50042],[-80.49718,-3.50344],[-80.49111,-3.51342],[-80.484,-3.51356],[-80.48316,-3.51919],[-80.49185,-3.5226],[-80.49534,-3.52981],[-80.48813,-3.53215],[-80.48828,-3.54076],[-80.47813,-3.54594],[-80.47703,-3.55308],[-80.46859,-3.56115],[-80.45679,-3.57638],[-80.46554,-3.58319],[-80.45903,-3.58601],[-80.46066,-3.59746],[-80.45395,-3.60103]]]}},{"type":"Feature","properties":{"ubigeo":"240103","nombre":"La Cruz"},"geometry":{"type":"Polygon","coordinates":[[[-80.55398,-3.73355],[-80.56672,-3.73337],[-80.5808,-3.72706],[-80.58037,-3.71626],[-80.5758,-3.7091],[-80.58731,-3.69686],[-80.58861,-3.68958],[-80.59779,-3.67965],[-80.59463,-3.6743],[-80.60384,-3.67058],[-80.60091,-3.66171],[-80.60495,-3.65425],[-80.5992,-3.64734],[-80.60473,-3.6372],[-80.58322,-3.63621],[-80.5729,-3.62792],[-80.55548,-3.60569],[-80.55333,-3.61547],[-80.54218,-3.63134],[-80.54265,-3.63761],[-80.55297,-3.64567],[-80.55032,-3.6528],[-80.54537,-3.65391],[-80.52967,-3.66551],[-80.52698,-3.67519],[-80.53256,-3.68632],[-80.54172,-3.69201],[-80.54928,-3.70938],[-80.54851,-3.71918],[-80.55398,-3.73355]]]}},{"type":"Feature","properties":{"ubigeo":"240104","nombre":"Pampas de Hospital"},"geometry":{"type":"Polygon","coordinates":[[[-80.18074,-3.92583],[-80.18594,-3.929],[-80.18773,-3.93684],[-80.19985,-3.94719],[-80.2114,-3.95137],[-80.21542,-3.95616],[-80.22205,-3.95172],[-80.22942,-3.95426],[-80.23447,-3.94847],[-80.24021,-3.95623],[-80.2368,-3.96317],[-80.24655,-3.96969],[-80.25392,-3.97936],[-80.25648,-3.9903],[-80.26182,-3.99889],[-80.27223,-4.0081],[-80.2837,-4.01238],[-80.28862,-4.01133],[-80.29808,-4.01726],[-80.30659,-4.01297],[-80.32369,-4.01117],[-80.32898,-4.00055],[-80.33909,-3.99214],[-80.34404,-3.99545],[-80.35276,-3.99476],[-80.3656,-3.98182],[-80.37711,-3.98964],[-80.38908,-3.9881],[-80.39829,-3.98026],[-80.4023,-3.96624],[-80.4118,-3.95293],[-80.43714,-3.94637],[-80.4449,-3.94703],[-80.44462,-3.93369],[-80.45686,-3.92702],[-80.45818,-3.91756],[-80.46353,-3.91763],[-80.46599,-3.90871],[-80.47989,-3.90912],[-80.48606,-3.90098],[-80.48996,-3.89031],[-80.485,-3.88407],[-80.48328,-3.87211],[-80.47707,-3.86647],[-80.48172,-3.86251],[-80.46018,-3.85539],[-80.44823,-3.84588],[-80.44684,-3.83759],[-80.46263,-3.82633],[-80.47377,-3.82335],[-80.49607,-3.81139],[-80.49769,-3.80681],[-80.49109,-3.80406],[-80.48294,-3.80944],[-80.47423,-3.80494],[-80.47187,-3.80919],[-80.4609,-3.8081],[-80.44895,-3.81122],[-80.44946,-3.79666],[-80.45726,-3.79239],[-80.46127,-3.79795],[-80.47351,-3.79367],[-80.46321,-3.78172],[-80.45501,-3.77868],[-80.45597,-3.76777],[-80.45259,-3.75486],[-80.44039,-3.74746],[-80.43944,-3.74129],[-80.44558,-3.73448],[-80.44378,-3.7278],[-80.44954,-3.72066],[-80.45042,-3.71354],[-80.44507,-3.70619],[-80.45126,-3.68618],[-80.44946,-3.679],[-80.43711,-3.67323],[-80.43261,-3.66617],[-80.43491,-3.65817],[-80.42556,-3.6582],[-80.40322,-3.67377],[-80.39612,-3.67552],[-80.36296,-3.67096],[-80.34213,-3.68397],[-80.3318,-3.70481],[-80.32545,-3.70947],[-80.3205,-3.72815],[-80.31291,-3.73896],[-80.31012,-3.75606],[-80.31173,-3.76833],[-80.305,-3.77257],[-80.28607,-3.79003],[-80.28733,-3.79311],[-80.27172,-3.80511],[-80.26528,-3.81992],[-80.26023,-3.82255],[-80.25581,-3.83277],[-80.25845,-3.83745],[-80.25454,-3.84509],[-80.25258,-3.86836],[-80.26222,-3.8797],[-80.25879,-3.90211],[-80.24632,-3.90052],[-80.24359,-3.89754],[-80.23312,-3.90601],[-80.22152,-3.90139],[-80.21404,-3.90274],[-80.19624,-3.91145],[-80.19679,-3.91619],[-80.18074,-3.92583]]]}},{"type":"Feature","properties":{"ubigeo":"240105","nombre":"San Jacinto"},"geometry":{"type":"Polygon","coordinates":[[[-80.39829,-3.98026],[-80.40869,-3.98934],[-80.42022,-3.99082],[-80.42544,-3.99653],[-80.43024,-3.9895],[-80.44685,-3.99802],[-80.44151,-4.00544],[-80.44802,-4.01003],[-80.44558,-4.01633],[-80.4547,-4.01619],[-80.45153,-4.03168],[-80.46838,-4.03587],[-80.46997,-4.0463],[-80.4798,-4.05554],[-80.47376,-4.05962],[-80.47577,-4.06556],[-80.47182,-4.07359],[-80.47622,-4.08191],[-80.48733,-4.08313],[-80.5172,-4.09804],[-80.52435,-4.10741],[-80.52642,-4.12036],[-80.53299,-4.1217],[-80.54166,-4.14139],[-80.55169,-4.15312],[-80.55198,-4.1579],[-80.55898,-4.16108],[-80.56214,-4.16723],[-80.56083,-4.1747],[-80.57245,-4.18117],[-80.57768,-4.19604],[-80.58723,-4.19951],[-80.58982,-4.21412],[-80.60458,-4.21115],[-80.61133,-4.22539],[-80.62322,-4.23178],[-80.63266,-4.22804],[-80.64523,-4.22956],[-80.66645,-4.21506],[-80.65958,-4.21058],[-80.64545,-4.20603],[-80.63593,-4.19061],[-80.63564,-4.17926],[-80.6188,-4.17159],[-80.61251,-4.17194],[-80.60435,-4.1579],[-80.59548,-4.14678],[-80.58348,-4.13891],[-80.58341,-4.12927],[-80.57918,-4.1189],[-80.57889,-4.11069],[-80.56935,-4.10339],[-80.565,-4.09378],[-80.56714,-4.08464],[-80.56139,-4.0768],[-80.56107,-4.0662],[-80.55664,-4.06284],[-80.55866,-4.05662],[-80.55181,-4.05097],[-80.53809,-4.0285],[-80.52559,-4.02928],[-80.51654,-4.02429],[-80.51547,-4.01823],[-80.52766,-4.00207],[-80.52387,-4.00077],[-80.52433,-3.98463],[-80.52128,-3.97304],[-80.52999,-3.95957],[-80.53168,-3.94319],[-80.52884,-3.9389],[-80.53329,-3.93008],[-80.52932,-3.91732],[-80.52349,-3.90765],[-80.54022,-3.89908],[-80.55057,-3.88262],[-80.54265,-3.86991],[-80.54286,-3.85846],[-80.53951,-3.85354],[-80.53979,-3.84319],[-80.54498,-3.83591],[-80.57849,-3.83631],[-80.58808,-3.83481],[-80.59058,-3.82831],[-80.58643,-3.80548],[-80.58014,-3.79857],[-80.5766,-3.78486],[-80.55735,-3.78304],[-80.55217,-3.77221],[-80.55573,-3.76401],[-80.55398,-3.73355],[-80.54851,-3.71918],[-80.54928,-3.70938],[-80.54172,-3.69201],[-80.53256,-3.68632],[-80.52698,-3.67519],[-80.52042,-3.67768],[-80.5081,-3.67403],[-80.49251,-3.65125],[-80.47959,-3.6477],[-80.47751,-3.64086],[-80.46405,-3.63609],[-80.4526,-3.62544],[-80.44166,-3.62292],[-80.43405,-3.63547],[-80.43214,-3.64474],[-80.43491,-3.65817],[-80.43261,-3.66617],[-80.43711,-3.67323],[-80.44946,-3.679],[-80.45126,-3.68618],[-80.44507,-3.70619],[-80.45042,-3.71354],[-80.44954,-3.72066],[-80.44378,-3.7278],[-80.44558,-3.73448],[-80.43944,-3.74129],[-80.44039,-3.74746],[-80.45259,-3.75486],[-80.45597,-3.76777],[-80.45501,-3.77868],[-80.46321,-3.78172],[-80.47351,-3.79367],[-80.46127,-3.79795],[-80.45726,-3.79239],[-80.44946,-3.79666],[-80.44895,-3.81122],[-80.4609,-3.8081],[-80.47187,-3.80919],[-80.47423,-3.80494],[-80.48294,-3.80944],[-80.49109,-3.80406],[-80.49769,-3.80681],[-80.49607,-3.81139],[-80.47377,-3.82335],[-80.46263,-3.82633],[-80.44684,-3.83759],[-80.44823,-3.84588],[-80.46018,-3.85539],[-80.48172,-3.86251],[-80.47707,-3.86647],[-80.48328,-3.87211],[-80.485,-3.88407],[-80.48996,-3.89031],[-80.48606,-3.90098],[-80.47989,-3.90912],[-80.46599,-3.90871],[-80.46353,-3.91763],[-80.45818,-3.91756],[-80.45686,-3.92702],[-80.44462,-3.93369],[-80.4449,-3.94703],[-80.43714,-3.94637],[-80.4118,-3.95293],[-80.4023,-3.96624],[-80.39829,-3.98026]]]}},{"type":"Feature","properties":{"ubigeo":"240106","nombre":"San Juan de la Virgen"},"geometry":{"type":"Polygon","coordinates":[[[-80.305,-3.77257],[-80.31173,-3.76833],[-80.31012,-3.75606],[-80.31291,-3.73896],[-80.3205,-3.72815],[-80.32545,-3.70947],[-80.3318,-3.70481],[-80.34213,-3.68397],[-80.36296,-3.67096],[-80.39612,-3.67552],[-80.40322,-3.67377],[-80.42556,-3.6582],[-80.43491,-3.65817],[-80.43214,-3.64474],[-80.43405,-3.63547],[-80.44166,-3.62292],[-80.44548,-3.61457],[-80.43825,-3.61341],[-80.44011,-3.60726],[-80.45395,-3.60103],[-80.44572,-3.5991],[-80.43336,-3.60357],[-80.42426,-3.60086],[-80.40037,-3.60772],[-80.39341,-3.6056],[-80.37795,-3.61401],[-80.37046,-3.61505],[-80.36253,-3.62661],[-80.35197,-3.62135],[-80.34227,-3.62509],[-80.33779,-3.63147],[-80.31329,-3.64361],[-80.30901,-3.65166],[-80.30127,-3.65574],[-80.29583,-3.67384],[-80.3008,-3.68549],[-80.29879,-3.69016],[-80.30287,-3.71354],[-80.29817,-3.73008],[-80.30254,-3.74168],[-80.2993,-3.75861],[-80.30515,-3.76704],[-80.305,-3.77257]]]}},{"type":"Feature","properties":{"ubigeo":"240201","nombre":"Zorritos"},"geometry":{"type":"Polygon","coordinates":[[[-80.59058,-3.82831],[-80.60895,-3.82289],[-80.61407,-3.82519],[-80.61965,-3.83473],[-80.63947,-3.83801],[-80.65306,-3.83551],[-80.65954,-3.82774],[-80.67418,-3.82626],[-80.6807,-3.82823],[-80.67803,-3.84326],[-80.68158,-3.84996],[-80.67831,-3.85552],[-80.67044,-3.85671],[-80.66564,-3.86465],[-80.66461,-3.88153],[-80.65666,-3.88588],[-80.6543,-3.8968],[-80.65804,-3.90387],[-80.67413,-3.91613],[-80.67625,-3.92833],[-80.69153,-3.9392],[-80.69975,-3.94061],[-80.70846,-3.94921],[-80.70703,-3.96004],[-80.71579,-3.99075],[-80.7219,-3.99565],[-80.72877,-4.01093],[-80.76404,-3.99328],[-80.77133,-3.99416],[-80.78467,-3.99142],[-80.77223,-3.9654],[-80.79066,-3.95662],[-80.79843,-3.95499],[-80.80257,-3.9491],[-80.80307,-3.93869],[-80.81285,-3.92965],[-80.814,-3.9109],[-80.80803,-3.90257],[-80.8126,-3.89328],[-80.84202,-3.88178],[-80.83365,-3.87576],[-80.83073,-3.86838],[-80.83202,-3.85458],[-80.82869,-3.8373],[-80.81735,-3.81557],[-80.81502,-3.80533],[-80.79462,-3.7602],[-80.78723,-3.74819],[-80.77176,-3.73962],[-80.76703,-3.73179],[-80.7536,-3.71817],[-80.73541,-3.71121],[-80.72593,-3.71044],[-80.70169,-3.69354],[-80.68427,-3.67985],[-80.6677,-3.67668],[-80.65656,-3.66678],[-80.6487,-3.66847],[-80.63412,-3.66613],[-80.6229,-3.65948],[-80.60473,-3.6372],[-80.5992,-3.64734],[-80.60495,-3.65425],[-80.60091,-3.66171],[-80.60384,-3.67058],[-80.59463,-3.6743],[-80.59779,-3.67965],[-80.58861,-3.68958],[-80.58731,-3.69686],[-80.5758,-3.7091],[-80.58037,-3.71626],[-80.5808,-3.72706],[-80.56672,-3.73337],[-80.55398,-3.73355],[-80.55573,-3.76401],[-80.55217,-3.77221],[-80.55735,-3.78304],[-80.5766,-3.78486],[-80.58014,-3.79857],[-80.58643,-3.80548],[-80.59058,-3.82831]]]}},{"type":"Feature","properties":{"ubigeo":"240202","nombre":"Casitas"},"geometry":{"type":"Polygon","coordinates":[[[-80.66645,-4.21506],[-80.68037,-4.20078],[-80.70032,-4.1878],[-80.7091,-4.18906],[-80.71457,-4.19345],[-80.71865,-4.19425],[-80.72821,-4.18669],[-80.73338,-4.17889],[-80.74551,-4.18403],[-80.74874,-4.1774],[-80.75399,-4.17982],[-80.77046,-4.17422],[-80.78038,-4.17573],[-80.78151,-4.1797],[-80.79015,-4.18024],[-80.80331,-4.17597],[-80.82402,-4.18562],[-80.84341,-4.18858],[-80.85087,-4.17804],[-80.86093,-4.1724],[-80.8605,-4.1672],[-80.85297,-4.16578],[-80.85063,-4.15992],[-80.82674,-4.14702],[-80.82021,-4.13992],[-80.82149,-4.13318],[-80.81435,-4.12873],[-80.81494,-4.11867],[-80.83358,-4.11235],[-80.8419,-4.10442],[-80.84024,-4.1001],[-80.83036,-4.09541],[-80.81707,-4.07655],[-80.81228,-4.0765],[-80.80502,-4.06575],[-80.80105,-4.06589],[-80.78683,-4.05631],[-80.76418,-4.03813],[-80.74858,-4.03181],[-80.73919,-4.02346],[-80.72855,-4.02003],[-80.72877,-4.01093],[-80.7219,-3.99565],[-80.71579,-3.99075],[-80.70703,-3.96004],[-80.70846,-3.94921],[-80.69975,-3.94061],[-80.69153,-3.9392],[-80.67625,-3.92833],[-80.67413,-3.91613],[-80.65804,-3.90387],[-80.6543,-3.8968],[-80.65666,-3.88588],[-80.66461,-3.88153],[-80.66564,-3.86465],[-80.67044,-3.85671],[-80.67831,-3.85552],[-80.68158,-3.84996],[-80.67803,-3.84326],[-80.6807,-3.82823],[-80.67418,-3.82626],[-80.65954,-3.82774],[-80.65306,-3.83551],[-80.63947,-3.83801],[-80.61965,-3.83473],[-80.61407,-3.82519],[-80.60895,-3.82289],[-80.59058,-3.82831],[-80.58808,-3.83481],[-80.57849,-3.83631],[-80.54498,-3.83591],[-80.53979,-3.84319],[-80.53951,-3.85354],[-80.54286,-3.85846],[-80.54265,-3.86991],[-80.55057,-3.88262],[-80.54022,-3.89908],[-80.52349,-3.90765],[-80.52932,-3.91732],[-80.53329,-3.93008],[-80.52884,-3.9389],[-80.53168,-3.94319],[-80.52999,-3.95957],[-80.52128,-3.97304],[-80.52433,-3.98463],[-80.52387,-4.00077],[-80.52766,-4.00207],[-80.51547,-4.01823],[-80.51654,-4.02429],[-80.52559,-4.02928],[-80.53809,-4.0285],[-80.55181,-4.05097],[-80.55866,-4.05662],[-80.55664,-4.06284],[-80.56107,-4.0662],[-80.56139,-4.0768],[-80.56714,-4.08464],[-80.565,-4.09378],[-80.56935,-4.10339],[-80.57889,-4.11069],[-80.57918,-4.1189],[-80.58341,-4.12927],[-80.58348,-4.13891],[-80.59548,-4.14678],[-80.60435,-4.1579],[-80.61251,-4.17194],[-80.6188,-4.17159],[-80.63564,-4.17926],[-80.63593,-4.19061],[-80.64545,-4.20603],[-80.65958,-4.21058],[-80.66645,-4.21506]]]}},{"type":"Feature","properties":{"ubigeo":"240203","nombre":"Canoas de Punta Sal"},"geometry":{"type":"Polygon","coordinates":[[[-80.84341,-4.18858],[-80.85053,-4.19099],[-80.8657,-4.18888],[-80.86988,-4.19187],[-80.88282,-4.1928],[-80.8889,-4.18661],[-80.89737,-4.18437],[-80.90077,-4.17942],[-80.91597,-4.17499],[-80.92831,-4.16903],[-80.93154,-4.17673],[-80.93638,-4.17824],[-80.94275,-4.169],[-80.95473,-4.17345],[-80.96756,-4.1726],[-80.97078,-4.16691],[-80.96189,-4.15049],[-80.96797,-4.14095],[-80.97132,-4.12712],[-80.97889,-4.12676],[-80.98778,-4.11713],[-80.99349,-4.11762],[-81.00065,-4.1112],[-81.01197,-4.11423],[-81.01992,-4.11216],[-81.02888,-4.10522],[-81.03812,-4.09348],[-81.04191,-4.08292],[-81.02227,-4.05401],[-81.01428,-4.04538],[-81.00585,-4.0306],[-80.98739,-3.98571],[-80.97692,-3.98016],[-80.97053,-3.9734],[-80.96242,-3.95754],[-80.95654,-3.9562],[-80.94206,-3.94469],[-80.93893,-3.94469],[-80.8881,-3.91353],[-80.8744,-3.89997],[-80.85453,-3.89319],[-80.84202,-3.88178],[-80.8126,-3.89328],[-80.80803,-3.90257],[-80.814,-3.9109],[-80.81285,-3.92965],[-80.80307,-3.93869],[-80.80257,-3.9491],[-80.79843,-3.95499],[-80.79066,-3.95662],[-80.77223,-3.9654],[-80.78467,-3.99142],[-80.77133,-3.99416],[-80.76404,-3.99328],[-80.72877,-4.01093],[-80.72855,-4.02003],[-80.73919,-4.02346],[-80.74858,-4.03181],[-80.76418,-4.03813],[-80.78683,-4.05631],[-80.80105,-4.06589],[-80.80502,-4.06575],[-80.81228,-4.0765],[-80.81707,-4.07655],[-80.83036,-4.09541],[-80.84024,-4.1001],[-80.8419,-4.10442],[-80.83358,-4.11235],[-80.81494,-4.11867],[-80.81435,-4.12873],[-80.82149,-4.13318],[-80.82021,-4.13992],[-80.82674,-4.14702],[-80.85063,-4.15992],[-80.85297,-4.16578],[-80.8605,-4.1672],[-80.86093,-4.1724],[-80.85087,-4.17804],[-80.84341,-4.18858]]]}},{"type":"Feature","properties":{"ubigeo":"240301","nombre":"Zarumilla"},"geometry":{"type":"Polygon","coordinates":[[[-80.24903,-3.52961],[-80.37883,-3.49461],[-80.38265,-3.49098],[-80.37191,-3.48572],[-80.35532,-3.47114],[-80.34446,-3.4594],[-80.32729,-3.43683],[-80.31889,-3.4208],[-80.31285,-3.4027],[-80.31563,-3.39829],[-80.31479,-3.38334],[-80.30796,-3.39295],[-80.29236,-3.4088],[-80.28521,-3.41276],[-80.2701,-3.41496],[-80.26021,-3.4126],[-80.24589,-3.41863],[-80.22546,-3.43294],[-80.22969,-3.43854],[-80.24342,-3.43868],[-80.25443,-3.44416],[-80.264,-3.44285],[-80.26818,-3.45082],[-80.25993,-3.46005],[-80.26761,-3.45716],[-80.27478,-3.45926],[-80.28244,-3.46594],[-80.2748,-3.47721],[-80.26979,-3.47922],[-80.26827,-3.4923],[-80.24903,-3.52961]]]}},{"type":"Feature","properties":{"ubigeo":"240302","nombre":"Aguas Verdes"},"geometry":{"type":"Polygon","coordinates":[[[-80.24903,-3.52961],[-80.26827,-3.4923],[-80.26979,-3.47922],[-80.2748,-3.47721],[-80.28244,-3.46594],[-80.27478,-3.45926],[-80.26761,-3.45716],[-80.25993,-3.46005],[-80.26818,-3.45082],[-80.264,-3.44285],[-80.25443,-3.44416],[-80.24342,-3.43868],[-80.22969,-3.43854],[-80.22546,-3.43294],[-80.22052,-3.44386],[-80.24032,-3.46173],[-80.23973,-3.47779],[-80.24389,-3.47845],[-80.24362,-3.48741],[-80.23655,-3.4862],[-80.23191,-3.49007],[-80.22853,-3.50113],[-80.21573,-3.5],[-80.21692,-3.51084],[-80.21071,-3.51856],[-80.21489,-3.52563],[-80.20617,-3.53452],[-80.21053,-3.53894],[-80.20541,-3.55108],[-80.21034,-3.55873],[-80.21166,-3.55195],[-80.22292,-3.55064],[-80.22131,-3.54449],[-80.22691,-3.5356],[-80.24903,-3.52961]]]}},{"type":"Feature","properties":{"ubigeo":"240303","nombre":"Matapalo"},"geometry":{"type":"Polygon","coordinates":[[[-80.305,-3.77257],[-80.30515,-3.76704],[-80.2993,-3.75861],[-80.30254,-3.74168],[-80.29817,-3.73008],[-80.30287,-3.71354],[-80.29879,-3.69016],[-80.3008,-3.68549],[-80.29583,-3.67384],[-80.30127,-3.65574],[-80.30901,-3.65166],[-80.31329,-3.64361],[-80.33779,-3.63147],[-80.34227,-3.62509],[-80.3423,-3.62312],[-80.27794,-3.6369],[-80.19716,-3.61771],[-80.19642,-3.6248],[-80.18662,-3.62913],[-80.18515,-3.6472],[-80.18746,-3.67141],[-80.19838,-3.68706],[-80.19361,-3.708],[-80.18502,-3.71534],[-80.18025,-3.7281],[-80.18081,-3.73858],[-80.18838,-3.74434],[-80.18342,-3.74844],[-80.19194,-3.74854],[-80.18853,-3.76254],[-80.19271,-3.77473],[-80.1852,-3.7753],[-80.17606,-3.79275],[-80.17281,-3.79092],[-80.16092,-3.80208],[-80.1593,-3.80861],[-80.16311,-3.82767],[-80.15855,-3.83569],[-80.15904,-3.84296],[-80.15271,-3.84851],[-80.15179,-3.8551],[-80.15786,-3.85877],[-80.15855,-3.86982],[-80.14858,-3.8801],[-80.13306,-3.89009],[-80.12837,-3.88802],[-80.12717,-3.89552],[-80.13919,-3.90777],[-80.14024,-3.91296],[-80.15781,-3.91315],[-80.16463,-3.92243],[-80.18074,-3.92583],[-80.19679,-3.91619],[-80.19624,-3.91145],[-80.21404,-3.90274],[-80.22152,-3.90139],[-80.23312,-3.90601],[-80.24359,-3.89754],[-80.24632,-3.90052],[-80.25879,-3.90211],[-80.26222,-3.8797],[-80.25258,-3.86836],[-80.25454,-3.84509],[-80.25845,-3.83745],[-80.25581,-3.83277],[-80.26023,-3.82255],[-80.26528,-3.81992],[-80.27172,-3.80511],[-80.28733,-3.79311],[-80.28607,-3.79003],[-80.305,-3.77257]]]}},{"type":"Feature","properties":{"ubigeo":"240304","nombre":"Papayal"},"geometry":{"type":"Polygon","coordinates":[[[-80.21034,-3.55873],[-80.21812,-3.57298],[-80.21113,-3.59221],[-80.19815,-3.59261],[-80.18877,-3.59793],[-80.19229,-3.61388],[-80.19716,-3.61771],[-80.27794,-3.6369],[-80.3423,-3.62312],[-80.34321,-3.61876],[-80.37883,-3.49461],[-80.24903,-3.52961],[-80.22691,-3.5356],[-80.22131,-3.54449],[-80.22292,-3.55064],[-80.21166,-3.55195],[-80.21034,-3.55873]]]}}]}