{"type":"FeatureCollection","features":[{"type":"Feature","properties":{"ubigeo":"250101","nombre":"Calleria"},"geometry":{"type":"Polygon","coordinates":[[[-73.54269,-8.3467],[-73.55875,-8.33688],[-73.56988,-8.34258],[-73.56693,-8.34779],[-73.57306,-8.35386],[-73.58711,-8.35378],[-73.5976,-8.35144],[-73.60999,-8.35952],[-73.62318,-8.3644],[-73.63081,-8.37425],[-73.64908,-8.40877],[-73.64632,-8.42411],[-73.64917,-8.43073],[-73.64823,-8.44542],[-73.65134,-8.45312],[-73.65234,-8.46587],[-73.65698,-8.47099],[-73.66511,-8.47211],[-73.68029,-8.46525],[-73.69218,-8.46388],[-73.71181,-8.44696],[-73.72129,-8.44519],[-73.73323,-8.45225],[-73.76498,-8.44667],[-73.7746,-8.45048],[-73.78455,-8.45936],[-73.79658,-8.46456],[-73.82775,-8.48773],[-73.84175,-8.49299],[-73.84671,-8.49206],[-73.86981,-8.47913],[-73.88585,-8.4755],[-73.9115,-8.47701],[-73.92759,-8.47654],[-73.94003,-8.47887],[-73.95493,-8.48551],[-73.96452,-8.48593],[-73.99354,-8.4786],[-74.01736,-8.48333],[-74.05446,-8.48927],[-74.11643,-8.4892],[-74.16327,-8.48081],[-74.24486,-8.45932],[-74.2515,-8.45446],[-74.26755,-8.45385],[-74.28071,-8.458],[-74.32246,-8.53177],[-74.36542,-8.52323],[-74.3835,-8.52202],[-74.40076,-8.51183],[-74.41561,-8.49593],[-74.41975,-8.48628],[-74.42421,-8.45845],[-74.42278,-8.42918],[-74.42804,-8.42011],[-74.44383,-8.40907],[-74.4554,-8.40702],[-74.47109,-8.42061],[-74.48971,-8.44043],[-74.49442,-8.43943],[-74.49649,-8.42799],[-74.49541,-8.4136],[-74.50647,-8.40642],[-74.51529,-8.39533],[-74.51857,-8.38629],[-74.52496,-8.39124],[-74.52308,-8.39607],[-74.53784,-8.39471],[-74.54568,-8.39617],[-74.55496,-8.39173],[-74.55357,-8.39828],[-74.56296,-8.39825],[-74.56426,-8.39395],[-74.57592,-8.39586],[-74.57393,-8.40508],[-74.56996,-8.40427],[-74.56847,-8.42078],[-74.66245,-8.46798],[-74.6628,-8.41434],[-74.65437,-8.41123],[-74.61343,-8.39989],[-74.55575,-8.38628],[-74.5584,-8.3757],[-74.55332,-8.3706],[-74.55552,-8.36006],[-74.52379,-8.27973],[-74.51276,-8.27264],[-74.52404,-8.26392],[-74.5345,-8.25257],[-74.53645,-8.24559],[-74.54959,-8.22967],[-74.56715,-8.21433],[-74.57862,-8.20882],[-74.59501,-8.19789],[-74.59994,-8.18249],[-74.6076,-8.17692],[-74.62114,-8.17884],[-74.63036,-8.18566],[-74.64125,-8.18953],[-74.65204,-8.18853],[-74.65455,-8.18204],[-74.65411,-8.16062],[-74.65187,-8.14877],[-74.6396,-8.12721],[-74.62953,-8.11725],[-74.60356,-8.08573],[-74.59736,-8.0711],[-74.60019,-8.05905],[-74.60663,-8.05376],[-74.61925,-8.05197],[-74.63879,-8.05407],[-74.65438,-8.05323],[-74.66764,-8.04981],[-74.69032,-8.03468],[-74.69592,-8.01967],[-74.69611,-8.00096],[-74.69146,-7.99203],[-74.68075,-7.98545],[-74.67024,-7.98269],[-74.65189,-7.97437],[-74.65148,-7.96663],[-74.66261,-7.96382],[-74.68245,-7.96402],[-74.69113,-7.96184],[-74.66844,-7.94564],[-74.6607,-7.94357],[-74.63388,-7.94187],[-74.62798,-7.93983],[-74.60436,-7.9008],[-74.60128,-7.87346],[-74.59669,-7.8614],[-74.56975,-7.81598],[-74.55712,-7.80884],[-74.54059,-7.7915],[-74.51711,-7.78357],[-74.51572,-7.77717],[-74.51955,-7.76098],[-74.52603,-7.75609],[-74.5432,-7.75562],[-74.55106,-7.74827],[-74.55789,-7.74848],[-74.56249,-7.73883],[-74.57165,-7.72689],[-74.58403,-7.69849],[-74.58346,-7.68507],[-74.57402,-7.67833],[-74.57082,-7.66849],[-74.57724,-7.63587],[-74.59103,-7.62858],[-74.5975,-7.61727],[-74.60758,-7.60991],[-74.6142,-7.59995],[-74.62753,-7.58602],[-74.64314,-7.56229],[-74.64468,-7.55389],[-74.64116,-7.53483],[-74.64553,-7.51748],[-74.6429,-7.50009],[-74.63063,-7.48158],[-74.61607,-7.43504],[-74.60782,-7.42812],[-74.59287,-7.42377],[-74.57952,-7.40993],[-74.57133,-7.38866],[-74.56601,-7.35971],[-74.55911,-7.35328],[-74.55668,-7.34152],[-74.5452,-7.32813],[-74.53571,-7.32025],[-74.53372,-7.30706],[-74.53573,-7.29443],[-74.52692,-7.28757],[-74.52074,-7.27601],[-74.51473,-7.27676],[-74.50177,-7.26608],[-74.50009,-7.26205],[-74.49678,-7.26626],[-74.47305,-7.27462],[-74.46834,-7.28304],[-74.46792,-7.29049],[-74.46265,-7.29894],[-74.45375,-7.29825],[-74.44412,-7.30714],[-74.4308,-7.30207],[-74.42271,-7.31147],[-74.39397,-7.31782],[-74.37018,-7.31727],[-74.3666,-7.3202],[-74.36157,-7.33661],[-74.35657,-7.33663],[-74.34764,-7.3431],[-74.31623,-7.35127],[-74.29344,-7.35357],[-74.27907,-7.35324],[-74.27059,-7.34678],[-74.26703,-7.34913],[-74.25902,-7.34405],[-74.24455,-7.34741],[-74.2381,-7.35784],[-74.21751,-7.36116],[-74.18847,-7.35827],[-74.18086,-7.35875],[-74.16944,-7.36446],[-74.16182,-7.37112],[-74.14164,-7.37777],[-74.14163,-7.38818],[-74.13839,-7.39635],[-74.12974,-7.40221],[-74.11539,-7.40607],[-74.1015,-7.41406],[-74.09209,-7.42232],[-74.06663,-7.43821],[-74.05004,-7.44604],[-74.03997,-7.44815],[-74.03519,-7.4663],[-74.03731,-7.47785],[-74.0338,-7.48486],[-74.01837,-7.49145],[-74.01339,-7.5124],[-73.99788,-7.51972],[-73.98303,-7.53436],[-73.97912,-7.56081],[-73.96663,-7.56469],[-73.9584,-7.56444],[-73.94186,-7.57926],[-73.92667,-7.58152],[-73.91075,-7.59687],[-73.89867,-7.59896],[-73.88946,-7.60318],[-73.89018,-7.61018],[-73.89552,-7.618],[-73.89472,-7.63465],[-73.90023,-7.64056],[-73.87965,-7.65613],[-73.87452,-7.66168],[-73.86908,-7.67407],[-73.85595,-7.67759],[-73.84464,-7.6674],[-73.83727,-7.6706],[-73.83453,-7.68327],[-73.83537,-7.69383],[-73.82246,-7.70052],[-73.81982,-7.71576],[-73.8099,-7.71943],[-73.80329,-7.71399],[-73.78986,-7.71739],[-73.77148,-7.72724],[-73.75852,-7.73115],[-73.74142,-7.73329],[-73.73555,-7.74411],[-73.73039,-7.74545],[-73.72599,-7.74008],[-73.71403,-7.74296],[-73.71172,-7.76091],[-73.70279,-7.76126],[-73.69758,-7.76667],[-73.68904,-7.76668],[-73.67858,-7.78339],[-73.68062,-7.7945],[-73.67631,-7.80003],[-73.68282,-7.81789],[-73.67837,-7.8424],[-73.67816,-7.85796],[-73.6888,-7.8692],[-73.69359,-7.86801],[-73.70611,-7.87654],[-73.72091,-7.8724],[-73.73545,-7.87881],[-73.74382,-7.87132],[-73.75827,-7.87067],[-73.76154,-7.8606],[-73.76582,-7.86622],[-73.75522,-7.89081],[-73.76511,-7.89537],[-73.77203,-7.90997],[-73.76701,-7.91041],[-73.75483,-7.92541],[-73.7397,-7.93079],[-73.74132,-7.93903],[-73.74779,-7.94668],[-73.74537,-7.94949],[-73.73149,-7.9518],[-73.72742,-7.96533],[-73.72076,-7.95819],[-73.71229,-7.96058],[-73.70542,-7.95507],[-73.7049,-7.96779],[-73.69733,-7.97769],[-73.69175,-7.97526],[-73.68067,-7.98464],[-73.68166,-7.99675],[-73.6689,-8.01229],[-73.65343,-8.01308],[-73.6403,-8.00651],[-73.63453,-8.01066],[-73.62963,-8.02313],[-73.62422,-8.0232],[-73.61685,-8.03425],[-73.61676,-8.03882],[-73.62596,-8.04975],[-73.62553,-8.05905],[-73.61652,-8.06906],[-73.60903,-8.08369],[-73.60861,-8.09032],[-73.60314,-8.09535],[-73.60078,-8.10362],[-73.58966,-8.11301],[-73.58477,-8.12684],[-73.58491,-8.13511],[-73.58894,-8.14103],[-73.58963,-8.15501],[-73.59547,-8.1658],[-73.58978,-8.1793],[-73.5892,-8.19594],[-73.5752,-8.21133],[-73.57146,-8.22464],[-73.58395,-8.23128],[-73.58739,-8.24086],[-73.57731,-8.24509],[-73.56491,-8.24489],[-73.552,-8.25656],[-73.53945,-8.26542],[-73.52936,-8.26739],[-73.526,-8.27436],[-73.5299,-8.28521],[-73.53745,-8.29597],[-73.53218,-8.30293],[-73.53404,-8.3066],[-73.52681,-8.31439],[-73.52643,-8.32113],[-73.53216,-8.33598],[-73.54269,-8.3467]]]}},{"type":"Feature","properties":{"ubigeo":"250102","nombre":"Campoverde"},"geometry":{"type":"Polygon","coordinates":[[[-74.66245,-8.46798],[-74.66215,-8.56111],[-74.68275,-8.57596],[-74.6925,-8.58118],[-74.79753,-8.63171],[-74.84668,-8.66124],[-74.84682,-8.67039],[-74.84155,-8.68227],[-74.84708,-8.68893],[-74.84869,-8.7028],[-74.84651,-8.71351],[-74.85071,-8.73001],[-74.85056,-8.75689],[-74.85291,-8.76438],[-74.86534,-8.78095],[-74.89574,-8.80476],[-74.91128,-8.82323],[-74.94071,-8.85789],[-74.95447,-8.86357],[-74.96615,-8.81858],[-74.96465,-8.80514],[-74.95661,-8.79141],[-74.94634,-8.77983],[-74.94193,-8.75766],[-74.94236,-8.74364],[-74.9456,-8.73076],[-74.94153,-8.72135],[-74.94397,-8.71016],[-74.95361,-8.70347],[-74.95844,-8.68502],[-74.96696,-8.67136],[-74.96443,-8.66664],[-74.96339,-8.64796],[-74.95456,-8.6329],[-74.95551,-8.62353],[-74.9502,-8.61399],[-74.95148,-8.60986],[-74.94273,-8.60426],[-74.93941,-8.59179],[-74.94708,-8.58133],[-74.94813,-8.57323],[-74.95979,-8.56634],[-74.96391,-8.55791],[-74.96436,-8.54694],[-74.9702,-8.53486],[-74.97852,-8.53034],[-74.97846,-8.52285],[-74.98848,-8.51824],[-74.98689,-8.51269],[-74.99924,-8.50515],[-75.00462,-8.48971],[-75.00374,-8.48309],[-75.01143,-8.47018],[-75.01372,-8.44918],[-75.02077,-8.44779],[-75.02828,-8.43306],[-75.02701,-8.42446],[-75.02964,-8.41615],[-75.02682,-8.41103],[-75.01652,-8.41086],[-75.01282,-8.40717],[-75.01238,-8.39656],[-75.01592,-8.39232],[-75.00703,-8.38999],[-75.00484,-8.38063],[-75.00966,-8.37593],[-75.01163,-8.36858],[-75.02147,-8.35765],[-75.02183,-8.34697],[-75.01166,-8.34564],[-75.00593,-8.35713],[-75.0001,-8.35953],[-74.98639,-8.35468],[-74.97491,-8.34698],[-74.96107,-8.34785],[-74.96106,-8.34081],[-74.96649,-8.33294],[-74.96258,-8.32917],[-74.94637,-8.33296],[-74.94452,-8.34072],[-74.9468,-8.35249],[-74.94245,-8.35846],[-74.93504,-8.35838],[-74.93142,-8.36319],[-74.92358,-8.36436],[-74.91537,-8.36071],[-74.89246,-8.36094],[-74.87988,-8.36627],[-74.87212,-8.39049],[-74.86851,-8.39175],[-74.81798,-8.37421],[-74.81471,-8.3706],[-74.79045,-8.25698],[-74.78,-8.25408],[-74.77795,-8.25951],[-74.75733,-8.28771],[-74.72771,-8.34725],[-74.71446,-8.36139],[-74.70588,-8.37492],[-74.69244,-8.3782],[-74.67748,-8.37628],[-74.66505,-8.35773],[-74.65933,-8.354],[-74.65784,-8.36565],[-74.66574,-8.37947],[-74.6685,-8.39872],[-74.6628,-8.41434],[-74.66245,-8.46798]]]}},{"type":"Feature","properties":{"ubigeo":"250103","nombre":"Iparia"},"geometry":{"type":"Polygon","coordinates":[[[-73.17947,-10.09385],[-73.19372,-10.082],[-73.19439,-10.05785],[-73.19703,-10.04765],[-73.19413,-10.03576],[-73.18881,-10.02719],[-73.18716,-10.01834],[-73.19454,-10.01023],[-73.2193,-9.99931],[-73.22276,-9.98317],[-73.22143,-9.9722],[-73.22615,-9.96793],[-73.24243,-9.96381],[-73.26795,-9.95227],[-73.28319,-9.93832],[-73.30135,-9.90454],[-73.30922,-9.89299],[-73.31575,-9.88883],[-73.32822,-9.88577],[-73.35524,-9.8727],[-73.37038,-9.86162],[-73.37543,-9.84786],[-73.37097,-9.82678],[-73.37503,-9.82441],[-73.39347,-9.82257],[-73.42898,-9.80625],[-73.43845,-9.80525],[-73.44814,-9.79822],[-73.45935,-9.79561],[-73.46351,-9.77661],[-73.4635,-9.76317],[-73.46938,-9.75078],[-73.48931,-9.73366],[-73.49754,-9.73099],[-73.51781,-9.715],[-73.53372,-9.71116],[-73.53778,-9.70767],[-73.54747,-9.68955],[-73.56044,-9.67573],[-73.57008,-9.65745],[-73.58372,-9.65568],[-73.60919,-9.64441],[-73.61885,-9.63058],[-73.62879,-9.61041],[-73.64306,-9.59039],[-73.66531,-9.57197],[-73.66628,-9.56621],[-73.65987,-9.55143],[-73.66321,-9.54309],[-73.67669,-9.53697],[-73.69049,-9.52775],[-73.70622,-9.53299],[-73.74339,-9.54035],[-73.75901,-9.53177],[-73.77737,-9.53225],[-73.80701,-9.52801],[-73.82096,-9.53197],[-73.83729,-9.55196],[-73.85321,-9.56881],[-73.8678,-9.58975],[-73.87554,-9.59656],[-73.89362,-9.60369],[-73.92527,-9.60758],[-73.94312,-9.60747],[-73.95975,-9.61079],[-73.97505,-9.62727],[-73.98578,-9.63518],[-74.00771,-9.64598],[-74.0379,-9.65556],[-74.04755,-9.65583],[-74.05956,-9.66894],[-74.06946,-9.68661],[-74.06441,-9.7015],[-74.06579,-9.70554],[-74.08299,-9.71068],[-74.1038,-9.71234],[-74.11845,-9.70584],[-74.13261,-9.70219],[-74.14443,-9.70464],[-74.1524,-9.70968],[-74.16638,-9.72864],[-74.17992,-9.75312],[-74.18398,-9.7638],[-74.19863,-9.77006],[-74.21632,-9.77334],[-74.25342,-9.77173],[-74.26709,-9.7773],[-74.28396,-9.78703],[-74.29063,-9.79301],[-74.29262,-9.8031],[-74.29948,-9.80753],[-74.31696,-9.80158],[-74.32032,-9.81825],[-74.31967,-9.82635],[-74.32422,-9.83267],[-74.33001,-9.83333],[-74.3358,-9.84852],[-74.33307,-9.8601],[-74.33846,-9.86598],[-74.34361,-9.85949],[-74.35743,-9.85504],[-74.36806,-9.8463],[-74.37099,-9.85012],[-74.37169,-9.86242],[-74.37585,-9.86927],[-74.35922,-9.89291],[-74.36177,-9.9033],[-74.36692,-9.90632],[-74.37375,-9.91893],[-74.39258,-9.92961],[-74.39861,-9.9398],[-74.41233,-9.95396],[-74.41556,-9.94517],[-74.41147,-9.93616],[-74.41665,-9.93082],[-74.41103,-9.9157],[-74.41455,-9.90211],[-74.42794,-9.88788],[-74.4331,-9.87606],[-74.43757,-9.87238],[-74.4502,-9.87023],[-74.45333,-9.86276],[-74.45047,-9.85499],[-74.45115,-9.81067],[-74.44724,-9.77715],[-74.45001,-9.77211],[-74.45536,-9.74598],[-74.46548,-9.73433],[-74.47409,-9.73012],[-74.4842,-9.69496],[-74.49014,-9.6852],[-74.49183,-9.66198],[-74.49445,-9.6576],[-74.48965,-9.65327],[-74.49729,-9.6376],[-74.49073,-9.61878],[-74.49389,-9.61612],[-74.49477,-9.59114],[-74.51081,-9.5941],[-74.51651,-9.59188],[-74.53165,-9.5921],[-74.55693,-9.57715],[-74.56823,-9.5764],[-74.57556,-9.57049],[-74.57324,-9.55089],[-74.58238,-9.53374],[-74.58162,-9.52701],[-74.59317,-9.50962],[-74.59152,-9.50307],[-74.58318,-9.49844],[-74.57822,-9.48217],[-74.58109,-9.4766],[-74.60831,-9.47209],[-74.62245,-9.46111],[-74.66396,-9.45434],[-74.67596,-9.44691],[-74.68907,-9.4349],[-74.69767,-9.43564],[-74.70942,-9.42221],[-74.70496,-9.41671],[-74.69635,-9.41794],[-74.69251,-9.41079],[-74.68328,-9.40718],[-74.67275,-9.38888],[-74.66393,-9.38715],[-74.65783,-9.38201],[-74.65632,-9.3702],[-74.64889,-9.36649],[-74.63623,-9.36944],[-74.62661,-9.36306],[-74.62537,-9.35021],[-74.61557,-9.33988],[-74.60709,-9.3215],[-74.59394,-9.30947],[-74.58715,-9.29558],[-74.59121,-9.29109],[-74.5899,-9.26717],[-74.60231,-9.25068],[-74.60662,-9.24824],[-74.61529,-9.23798],[-74.61663,-9.23033],[-74.62447,-9.21556],[-74.62697,-9.19705],[-74.63609,-9.17296],[-74.63956,-9.15968],[-74.64098,-9.1418],[-74.63654,-9.12551],[-74.64071,-9.11856],[-74.6548,-9.11384],[-74.67186,-9.11054],[-74.67546,-9.1071],[-74.67809,-9.09404],[-74.67132,-9.0833],[-74.66488,-9.07959],[-74.65706,-9.0686],[-74.65137,-9.04877],[-74.66406,-9.03392],[-74.66916,-9.02026],[-74.66171,-9.00383],[-74.65108,-8.99983],[-74.6478,-8.98957],[-74.65274,-8.97958],[-74.64945,-8.96331],[-74.64729,-8.93808],[-74.64431,-8.91878],[-74.63638,-8.91225],[-74.62422,-8.88873],[-74.62141,-8.84557],[-74.61629,-8.82795],[-74.60892,-8.82023],[-74.58809,-8.81265],[-74.577,-8.80069],[-74.57287,-8.79265],[-74.55022,-8.78263],[-74.53218,-8.77613],[-74.53144,-8.79323],[-74.52614,-8.80515],[-74.49749,-8.82109],[-74.49394,-8.82999],[-74.49229,-8.8563],[-74.48911,-8.87145],[-74.4722,-8.89794],[-74.46921,-8.90524],[-74.45038,-8.91957],[-74.44302,-8.92334],[-74.43385,-8.93704],[-74.42322,-8.96299],[-74.40172,-8.98812],[-74.38791,-8.99969],[-74.31957,-9.03994],[-74.28995,-9.06538],[-74.26631,-9.09112],[-74.2447,-9.12891],[-74.23897,-9.16254],[-74.22867,-9.20794],[-74.22256,-9.2115],[-74.19689,-9.21565],[-74.17511,-9.22651],[-74.15614,-9.23032],[-74.14857,-9.21348],[-74.14937,-9.20163],[-74.13952,-9.1892],[-74.13901,-9.18189],[-74.132,-9.17408],[-74.1328,-9.15816],[-74.13686,-9.14356],[-74.13497,-9.13646],[-74.10316,-9.1425],[-74.06291,-9.17034],[-74.03325,-9.18619],[-74.01374,-9.20947],[-73.96788,-9.24648],[-73.95865,-9.25513],[-73.91782,-9.30278],[-73.90021,-9.31929],[-73.8665,-9.34344],[-73.84255,-9.37121],[-73.81981,-9.40583],[-73.80391,-9.42656],[-73.79069,-9.43475],[-73.76808,-9.44366],[-73.75785,-9.44476],[-73.74087,-9.4498],[-73.72833,-9.45667],[-73.65276,-9.47641],[-73.61929,-9.48863],[-73.61006,-9.4933],[-73.60198,-9.50248],[-73.59119,-9.50876],[-73.55605,-9.53785],[-73.54188,-9.54665],[-73.52708,-9.56544],[-73.52021,-9.56971],[-73.50924,-9.5706],[-73.50037,-9.57686],[-73.49498,-9.58643],[-73.48763,-9.59257],[-73.47426,-9.59694],[-73.43302,-9.61623],[-73.41862,-9.62878],[-73.40758,-9.6302],[-73.38683,-9.64108],[-73.35432,-9.65317],[-73.33864,-9.6626],[-73.32615,-9.67243],[-73.31271,-9.67826],[-73.30255,-9.67892],[-73.27658,-9.68421],[-73.27156,-9.6879],[-73.26921,-9.69773],[-73.26255,-9.70478],[-73.25353,-9.70901],[-73.24656,-9.71975],[-73.24293,-9.7311],[-73.24653,-9.75185],[-73.24217,-9.75534],[-73.24411,-9.76531],[-73.24027,-9.76912],[-73.23601,-9.7832],[-73.2379,-9.78904],[-73.22907,-9.79515],[-73.23132,-9.80505],[-73.22953,-9.81453],[-73.21776,-9.82747],[-73.22517,-9.83316],[-73.22849,-9.84651],[-73.22347,-9.85126],[-73.20888,-9.85396],[-73.20255,-9.8668],[-73.18884,-9.87097],[-73.17075,-9.86346],[-73.13968,-9.86683],[-73.13047,-9.87206],[-73.11813,-9.87217],[-73.1032,-9.87523],[-73.09754,-9.88167],[-73.09682,-9.88868],[-73.11404,-9.90284],[-73.11003,-9.91271],[-73.10988,-9.92328],[-73.10273,-9.92555],[-73.10194,-9.93297],[-73.09239,-9.94352],[-73.09318,-9.94954],[-73.07145,-9.96313],[-73.06664,-9.97263],[-73.06974,-9.97878],[-73.08073,-9.98861],[-73.0983,-9.98696],[-73.10396,-10.00183],[-73.10255,-10.00996],[-73.11741,-10.02081],[-73.12296,-10.02193],[-73.14585,-10.03777],[-73.15274,-10.03953],[-73.15617,-10.05711],[-73.17133,-10.07854],[-73.17947,-10.09385]]]}},{"type":"Feature","properties":{"ubigeo":"250104","nombre":"Masisea"},"geometry":{"type":"Polygon","coordinates":[[[-73.20044,-9.4114],[-73.19887,-9.42091],[-73.19171,-9.42901],[-73.20464,-9.44435],[-73.19928,-9.45612],[-73.19381,-9.46093],[-73.19624,-9.46784],[-73.20541,-9.47433],[-73.20617,-9.48432],[-73.19823,-9.49561],[-73.19813,-9.50904],[-73.18963,-9.5268],[-73.19061,-9.53117],[-73.20088,-9.53999],[-73.20398,-9.56002],[-73.19922,-9.56589],[-73.21248,-9.57415],[-73.21314,-9.59017],[-73.2186,-9.62209],[-73.22492,-9.63222],[-73.22425,-9.63977],[-73.21592,-9.64549],[-73.21893,-9.66304],[-73.22714,-9.65685],[-73.24507,-9.65842],[-73.24915,-9.66337],[-73.2734,-9.66459],[-73.26766,-9.67834],[-73.27658,-9.68421],[-73.30255,-9.67892],[-73.31271,-9.67826],[-73.32615,-9.67243],[-73.33864,-9.6626],[-73.35432,-9.65317],[-73.38683,-9.64108],[-73.40758,-9.6302],[-73.41862,-9.62878],[-73.43302,-9.61623],[-73.47426,-9.59694],[-73.48763,-9.59257],[-73.49498,-9.58643],[-73.50037,-9.57686],[-73.50924,-9.5706],[-73.52021,-9.56971],[-73.52708,-9.56544],[-73.54188,-9.54665],[-73.55605,-9.53785],[-73.59119,-9.50876],[-73.60198,-9.50248],[-73.61006,-9.4933],[-73.61929,-9.48863],[-73.65276,-9.47641],[-73.72833,-9.45667],[-73.74087,-9.4498],[-73.75785,-9.44476],[-73.76808,-9.44366],[-73.79069,-9.43475],[-73.80391,-9.42656],[-73.81981,-9.40583],[-73.84255,-9.37121],[-73.8665,-9.34344],[-73.90021,-9.31929],[-73.91782,-9.30278],[-73.95865,-9.25513],[-73.96788,-9.24648],[-74.01374,-9.20947],[-74.03325,-9.18619],[-74.06291,-9.17034],[-74.10316,-9.1425],[-74.13497,-9.13646],[-74.13686,-9.14356],[-74.1328,-9.15816],[-74.132,-9.17408],[-74.13901,-9.18189],[-74.13952,-9.1892],[-74.14937,-9.20163],[-74.14857,-9.21348],[-74.15614,-9.23032],[-74.17511,-9.22651],[-74.19689,-9.21565],[-74.22256,-9.2115],[-74.22867,-9.20794],[-74.23897,-9.16254],[-74.2447,-9.12891],[-74.26631,-9.09112],[-74.28995,-9.06538],[-74.31957,-9.03994],[-74.38791,-8.99969],[-74.40172,-8.98812],[-74.42322,-8.96299],[-74.43385,-8.93704],[-74.44302,-8.92334],[-74.45038,-8.91957],[-74.46921,-8.90524],[-74.4722,-8.89794],[-74.48911,-8.87145],[-74.49229,-8.8563],[-74.49394,-8.82999],[-74.49749,-8.82109],[-74.52614,-8.80515],[-74.53144,-8.79323],[-74.53218,-8.77613],[-74.52535,-8.74932],[-74.48594,-8.72464],[-74.45204,-8.69509],[-74.44836,-8.68912],[-74.44298,-8.66984],[-74.43607,-8.65692],[-74.42487,-8.63035],[-74.41779,-8.61887],[-74.42387,-8.58021],[-74.42322,-8.57439],[-74.40466,-8.56542],[-74.37805,-8.5568],[-74.3591,-8.55205],[-74.3399,-8.5398],[-74.32246,-8.53177],[-74.28071,-8.458],[-74.26755,-8.45385],[-74.2515,-8.45446],[-74.24486,-8.45932],[-74.16327,-8.48081],[-74.11643,-8.4892],[-74.05446,-8.48927],[-74.01736,-8.48333],[-73.99354,-8.4786],[-73.96452,-8.48593],[-73.95493,-8.48551],[-73.94003,-8.47887],[-73.92759,-8.47654],[-73.9115,-8.47701],[-73.88585,-8.4755],[-73.86981,-8.47913],[-73.84671,-8.49206],[-73.84175,-8.49299],[-73.82775,-8.48773],[-73.79658,-8.46456],[-73.78455,-8.45936],[-73.7746,-8.45048],[-73.76498,-8.44667],[-73.73323,-8.45225],[-73.72129,-8.44519],[-73.71181,-8.44696],[-73.69218,-8.46388],[-73.68029,-8.46525],[-73.66511,-8.47211],[-73.65698,-8.47099],[-73.65234,-8.46587],[-73.65134,-8.45312],[-73.64823,-8.44542],[-73.64917,-8.43073],[-73.64632,-8.42411],[-73.64908,-8.40877],[-73.63081,-8.37425],[-73.62318,-8.3644],[-73.60999,-8.35952],[-73.5976,-8.35144],[-73.58711,-8.35378],[-73.57306,-8.35386],[-73.56693,-8.34779],[-73.56988,-8.34258],[-73.55875,-8.33688],[-73.54269,-8.3467],[-73.53827,-8.35239],[-73.52512,-8.3567],[-73.5206,-8.36225],[-73.52033,-8.3727],[-73.51197,-8.37301],[-73.48529,-8.38422],[-73.47979,-8.39152],[-73.47288,-8.39472],[-73.46148,-8.40714],[-73.45474,-8.41164],[-73.44131,-8.4254],[-73.43059,-8.42887],[-73.42169,-8.43469],[-73.40776,-8.43061],[-73.40012,-8.43919],[-73.39857,-8.4502],[-73.39059,-8.45785],[-73.38916,-8.46944],[-73.38351,-8.47069],[-73.378,-8.46423],[-73.37312,-8.47179],[-73.35929,-8.47045],[-73.34536,-8.47532],[-73.3398,-8.47063],[-73.33098,-8.47586],[-73.33246,-8.48397],[-73.32875,-8.4979],[-73.33076,-8.51141],[-73.32901,-8.52405],[-73.33424,-8.53105],[-73.33431,-8.54147],[-73.33774,-8.57556],[-73.34414,-8.60274],[-73.34104,-8.61678],[-73.33778,-8.62058],[-73.32845,-8.61714],[-73.32598,-8.61049],[-73.31967,-8.61062],[-73.31306,-8.61808],[-73.31025,-8.63305],[-73.30427,-8.62922],[-73.29614,-8.63958],[-73.29691,-8.64723],[-73.2845,-8.66477],[-73.26569,-8.67133],[-73.2566,-8.68005],[-73.25815,-8.68781],[-73.25119,-8.69064],[-73.23718,-8.68679],[-73.21783,-8.69165],[-73.20392,-8.68781],[-73.1909,-8.69328],[-73.17912,-8.69123],[-73.16724,-8.6983],[-73.15668,-8.7124],[-73.15016,-8.72483],[-73.1435,-8.72709],[-73.13598,-8.73912],[-73.14017,-8.74768],[-73.13414,-8.76736],[-73.11992,-8.77713],[-73.11426,-8.78551],[-73.11201,-8.8193],[-73.10539,-8.82273],[-73.09523,-8.83664],[-73.07899,-8.84128],[-73.07985,-8.86065],[-73.07239,-8.86152],[-73.07015,-8.87836],[-73.0591,-8.89591],[-73.05901,-8.90561],[-73.0371,-8.91618],[-73.02657,-8.916],[-73.01976,-8.91136],[-73.0111,-8.91854],[-73.00127,-8.91691],[-72.98744,-8.93584],[-72.97646,-8.96663],[-72.96888,-8.97994],[-72.96238,-8.98376],[-72.95113,-8.98131],[-72.94167,-8.98377],[-72.94288,-8.99152],[-72.95707,-8.99977],[-72.9631,-9.01285],[-72.95783,-9.02186],[-72.94795,-9.02887],[-72.94719,-9.0452],[-72.94319,-9.05221],[-72.94769,-9.06013],[-72.94912,-9.07208],[-72.94276,-9.08079],[-72.93999,-9.09325],[-72.94532,-9.10394],[-72.9461,-9.11909],[-72.95764,-9.13572],[-72.9591,-9.14342],[-72.96735,-9.14321],[-72.96645,-9.1475],[-72.99016,-9.16203],[-72.9966,-9.15961],[-73.00503,-9.16166],[-73.01178,-9.17413],[-73.02238,-9.17474],[-73.02682,-9.18071],[-73.01513,-9.1863],[-73.01188,-9.19535],[-73.00425,-9.19416],[-73.00397,-9.21099],[-73.00799,-9.21302],[-73.0093,-9.22236],[-73.0249,-9.22156],[-73.0246,-9.22647],[-73.03413,-9.23377],[-73.04342,-9.23496],[-73.0505,-9.22936],[-73.06409,-9.22769],[-73.06507,-9.23206],[-73.07352,-9.23461],[-73.08121,-9.24452],[-73.08256,-9.25096],[-73.09436,-9.26928],[-73.10647,-9.27419],[-73.10943,-9.28278],[-73.10719,-9.29104],[-73.10043,-9.30168],[-73.10143,-9.30812],[-73.11583,-9.3176],[-73.12232,-9.31443],[-73.13141,-9.31832],[-73.13518,-9.33172],[-73.14809,-9.33672],[-73.15057,-9.34855],[-73.14745,-9.35299],[-73.16938,-9.36039],[-73.17667,-9.35501],[-73.18091,-9.36089],[-73.18876,-9.36322],[-73.1914,-9.38884],[-73.18693,-9.39904],[-73.20023,-9.40369],[-73.20044,-9.4114]]]}},{"type":"Feature","properties":{"ubigeo":"250105","nombre":"Yarinacocha"},"geometry":{"type":"Polygon","coordinates":[[[-74.78,-8.25408],[-74.78053,-8.2283],[-74.77252,-8.20468],[-74.7672,-8.16121],[-74.76511,-8.15477],[-74.74744,-8.14239],[-74.71826,-8.11849],[-74.71798,-8.10743],[-74.70564,-8.09876],[-74.70545,-8.08958],[-74.71389,-8.08456],[-74.71146,-8.07887],[-74.69376,-8.08396],[-74.68646,-8.09189],[-74.67986,-8.08627],[-74.66425,-8.08237],[-74.66341,-8.07652],[-74.67066,-8.07051],[-74.66616,-8.0647],[-74.65368,-8.06161],[-74.65438,-8.05323],[-74.63879,-8.05407],[-74.61925,-8.05197],[-74.60663,-8.05376],[-74.60019,-8.05905],[-74.59736,-8.0711],[-74.60356,-8.08573],[-74.62953,-8.11725],[-74.6396,-8.12721],[-74.65187,-8.14877],[-74.65411,-8.16062],[-74.65455,-8.18204],[-74.65204,-8.18853],[-74.64125,-8.18953],[-74.63036,-8.18566],[-74.62114,-8.17884],[-74.6076,-8.17692],[-74.59994,-8.18249],[-74.59501,-8.19789],[-74.57862,-8.20882],[-74.56715,-8.21433],[-74.54959,-8.22967],[-74.53645,-8.24559],[-74.5345,-8.25257],[-74.52404,-8.26392],[-74.51276,-8.27264],[-74.52379,-8.27973],[-74.55552,-8.36006],[-74.55332,-8.3706],[-74.5584,-8.3757],[-74.55575,-8.38628],[-74.61343,-8.39989],[-74.65437,-8.41123],[-74.6628,-8.41434],[-74.6685,-8.39872],[-74.66574,-8.37947],[-74.65784,-8.36565],[-74.65933,-8.354],[-74.66505,-8.35773],[-74.67748,-8.37628],[-74.69244,-8.3782],[-74.70588,-8.37492],[-74.71446,-8.36139],[-74.72771,-8.34725],[-74.75733,-8.28771],[-74.77795,-8.25951],[-74.78,-8.25408]]]}},{"type":"Feature","properties":{"ubigeo":"250106","nombre":"Nueva Requena"},"geometry":{"type":"Polygon","coordinates":[[[-74.65438,-8.05323],[-74.65368,-8.06161],[-74.66616,-8.0647],[-74.67066,-8.07051],[-74.66341,-8.07652],[-74.66425,-8.08237],[-74.67986,-8.08627],[-74.68646,-8.09189],[-74.69376,-8.08396],[-74.71146,-8.07887],[-74.71389,-8.08456],[-74.70545,-8.08958],[-74.70564,-8.09876],[-74.71798,-8.10743],[-74.71826,-8.11849],[-74.74744,-8.14239],[-74.76511,-8.15477],[-74.7672,-8.16121],[-74.77252,-8.20468],[-74.78053,-8.2283],[-74.78,-8.25408],[-74.79045,-8.25698],[-74.81471,-8.3706],[-74.81798,-8.37421],[-74.86851,-8.39175],[-74.87212,-8.39049],[-74.87988,-8.36627],[-74.89246,-8.36094],[-74.91537,-8.36071],[-74.92358,-8.36436],[-74.93142,-8.36319],[-74.93504,-8.35838],[-74.94245,-8.35846],[-74.9468,-8.35249],[-74.94452,-8.34072],[-74.94637,-8.33296],[-74.96258,-8.32917],[-74.96649,-8.33294],[-74.96106,-8.34081],[-74.96107,-8.34785],[-74.97491,-8.34698],[-74.98639,-8.35468],[-75.0001,-8.35953],[-75.00593,-8.35713],[-75.01166,-8.34564],[-75.02183,-8.34697],[-75.02147,-8.35765],[-75.01163,-8.36858],[-75.00966,-8.37593],[-75.01903,-8.37171],[-75.02664,-8.36286],[-75.03232,-8.33129],[-75.04036,-8.31256],[-75.05124,-8.30402],[-75.0539,-8.29794],[-75.06915,-8.28032],[-75.08145,-8.2739],[-75.09563,-8.26987],[-75.10168,-8.27106],[-75.11035,-8.26555],[-75.1144,-8.268],[-75.13029,-8.2658],[-75.1311,-8.27213],[-75.14261,-8.27271],[-75.15115,-8.26478],[-75.1569,-8.268],[-75.17263,-8.26707],[-75.18457,-8.25727],[-75.20303,-8.25727],[-75.21097,-8.24474],[-75.21661,-8.24042],[-75.23674,-8.24103],[-75.24548,-8.2446],[-75.25803,-8.25509],[-75.26508,-8.25693],[-75.27104,-8.26348],[-75.28603,-8.26063],[-75.29032,-8.25668],[-75.30128,-8.25664],[-75.3166,-8.2536],[-75.33294,-8.24776],[-75.35415,-8.24718],[-75.37852,-8.24438],[-75.39603,-8.23597],[-75.41573,-8.24366],[-75.42032,-8.23586],[-75.43651,-8.23002],[-75.44454,-8.21513],[-75.45297,-8.21007],[-75.4486,-8.20261],[-75.43763,-8.19485],[-75.43924,-8.17487],[-75.4301,-8.1666],[-75.4153,-8.17054],[-75.40145,-8.16972],[-75.39118,-8.16253],[-75.38995,-8.15226],[-75.37615,-8.13878],[-75.36549,-8.13788],[-75.34378,-8.12922],[-75.33049,-8.13376],[-75.32895,-8.13828],[-75.31127,-8.13612],[-75.2978,-8.12632],[-75.2878,-8.12551],[-75.27951,-8.13181],[-75.26692,-8.13589],[-75.26049,-8.1476],[-75.24388,-8.15552],[-75.2347,-8.14985],[-75.23578,-8.1404],[-75.22717,-8.13216],[-75.21457,-8.12714],[-75.20954,-8.11624],[-75.21253,-8.1008],[-75.20509,-8.09819],[-75.20438,-8.08887],[-75.19599,-8.08596],[-75.18978,-8.07993],[-75.189,-8.06905],[-75.19567,-8.0544],[-75.19037,-8.04869],[-75.18632,-8.03568],[-75.18731,-8.02529],[-75.18434,-8.0166],[-75.17497,-8.01338],[-75.16768,-8.00522],[-75.14943,-8.00182],[-75.14616,-7.99451],[-75.14586,-7.98128],[-75.14249,-7.97864],[-75.1212,-7.9789],[-75.09222,-7.97368],[-75.07056,-7.96047],[-75.03335,-7.95005],[-75.01596,-7.96521],[-75.00553,-7.97015],[-74.98226,-7.96899],[-74.96314,-7.99415],[-74.9534,-8.01271],[-74.94645,-8.0211],[-74.93357,-8.03165],[-74.92902,-8.04121],[-74.90791,-8.0662],[-74.89644,-8.08127],[-74.8844,-8.0839],[-74.86588,-8.07693],[-74.84038,-8.05835],[-74.81931,-8.05748],[-74.7877,-8.04679],[-74.77126,-8.03606],[-74.76057,-8.01641],[-74.72794,-7.98101],[-74.71128,-7.979],[-74.69113,-7.96184],[-74.68245,-7.96402],[-74.66261,-7.96382],[-74.65148,-7.96663],[-74.65189,-7.97437],[-74.67024,-7.98269],[-74.68075,-7.98545],[-74.69146,-7.99203],[-74.69611,-8.00096],[-74.69592,-8.01967],[-74.69032,-8.03468],[-74.66764,-8.04981],[-74.65438,-8.05323]]]}},{"type":"Feature","properties":{"ubigeo":"250107","nombre":"Manantay"},"geometry":{"type":"Polygon","coordinates":[[[-74.52535,-8.74932],[-74.52779,-8.71097],[-74.53612,-8.62986],[-74.54375,-8.5937],[-74.54713,-8.58457],[-74.55694,-8.57307],[-74.57757,-8.55379],[-74.58975,-8.54872],[-74.61782,-8.54872],[-74.64419,-8.55413],[-74.66215,-8.56111],[-74.66245,-8.46798],[-74.56847,-8.42078],[-74.56996,-8.40427],[-74.57393,-8.40508],[-74.57592,-8.39586],[-74.56426,-8.39395],[-74.56296,-8.39825],[-74.55357,-8.39828],[-74.55496,-8.39173],[-74.54568,-8.39617],[-74.53784,-8.39471],[-74.52308,-8.39607],[-74.52496,-8.39124],[-74.51857,-8.38629],[-74.51529,-8.39533],[-74.50647,-8.40642],[-74.49541,-8.4136],[-74.49649,-8.42799],[-74.49442,-8.43943],[-74.48971,-8.44043],[-74.47109,-8.42061],[-74.4554,-8.40702],[-74.44383,-8.40907],[-74.42804,-8.42011],[-74.42278,-8.42918],[-74.42421,-8.45845],[-74.41975,-8.48628],[-74.41561,-8.49593],[-74.40076,-8.51183],[-74.3835,-8.52202],[-74.36542,-8.52323],[-74.32246,-8.53177],[-74.3399,-8.5398],[-74.3591,-8.55205],[-74.37805,-8.5568],[-74.40466,-8.56542],[-74.42322,-8.57439],[-74.42387,-8.58021],[-74.41779,-8.61887],[-74.42487,-8.63035],[-74.43607,-8.65692],[-74.44298,-8.66984],[-74.44836,-8.68912],[-74.45204,-8.69509],[-74.48594,-8.72464],[-74.52535,-8.74932]]]}},{"type":"Feature","properties":{"ubigeo":"250201","nombre":"Raymondi"},"geometry":{"type":"Polygon","coordinates":[[[-72.48435,-10.79219],[-72.49709,-10.78706],[-72.50819,-10.79003],[-72.52083,-10.78893],[-72.52738,-10.77702],[-72.54925,-10.77024],[-72.55588,-10.76367],[-72.5649,-10.76419],[-72.57149,-10.75895],[-72.59462,-10.75454],[-72.60865,-10.75687],[-72.62876,-10.73948],[-72.634,-10.73962],[-72.64706,-10.73215],[-72.65781,-10.71551],[-72.66871,-10.70917],[-72.67959,-10.71068],[-72.69051,-10.7044],[-72.70104,-10.70465],[-72.71363,-10.71779],[-72.72446,-10.71947],[-72.73604,-10.71517],[-72.75114,-10.72323],[-72.76094,-10.73529],[-72.77489,-10.74327],[-72.78213,-10.76468],[-72.7878,-10.76873],[-72.80097,-10.76962],[-72.81233,-10.77555],[-72.81865,-10.78794],[-72.82751,-10.79059],[-72.8396,-10.78959],[-72.84938,-10.78269],[-72.86085,-10.77858],[-72.86936,-10.77007],[-72.88493,-10.7745],[-72.89283,-10.77356],[-72.91528,-10.77626],[-72.92515,-10.77335],[-72.93736,-10.76311],[-72.94838,-10.77271],[-72.95235,-10.79044],[-72.95715,-10.79492],[-72.98196,-10.80685],[-72.99427,-10.82206],[-73.00523,-10.83032],[-73.02196,-10.81297],[-73.0319,-10.8076],[-73.03835,-10.79876],[-73.06833,-10.79627],[-73.0728,-10.79854],[-73.08765,-10.79837],[-73.09505,-10.80676],[-73.11541,-10.81028],[-73.12145,-10.80695],[-73.1333,-10.79264],[-73.1532,-10.79453],[-73.16237,-10.78744],[-73.17567,-10.78393],[-73.19859,-10.78241],[-73.20769,-10.77845],[-73.22974,-10.77571],[-73.23843,-10.7776],[-73.25658,-10.78722],[-73.27964,-10.79125],[-73.29212,-10.7998],[-73.31083,-10.80328],[-73.32094,-10.81669],[-73.3235,-10.84077],[-73.30946,-10.87169],[-73.30666,-10.88568],[-73.30677,-10.91662],[-73.31053,-10.92814],[-73.31285,-10.94888],[-73.31673,-10.95538],[-73.31524,-10.9646],[-73.31922,-10.97139],[-73.31862,-10.99662],[-73.32424,-11.00685],[-73.34383,-11.02872],[-73.34821,-11.02765],[-73.35829,-11.04169],[-73.36562,-11.04634],[-73.37662,-11.04715],[-73.3821,-11.04152],[-73.40258,-11.02642],[-73.40893,-11.02548],[-73.4238,-11.03747],[-73.44307,-11.03042],[-73.44887,-11.02312],[-73.46748,-11.0225],[-73.47538,-11.02616],[-73.47224,-11.03753],[-73.47899,-11.06062],[-73.4826,-11.06524],[-73.48879,-11.06237],[-73.49827,-11.06399],[-73.50659,-11.05789],[-73.52294,-11.05797],[-73.54258,-11.04742],[-73.54359,-11.03501],[-73.54134,-11.02155],[-73.55301,-11.01405],[-73.55454,-11.00339],[-73.55824,-10.99914],[-73.55867,-10.97535],[-73.57149,-10.95809],[-73.57168,-10.94856],[-73.56484,-10.93675],[-73.56727,-10.90595],[-73.56365,-10.89739],[-73.55902,-10.87414],[-73.56026,-10.86061],[-73.56723,-10.85921],[-73.57427,-10.85226],[-73.58052,-10.85457],[-73.59433,-10.85256],[-73.6104,-10.84657],[-73.63611,-10.82482],[-73.65968,-10.80702],[-73.66754,-10.79941],[-73.66565,-10.79316],[-73.67678,-10.79008],[-73.69619,-10.77303],[-73.70426,-10.77126],[-73.71486,-10.75989],[-73.72925,-10.75558],[-73.734,-10.75109],[-73.73711,-10.73731],[-73.74212,-10.73401],[-73.7572,-10.7359],[-73.77653,-10.7493],[-73.78199,-10.75062],[-73.78328,-10.75802],[-73.77848,-10.77504],[-73.78181,-10.78618],[-73.7907,-10.79636],[-73.80052,-10.79591],[-73.81422,-10.7999],[-73.81181,-10.80558],[-73.81777,-10.81381],[-73.81679,-10.83014],[-73.82216,-10.83607],[-73.82163,-10.84443],[-73.81601,-10.85795],[-73.82077,-10.87901],[-73.81493,-10.88293],[-73.8142,-10.8916],[-73.82106,-10.89669],[-73.81776,-10.90178],[-73.82684,-10.91279],[-73.82341,-10.92107],[-73.83222,-10.93305],[-73.84547,-10.94389],[-73.84828,-10.95076],[-73.85575,-10.95697],[-73.85781,-10.97155],[-73.86109,-10.97412],[-73.86368,-11.00174],[-73.86404,-11.01805],[-73.86657,-11.03735],[-73.86283,-11.07012],[-73.8631,-11.09075],[-73.86565,-11.09868],[-73.85968,-11.13256],[-73.8613,-11.14553],[-73.85737,-11.15871],[-73.85271,-11.16433],[-73.86306,-11.16912],[-73.89227,-11.16811],[-73.8993,-11.15578],[-73.90854,-11.15166],[-73.91649,-11.1431],[-73.93474,-11.14234],[-73.94183,-11.15122],[-73.95738,-11.14814],[-73.95842,-11.14153],[-73.96671,-11.13121],[-73.97827,-11.12063],[-73.98366,-11.09271],[-73.97828,-11.08314],[-73.97874,-11.07003],[-73.98911,-11.04112],[-73.99075,-11.02687],[-73.99613,-11.01745],[-74.0055,-10.99319],[-74.02211,-10.99335],[-74.03626,-10.98901],[-74.06136,-10.99574],[-74.07708,-10.99281],[-74.09178,-10.98681],[-74.10746,-10.98675],[-74.11652,-10.99086],[-74.13685,-10.9886],[-74.14799,-10.99884],[-74.17794,-10.99052],[-74.18248,-10.98579],[-74.19087,-10.986],[-74.19837,-10.99715],[-74.20147,-11.01966],[-74.21993,-11.02077],[-74.2245,-11.01914],[-74.25644,-11.01822],[-74.28154,-11.03313],[-74.29386,-11.03133],[-74.32002,-11.03842],[-74.33945,-11.05396],[-74.35029,-11.05667],[-74.36417,-11.05481],[-74.37365,-11.05652],[-74.39188,-11.04474],[-74.4001,-11.04324],[-74.41342,-11.03357],[-74.41864,-11.02524],[-74.44541,-11.00485],[-74.46244,-11.00055],[-74.48474,-11.00223],[-74.49453,-11.00112],[-74.50008,-10.996],[-74.50377,-10.97777],[-74.50268,-10.96516],[-74.50838,-10.9503],[-74.52581,-10.93976],[-74.53271,-10.93207],[-74.54107,-10.93154],[-74.56236,-10.91368],[-74.56996,-10.91521],[-74.56923,-10.90404],[-74.56572,-10.90461],[-74.55806,-10.89593],[-74.5433,-10.89126],[-74.53841,-10.89628],[-74.51587,-10.89606],[-74.50671,-10.89952],[-74.50322,-10.89418],[-74.49502,-10.8931],[-74.48619,-10.88745],[-74.48854,-10.87175],[-74.48454,-10.85587],[-74.49172,-10.84876],[-74.48847,-10.84029],[-74.48007,-10.83509],[-74.46659,-10.83634],[-74.45832,-10.82827],[-74.42958,-10.81269],[-74.42014,-10.8161],[-74.40052,-10.81148],[-74.38955,-10.81425],[-74.38568,-10.81177],[-74.37566,-10.7927],[-74.37452,-10.7849],[-74.38291,-10.77351],[-74.38546,-10.75973],[-74.3839,-10.74748],[-74.37225,-10.75349],[-74.36814,-10.75185],[-74.35971,-10.75941],[-74.35659,-10.7539],[-74.34926,-10.75369],[-74.34934,-10.74556],[-74.33702,-10.73386],[-74.31644,-10.72593],[-74.31853,-10.71872],[-74.31097,-10.71491],[-74.28829,-10.68538],[-74.28688,-10.67041],[-74.27105,-10.67886],[-74.25892,-10.68043],[-74.25993,-10.66935],[-74.25281,-10.65948],[-74.24574,-10.6545],[-74.22758,-10.65184],[-74.22966,-10.6346],[-74.21546,-10.63524],[-74.2017,-10.63114],[-74.19276,-10.63918],[-74.18317,-10.6366],[-74.16924,-10.63711],[-74.15986,-10.64059],[-74.15778,-10.64853],[-74.14045,-10.65677],[-74.13862,-10.67073],[-74.13098,-10.65474],[-74.13455,-10.6377],[-74.1394,-10.6252],[-74.13925,-10.61319],[-74.13267,-10.60491],[-74.1415,-10.58337],[-74.15093,-10.57208],[-74.15563,-10.56073],[-74.15692,-10.5492],[-74.1692,-10.53163],[-74.18235,-10.50333],[-74.17753,-10.49948],[-74.18139,-10.48516],[-74.18959,-10.48198],[-74.19275,-10.47391],[-74.21525,-10.45327],[-74.22328,-10.45221],[-74.22689,-10.44305],[-74.23929,-10.44119],[-74.24512,-10.4311],[-74.24489,-10.42289],[-74.25288,-10.41714],[-74.24424,-10.41045],[-74.24683,-10.40593],[-74.242,-10.38317],[-74.254,-10.37733],[-74.25946,-10.36501],[-74.26274,-10.36366],[-74.25326,-10.34074],[-74.2478,-10.332],[-74.23883,-10.32665],[-74.23686,-10.32009],[-74.24135,-10.31571],[-74.25017,-10.31445],[-74.25255,-10.30738],[-74.24609,-10.29718],[-74.23437,-10.29544],[-74.22959,-10.28213],[-74.22382,-10.28014],[-74.21767,-10.29511],[-74.20709,-10.30455],[-74.19801,-10.30963],[-74.18109,-10.31049],[-74.16107,-10.31403],[-74.15921,-10.31736],[-74.12798,-10.35485],[-74.12103,-10.35755],[-74.09498,-10.3579],[-74.06844,-10.35655],[-74.05997,-10.35848],[-74.04031,-10.37736],[-74.03382,-10.35054],[-74.02808,-10.3355],[-74.02723,-10.3262],[-74.04181,-10.30632],[-74.038,-10.29827],[-74.02828,-10.29342],[-74.00914,-10.30048],[-73.9952,-10.29579],[-73.98313,-10.29714],[-73.96218,-10.29376],[-73.94515,-10.29603],[-73.88652,-10.29066],[-73.87566,-10.29173],[-73.86298,-10.29663],[-73.8444,-10.29832],[-73.81718,-10.29313],[-73.78994,-10.29635],[-73.75037,-10.29838],[-73.73355,-10.29706],[-73.71742,-10.29895],[-73.70744,-10.30224],[-73.68884,-10.31204],[-73.67341,-10.31427],[-73.66079,-10.30917],[-73.64441,-10.30981],[-73.63575,-10.3081],[-73.62119,-10.30024],[-73.62109,-10.28959],[-73.59138,-10.28142],[-73.57914,-10.25806],[-73.56956,-10.25346],[-73.56773,-10.23953],[-73.56316,-10.24113],[-73.5596,-10.23247],[-73.54864,-10.23072],[-73.5441,-10.23503],[-73.53531,-10.23424],[-73.51734,-10.21377],[-73.49764,-10.20927],[-73.49055,-10.20234],[-73.48139,-10.19786],[-73.46567,-10.19957],[-73.45338,-10.19512],[-73.43839,-10.18224],[-73.42055,-10.18071],[-73.41461,-10.17477],[-73.40068,-10.17274],[-73.39197,-10.16662],[-73.38368,-10.16629],[-73.37533,-10.15201],[-73.36205,-10.15788],[-73.35337,-10.15529],[-73.34673,-10.14473],[-73.3396,-10.14369],[-73.33413,-10.14849],[-73.31931,-10.14834],[-73.30971,-10.15417],[-73.29502,-10.15727],[-73.27122,-10.15887],[-73.25267,-10.16498],[-73.2412,-10.15971],[-73.2346,-10.1628],[-73.22987,-10.15948],[-73.22374,-10.16411],[-73.20596,-10.16376],[-73.1899,-10.14522],[-73.17951,-10.146],[-73.16552,-10.13874],[-73.16137,-10.12999],[-73.15195,-10.12606],[-73.12737,-10.13361],[-73.10533,-10.12278],[-73.09433,-10.13188],[-73.08166,-10.13405],[-73.07428,-10.14411],[-73.06346,-10.14951],[-73.05373,-10.14771],[-73.05169,-10.15433],[-73.05437,-10.1636],[-73.04927,-10.17903],[-73.04156,-10.18464],[-73.03791,-10.19234],[-73.02157,-10.18761],[-73.01088,-10.20005],[-72.99605,-10.19659],[-72.97647,-10.18539],[-72.96196,-10.18443],[-72.91203,-10.17613],[-72.897,-10.17121],[-72.87728,-10.17146],[-72.86173,-10.16781],[-72.85186,-10.17627],[-72.83927,-10.1732],[-72.82742,-10.18012],[-72.81962,-10.17757],[-72.79873,-10.19921],[-72.78473,-10.19353],[-72.77188,-10.18511],[-72.76312,-10.1857],[-72.75269,-10.19076],[-72.73436,-10.19379],[-72.7211,-10.19253],[-72.71204,-10.20495],[-72.69487,-10.2116],[-72.69131,-10.21779],[-72.68212,-10.22332],[-72.65935,-10.22579],[-72.64403,-10.22253],[-72.63753,-10.22989],[-72.61796,-10.24234],[-72.61841,-10.24802],[-72.61159,-10.25162],[-72.6101,-10.25825],[-72.58912,-10.27048],[-72.57535,-10.26163],[-72.56432,-10.26485],[-72.56088,-10.2829],[-72.54977,-10.29111],[-72.54441,-10.31206],[-72.54023,-10.31744],[-72.54258,-10.32516],[-72.53966,-10.33537],[-72.52562,-10.35079],[-72.50763,-10.34366],[-72.48703,-10.36355],[-72.47777,-10.36611],[-72.47717,-10.37869],[-72.46953,-10.38892],[-72.46136,-10.39316],[-72.45893,-10.4038],[-72.45149,-10.41668],[-72.43523,-10.43195],[-72.42245,-10.44647],[-72.41986,-10.47151],[-72.4204,-10.47955],[-72.42767,-10.48955],[-72.45109,-10.498],[-72.46359,-10.50468],[-72.4626,-10.5098],[-72.44358,-10.51453],[-72.43226,-10.51235],[-72.40789,-10.51705],[-72.3983,-10.52873],[-72.3808,-10.53783],[-72.37884,-10.5477],[-72.38556,-10.56526],[-72.39228,-10.5745],[-72.38794,-10.59466],[-72.39462,-10.60223],[-72.39879,-10.62699],[-72.40509,-10.63265],[-72.4061,-10.64946],[-72.42663,-10.64762],[-72.43833,-10.63685],[-72.44337,-10.63649],[-72.45852,-10.67568],[-72.45577,-10.68875],[-72.45946,-10.70772],[-72.46686,-10.71627],[-72.46831,-10.72646],[-72.46575,-10.74062],[-72.46919,-10.75833],[-72.48033,-10.76588],[-72.47945,-10.77713],[-72.48393,-10.7809],[-72.48435,-10.79219]]]}},{"type":"Feature","properties":{"ubigeo":"250202","nombre":"Sepahua"},"geometry":{"type":"Polygon","coordinates":[[[-72.20462,-11.34743],[-72.22667,-11.34261],[-72.23926,-11.34506],[-72.24602,-11.34616],[-72.25012,-11.3411],[-72.24886,-11.33332],[-72.25741,-11.33032],[-72.26128,-11.33717],[-72.27946,-11.33939],[-72.28273,-11.33093],[-72.28018,-11.32605],[-72.28664,-11.31394],[-72.29469,-11.31568],[-72.30771,-11.307],[-72.31468,-11.31405],[-72.31679,-11.32121],[-72.32255,-11.32458],[-72.3233,-11.31676],[-72.33698,-11.31672],[-72.3393,-11.32382],[-72.34995,-11.32362],[-72.35428,-11.32993],[-72.36568,-11.33484],[-72.37883,-11.33264],[-72.38222,-11.33485],[-72.38738,-11.34765],[-72.39539,-11.34278],[-72.39593,-11.34996],[-72.40066,-11.34496],[-72.40648,-11.35705],[-72.41294,-11.3516],[-72.41788,-11.35684],[-72.42589,-11.35803],[-72.42513,-11.36849],[-72.43604,-11.3661],[-72.43548,-11.37245],[-72.44118,-11.37499],[-72.44985,-11.37148],[-72.44743,-11.38452],[-72.45806,-11.38413],[-72.45933,-11.38883],[-72.46936,-11.38526],[-72.47622,-11.39178],[-72.47987,-11.38742],[-72.48723,-11.39405],[-72.48221,-11.39812],[-72.50308,-11.39884],[-72.49778,-11.40351],[-72.50121,-11.40902],[-72.50634,-11.4065],[-72.50978,-11.41294],[-72.50707,-11.41923],[-72.51011,-11.42425],[-72.51437,-11.41707],[-72.519,-11.42117],[-72.51589,-11.43003],[-72.52367,-11.43084],[-72.52588,-11.43936],[-72.53363,-11.43921],[-72.53143,-11.43104],[-72.53545,-11.4257],[-72.53682,-11.43493],[-72.54592,-11.43297],[-72.54887,-11.43745],[-72.54613,-11.44691],[-72.55219,-11.44301],[-72.5517,-11.43366],[-72.56017,-11.43551],[-72.56693,-11.43182],[-72.57709,-11.43909],[-72.58182,-11.43912],[-72.58082,-11.4308],[-72.59104,-11.43209],[-72.59566,-11.42056],[-72.60115,-11.41843],[-72.60479,-11.42304],[-72.60321,-11.43261],[-72.60656,-11.43951],[-72.61084,-11.43829],[-72.60735,-11.43015],[-72.62433,-11.42561],[-72.6174,-11.41933],[-72.62312,-11.41282],[-72.63254,-11.41518],[-72.63212,-11.4064],[-72.63984,-11.40627],[-72.64557,-11.41277],[-72.65032,-11.39831],[-72.66455,-11.39382],[-72.6644,-11.38719],[-72.68002,-11.38897],[-72.68861,-11.39683],[-72.69862,-11.38041],[-72.70656,-11.38151],[-72.71446,-11.35862],[-72.70726,-11.35221],[-72.71417,-11.3474],[-72.71851,-11.35099],[-72.71768,-11.36211],[-72.7218,-11.36146],[-72.72424,-11.35006],[-72.73415,-11.35198],[-72.73824,-11.34743],[-72.74957,-11.35901],[-72.75639,-11.36194],[-72.76335,-11.37161],[-72.77568,-11.37575],[-72.7847,-11.37596],[-72.79429,-11.38429],[-72.79627,-11.3794],[-72.79064,-11.37302],[-72.79034,-11.36579],[-72.79971,-11.36674],[-72.79626,-11.37123],[-72.79876,-11.38436],[-72.80189,-11.38559],[-72.80707,-11.37643],[-72.81332,-11.3799],[-72.81706,-11.37527],[-72.82376,-11.3819],[-72.82178,-11.38963],[-72.83445,-11.38615],[-72.84246,-11.38684],[-72.84092,-11.38018],[-72.83349,-11.37866],[-72.83878,-11.37042],[-72.8437,-11.37349],[-72.8451,-11.36257],[-72.85205,-11.36528],[-72.8615,-11.35469],[-72.86976,-11.35705],[-72.87706,-11.36431],[-72.87654,-11.35477],[-72.88371,-11.35765],[-72.89035,-11.35094],[-72.89187,-11.3431],[-72.89496,-11.34838],[-72.89405,-11.35796],[-72.90988,-11.35177],[-72.92237,-11.34338],[-72.92637,-11.34825],[-72.92005,-11.35494],[-72.93284,-11.35038],[-72.93367,-11.34381],[-72.92133,-11.33523],[-72.92585,-11.32731],[-72.9374,-11.33265],[-72.94474,-11.33991],[-72.95191,-11.33063],[-72.95906,-11.33473],[-72.96527,-11.33028],[-72.95213,-11.32827],[-72.95197,-11.32037],[-72.96074,-11.31639],[-72.94443,-11.30987],[-72.94197,-11.3225],[-72.93228,-11.30948],[-72.93346,-11.30427],[-72.95472,-11.30547],[-72.95308,-11.29418],[-72.93709,-11.29275],[-72.93913,-11.28208],[-72.94561,-11.27514],[-72.95357,-11.27472],[-72.95539,-11.26377],[-72.96551,-11.26843],[-72.96858,-11.26412],[-72.96912,-11.25211],[-72.97422,-11.25068],[-72.97548,-11.22435],[-72.96789,-11.21582],[-72.97706,-11.21229],[-72.98661,-11.21813],[-73.00269,-11.22437],[-73.01857,-11.23417],[-73.02458,-11.26312],[-73.03903,-11.27131],[-73.04131,-11.27558],[-73.05068,-11.27733],[-73.06774,-11.28459],[-73.08214,-11.27328],[-73.0945,-11.27593],[-73.10425,-11.2827],[-73.13166,-11.29393],[-73.15868,-11.29092],[-73.1684,-11.29332],[-73.17204,-11.28914],[-73.18646,-11.28598],[-73.19145,-11.29208],[-73.2033,-11.28999],[-73.21319,-11.29908],[-73.23713,-11.29951],[-73.24518,-11.30814],[-73.25745,-11.31271],[-73.2689,-11.3097],[-73.29101,-11.31206],[-73.29688,-11.30837],[-73.30806,-11.30943],[-73.31864,-11.30748],[-73.33337,-11.30899],[-73.34617,-11.31345],[-73.35168,-11.33234],[-73.36011,-11.34011],[-73.37866,-11.35074],[-73.38626,-11.37127],[-73.39628,-11.37741],[-73.40164,-11.37585],[-73.40856,-11.38598],[-73.41975,-11.38394],[-73.44976,-11.36808],[-73.46374,-11.35428],[-73.46713,-11.34417],[-73.47065,-11.34401],[-73.48069,-11.3541],[-73.48564,-11.34432],[-73.47987,-11.33033],[-73.48409,-11.31934],[-73.47132,-11.30556],[-73.46011,-11.30271],[-73.4631,-11.29355],[-73.46113,-11.27694],[-73.45444,-11.26306],[-73.45566,-11.25752],[-73.44987,-11.23557],[-73.4501,-11.22475],[-73.4544,-11.22114],[-73.4592,-11.20878],[-73.45838,-11.19545],[-73.46334,-11.18551],[-73.46196,-11.17928],[-73.4666,-11.16614],[-73.46759,-11.15643],[-73.47519,-11.12836],[-73.46692,-11.11997],[-73.46959,-11.10646],[-73.47418,-11.09896],[-73.47133,-11.087],[-73.47824,-11.0787],[-73.4826,-11.06524],[-73.47899,-11.06062],[-73.47224,-11.03753],[-73.47538,-11.02616],[-73.46748,-11.0225],[-73.44887,-11.02312],[-73.44307,-11.03042],[-73.4238,-11.03747],[-73.40893,-11.02548],[-73.40258,-11.02642],[-73.3821,-11.04152],[-73.37662,-11.04715],[-73.36562,-11.04634],[-73.35829,-11.04169],[-73.34821,-11.02765],[-73.34383,-11.02872],[-73.32424,-11.00685],[-73.31862,-10.99662],[-73.31922,-10.97139],[-73.31524,-10.9646],[-73.31673,-10.95538],[-73.31285,-10.94888],[-73.31053,-10.92814],[-73.30677,-10.91662],[-73.30666,-10.88568],[-73.30946,-10.87169],[-73.3235,-10.84077],[-73.32094,-10.81669],[-73.31083,-10.80328],[-73.29212,-10.7998],[-73.27964,-10.79125],[-73.25658,-10.78722],[-73.23843,-10.7776],[-73.22974,-10.77571],[-73.20769,-10.77845],[-73.19859,-10.78241],[-73.17567,-10.78393],[-73.16237,-10.78744],[-73.1532,-10.79453],[-73.1333,-10.79264],[-73.12145,-10.80695],[-73.11541,-10.81028],[-73.09505,-10.80676],[-73.08765,-10.79837],[-73.0728,-10.79854],[-73.06833,-10.79627],[-73.03835,-10.79876],[-73.0319,-10.8076],[-73.02196,-10.81297],[-73.00523,-10.83032],[-72.99427,-10.82206],[-72.98196,-10.80685],[-72.95715,-10.79492],[-72.95235,-10.79044],[-72.94838,-10.77271],[-72.93736,-10.76311],[-72.92515,-10.77335],[-72.91528,-10.77626],[-72.89283,-10.77356],[-72.88493,-10.7745],[-72.86936,-10.77007],[-72.86085,-10.77858],[-72.84938,-10.78269],[-72.8396,-10.78959],[-72.82751,-10.79059],[-72.81865,-10.78794],[-72.81233,-10.77555],[-72.80097,-10.76962],[-72.7878,-10.76873],[-72.78213,-10.76468],[-72.77489,-10.74327],[-72.76094,-10.73529],[-72.75114,-10.72323],[-72.73604,-10.71517],[-72.72446,-10.71947],[-72.71363,-10.71779],[-72.70104,-10.70465],[-72.69051,-10.7044],[-72.67959,-10.71068],[-72.66871,-10.70917],[-72.65781,-10.71551],[-72.64706,-10.73215],[-72.634,-10.73962],[-72.62876,-10.73948],[-72.60865,-10.75687],[-72.59462,-10.75454],[-72.57149,-10.75895],[-72.5649,-10.76419],[-72.55588,-10.76367],[-72.54925,-10.77024],[-72.52738,-10.77702],[-72.52083,-10.78893],[-72.50819,-10.79003],[-72.49709,-10.78706],[-72.48435,-10.79219],[-72.47632,-10.80536],[-72.47232,-10.81707],[-72.46726,-10.82166],[-72.44802,-10.8323],[-72.43721,-10.84259],[-72.42821,-10.86196],[-72.43137,-10.8798],[-72.41904,-10.90629],[-72.41053,-10.90888],[-72.39951,-10.91788],[-72.40006,-10.92981],[-72.39025,-10.93588],[-72.37296,-10.95072],[-72.36343,-10.95619],[-72.36183,-10.96102],[-72.34674,-10.96969],[-72.33036,-10.96898],[-72.3203,-10.98028],[-72.31083,-10.98309],[-72.29925,-10.97562],[-72.29459,-10.97819],[-72.28857,-10.97302],[-72.27974,-10.97527],[-72.26213,-10.97168],[-72.2383,-10.98542],[-72.23249,-10.99403],[-72.2203,-11.00571],[-72.21629,-11.01311],[-72.21027,-11.01328],[-72.20262,-11.00648],[-72.19418,-11.00449],[-72.18519,-11.00893],[-72.17532,-11.02483],[-72.17761,-11.04067],[-72.19048,-11.0436],[-72.19306,-11.04968],[-72.18251,-11.0578],[-72.18698,-11.06865],[-72.18422,-11.07417],[-72.1833,-11.09259],[-72.17877,-11.09755],[-72.17575,-11.09296],[-72.15177,-11.08644],[-72.12588,-11.10115],[-72.12141,-11.10714],[-72.12247,-11.12358],[-72.13825,-11.13689],[-72.16928,-11.14374],[-72.17648,-11.15911],[-72.18432,-11.15554],[-72.18794,-11.16373],[-72.19386,-11.15666],[-72.20488,-11.17096],[-72.19593,-11.17401],[-72.18984,-11.18372],[-72.18966,-11.19092],[-72.19672,-11.19411],[-72.20024,-11.2053],[-72.19706,-11.22786],[-72.20518,-11.2399],[-72.19941,-11.26424],[-72.20552,-11.26661],[-72.21147,-11.2776],[-72.21846,-11.30029],[-72.21422,-11.30796],[-72.21398,-11.31974],[-72.20966,-11.32775],[-72.20462,-11.34743]]]}},{"type":"Feature","properties":{"ubigeo":"250203","nombre":"Tahuania"},"geometry":{"type":"Polygon","coordinates":[[[-73.15195,-10.12606],[-73.16137,-10.12999],[-73.16552,-10.13874],[-73.17951,-10.146],[-73.1899,-10.14522],[-73.20596,-10.16376],[-73.22374,-10.16411],[-73.22987,-10.15948],[-73.2346,-10.1628],[-73.2412,-10.15971],[-73.25267,-10.16498],[-73.27122,-10.15887],[-73.29502,-10.15727],[-73.30971,-10.15417],[-73.31931,-10.14834],[-73.33413,-10.14849],[-73.3396,-10.14369],[-73.34673,-10.14473],[-73.35337,-10.15529],[-73.36205,-10.15788],[-73.37533,-10.15201],[-73.38368,-10.16629],[-73.39197,-10.16662],[-73.40068,-10.17274],[-73.41461,-10.17477],[-73.42055,-10.18071],[-73.43839,-10.18224],[-73.45338,-10.19512],[-73.46567,-10.19957],[-73.48139,-10.19786],[-73.49055,-10.20234],[-73.49764,-10.20927],[-73.51734,-10.21377],[-73.53531,-10.23424],[-73.5441,-10.23503],[-73.54864,-10.23072],[-73.5596,-10.23247],[-73.56316,-10.24113],[-73.56773,-10.23953],[-73.56956,-10.25346],[-73.57914,-10.25806],[-73.59138,-10.28142],[-73.62109,-10.28959],[-73.62119,-10.30024],[-73.63575,-10.3081],[-73.64441,-10.30981],[-73.66079,-10.30917],[-73.67341,-10.31427],[-73.68884,-10.31204],[-73.70744,-10.30224],[-73.71742,-10.29895],[-73.73355,-10.29706],[-73.75037,-10.29838],[-73.78994,-10.29635],[-73.81718,-10.29313],[-73.8444,-10.29832],[-73.86298,-10.29663],[-73.87566,-10.29173],[-73.88652,-10.29066],[-73.94515,-10.29603],[-73.96218,-10.29376],[-73.98313,-10.29714],[-73.9952,-10.29579],[-74.00914,-10.30048],[-74.02828,-10.29342],[-74.038,-10.29827],[-74.04181,-10.30632],[-74.02723,-10.3262],[-74.02808,-10.3355],[-74.03382,-10.35054],[-74.04031,-10.37736],[-74.05997,-10.35848],[-74.06844,-10.35655],[-74.09498,-10.3579],[-74.12103,-10.35755],[-74.12798,-10.35485],[-74.15921,-10.31736],[-74.16107,-10.31403],[-74.18109,-10.31049],[-74.19801,-10.30963],[-74.20709,-10.30455],[-74.21767,-10.29511],[-74.22382,-10.28014],[-74.22959,-10.28213],[-74.22716,-10.27733],[-74.22837,-10.26567],[-74.22396,-10.2562],[-74.22914,-10.25114],[-74.22598,-10.24324],[-74.2264,-10.2305],[-74.23465,-10.22001],[-74.23376,-10.21169],[-74.22734,-10.19875],[-74.23166,-10.18505],[-74.24325,-10.17747],[-74.26685,-10.17169],[-74.28522,-10.1718],[-74.3037,-10.16386],[-74.30645,-10.15654],[-74.30673,-10.13887],[-74.31299,-10.12482],[-74.31502,-10.11316],[-74.33127,-10.10855],[-74.35565,-10.11877],[-74.36697,-10.1129],[-74.37709,-10.09987],[-74.37887,-10.07686],[-74.37772,-10.07356],[-74.38533,-10.06447],[-74.3899,-10.05135],[-74.40432,-10.0506],[-74.41175,-10.04114],[-74.41832,-10.02482],[-74.41403,-10.02057],[-74.4124,-10.00824],[-74.41685,-9.99684],[-74.42403,-9.98944],[-74.41897,-9.97048],[-74.41141,-9.95817],[-74.41233,-9.95396],[-74.39861,-9.9398],[-74.39258,-9.92961],[-74.37375,-9.91893],[-74.36692,-9.90632],[-74.36177,-9.9033],[-74.35922,-9.89291],[-74.37585,-9.86927],[-74.37169,-9.86242],[-74.37099,-9.85012],[-74.36806,-9.8463],[-74.35743,-9.85504],[-74.34361,-9.85949],[-74.33846,-9.86598],[-74.33307,-9.8601],[-74.3358,-9.84852],[-74.33001,-9.83333],[-74.32422,-9.83267],[-74.31967,-9.82635],[-74.32032,-9.81825],[-74.31696,-9.80158],[-74.29948,-9.80753],[-74.29262,-9.8031],[-74.29063,-9.79301],[-74.28396,-9.78703],[-74.26709,-9.7773],[-74.25342,-9.77173],[-74.21632,-9.77334],[-74.19863,-9.77006],[-74.18398,-9.7638],[-74.17992,-9.75312],[-74.16638,-9.72864],[-74.1524,-9.70968],[-74.14443,-9.70464],[-74.13261,-9.70219],[-74.11845,-9.70584],[-74.1038,-9.71234],[-74.08299,-9.71068],[-74.06579,-9.70554],[-74.06441,-9.7015],[-74.06946,-9.68661],[-74.05956,-9.66894],[-74.04755,-9.65583],[-74.0379,-9.65556],[-74.00771,-9.64598],[-73.98578,-9.63518],[-73.97505,-9.62727],[-73.95975,-9.61079],[-73.94312,-9.60747],[-73.92527,-9.60758],[-73.89362,-9.60369],[-73.87554,-9.59656],[-73.8678,-9.58975],[-73.85321,-9.56881],[-73.83729,-9.55196],[-73.82096,-9.53197],[-73.80701,-9.52801],[-73.77737,-9.53225],[-73.75901,-9.53177],[-73.74339,-9.54035],[-73.70622,-9.53299],[-73.69049,-9.52775],[-73.67669,-9.53697],[-73.66321,-9.54309],[-73.65987,-9.55143],[-73.66628,-9.56621],[-73.66531,-9.57197],[-73.64306,-9.59039],[-73.62879,-9.61041],[-73.61885,-9.63058],[-73.60919,-9.64441],[-73.58372,-9.65568],[-73.57008,-9.65745],[-73.56044,-9.67573],[-73.54747,-9.68955],[-73.53778,-9.70767],[-73.53372,-9.71116],[-73.51781,-9.715],[-73.49754,-9.73099],[-73.48931,-9.73366],[-73.46938,-9.75078],[-73.4635,-9.76317],[-73.46351,-9.77661],[-73.45935,-9.79561],[-73.44814,-9.79822],[-73.43845,-9.80525],[-73.42898,-9.80625],[-73.39347,-9.82257],[-73.37503,-9.82441],[-73.37097,-9.82678],[-73.37543,-9.84786],[-73.37038,-9.86162],[-73.35524,-9.8727],[-73.32822,-9.88577],[-73.31575,-9.88883],[-73.30922,-9.89299],[-73.30135,-9.90454],[-73.28319,-9.93832],[-73.26795,-9.95227],[-73.24243,-9.96381],[-73.22615,-9.96793],[-73.22143,-9.9722],[-73.22276,-9.98317],[-73.2193,-9.99931],[-73.19454,-10.01023],[-73.18716,-10.01834],[-73.18881,-10.02719],[-73.19413,-10.03576],[-73.19703,-10.04765],[-73.19439,-10.05785],[-73.19372,-10.082],[-73.17947,-10.09385],[-73.1709,-10.09855],[-73.16273,-10.11518],[-73.15195,-10.12606]]]}},{"type":"Feature","properties":{"ubigeo":"250204","nombre":"Yurua"},"geometry":{"type":"Polygon","coordinates":[[[-72.47777,-10.36611],[-72.48703,-10.36355],[-72.50763,-10.34366],[-72.52562,-10.35079],[-72.53966,-10.33537],[-72.54258,-10.32516],[-72.54023,-10.31744],[-72.54441,-10.31206],[-72.54977,-10.29111],[-72.56088,-10.2829],[-72.56432,-10.26485],[-72.57535,-10.26163],[-72.58912,-10.27048],[-72.6101,-10.25825],[-72.61159,-10.25162],[-72.61841,-10.24802],[-72.61796,-10.24234],[-72.63753,-10.22989],[-72.64403,-10.22253],[-72.65935,-10.22579],[-72.68212,-10.22332],[-72.69131,-10.21779],[-72.69487,-10.2116],[-72.71204,-10.20495],[-72.7211,-10.19253],[-72.73436,-10.19379],[-72.75269,-10.19076],[-72.76312,-10.1857],[-72.77188,-10.18511],[-72.78473,-10.19353],[-72.79873,-10.19921],[-72.81962,-10.17757],[-72.82742,-10.18012],[-72.83927,-10.1732],[-72.85186,-10.17627],[-72.86173,-10.16781],[-72.87728,-10.17146],[-72.897,-10.17121],[-72.91203,-10.17613],[-72.96196,-10.18443],[-72.97647,-10.18539],[-72.99605,-10.19659],[-73.01088,-10.20005],[-73.02157,-10.18761],[-73.03791,-10.19234],[-73.04156,-10.18464],[-73.04927,-10.17903],[-73.05437,-10.1636],[-73.05169,-10.15433],[-73.05373,-10.14771],[-73.06346,-10.14951],[-73.07428,-10.14411],[-73.08166,-10.13405],[-73.09433,-10.13188],[-73.10533,-10.12278],[-73.12737,-10.13361],[-73.15195,-10.12606],[-73.16273,-10.11518],[-73.1709,-10.09855],[-73.17947,-10.09385],[-73.17133,-10.07854],[-73.15617,-10.05711],[-73.15274,-10.03953],[-73.14585,-10.03777],[-73.12296,-10.02193],[-73.11741,-10.02081],[-73.10255,-10.00996],[-73.10396,-10.00183],[-73.0983,-9.98696],[-73.08073,-9.98861],[-73.06974,-9.97878],[-73.06664,-9.97263],[-73.07145,-9.96313],[-73.09318,-9.94954],[-73.09239,-9.94352],[-73.10194,-9.93297],[-73.10273,-9.92555],[-73.10988,-9.92328],[-73.11003,-9.91271],[-73.11404,-9.90284],[-73.09682,-9.88868],[-73.09754,-9.88167],[-73.1032,-9.87523],[-73.11813,-9.87217],[-73.13047,-9.87206],[-73.13968,-9.86683],[-73.17075,-9.86346],[-73.18884,-9.87097],[-73.20255,-9.8668],[-73.20888,-9.85396],[-73.22347,-9.85126],[-73.22849,-9.84651],[-73.22517,-9.83316],[-73.21776,-9.82747],[-73.22953,-9.81453],[-73.23132,-9.80505],[-73.22907,-9.79515],[-73.2379,-9.78904],[-73.23601,-9.7832],[-73.24027,-9.76912],[-73.24411,-9.76531],[-73.24217,-9.75534],[-73.24653,-9.75185],[-73.24293,-9.7311],[-73.24656,-9.71975],[-73.25353,-9.70901],[-73.26255,-9.70478],[-73.26921,-9.69773],[-73.27156,-9.6879],[-73.27658,-9.68421],[-73.26766,-9.67834],[-73.2734,-9.66459],[-73.24915,-9.66337],[-73.24507,-9.65842],[-73.22714,-9.65685],[-73.21893,-9.66304],[-73.21592,-9.64549],[-73.22425,-9.63977],[-73.22492,-9.63222],[-73.2186,-9.62209],[-73.21314,-9.59017],[-73.21248,-9.57415],[-73.19922,-9.56589],[-73.20398,-9.56002],[-73.20088,-9.53999],[-73.19061,-9.53117],[-73.18963,-9.5268],[-73.19813,-9.50904],[-73.19823,-9.49561],[-73.20617,-9.48432],[-73.20541,-9.47433],[-73.19624,-9.46784],[-73.19381,-9.46093],[-73.19928,-9.45612],[-73.20464,-9.44435],[-73.19171,-9.42901],[-73.19887,-9.42091],[-73.20044,-9.4114],[-73.18146,-9.41174],[-73.064,-9.41204],[-72.95975,-9.41196],[-72.71691,-9.41219],[-72.71637,-9.42293],[-72.71158,-9.43],[-72.6977,-9.43596],[-72.68232,-9.43361],[-72.67606,-9.43983],[-72.66896,-9.44133],[-72.65317,-9.45143],[-72.64225,-9.44232],[-72.62715,-9.44324],[-72.62085,-9.45223],[-72.61245,-9.44924],[-72.59942,-9.45638],[-72.59264,-9.45484],[-72.57265,-9.46399],[-72.56273,-9.46306],[-72.56004,-9.472],[-72.55702,-9.46586],[-72.53999,-9.47259],[-72.53358,-9.47325],[-72.5304,-9.48231],[-72.52098,-9.49092],[-72.51668,-9.48506],[-72.50642,-9.48606],[-72.50094,-9.48045],[-72.49668,-9.48415],[-72.48703,-9.48025],[-72.48124,-9.48637],[-72.46093,-9.4853],[-72.4551,-9.48968],[-72.44145,-9.4776],[-72.43551,-9.48473],[-72.43399,-9.48066],[-72.41621,-9.48344],[-72.40706,-9.47729],[-72.38526,-9.49257],[-72.37436,-9.49498],[-72.36698,-9.4897],[-72.36141,-9.49688],[-72.3577,-9.49441],[-72.34911,-9.50369],[-72.34082,-9.5066],[-72.3391,-9.52237],[-72.31798,-9.54414],[-72.30093,-9.53737],[-72.30048,-9.53325],[-72.29019,-9.53499],[-72.28133,-9.5423],[-72.28197,-9.56001],[-72.28472,-9.56498],[-72.28323,-9.57819],[-72.28627,-9.5892],[-72.2841,-9.59543],[-72.28832,-9.60282],[-72.26866,-9.62062],[-72.25918,-9.61466],[-72.2521,-9.6199],[-72.25958,-9.63927],[-72.25953,-9.64587],[-72.25202,-9.65642],[-72.24602,-9.65728],[-72.25114,-9.68764],[-72.25226,-9.70194],[-72.25899,-9.71219],[-72.25465,-9.73383],[-72.26221,-9.7426],[-72.26296,-9.75086],[-72.24666,-9.75062],[-72.24149,-9.76043],[-72.23132,-9.76196],[-72.22047,-9.76947],[-72.21487,-9.77882],[-72.19352,-9.77643],[-72.17774,-9.78329],[-72.17057,-9.78393],[-72.16508,-9.79144],[-72.15136,-9.79742],[-72.15158,-9.80801],[-72.15494,-9.8163],[-72.15995,-9.81726],[-72.16206,-9.83107],[-72.15659,-9.83235],[-72.15289,-9.84191],[-72.15578,-9.84569],[-72.15427,-9.85524],[-72.1482,-9.87223],[-72.13594,-9.87439],[-72.14121,-9.88569],[-72.14792,-9.88857],[-72.15071,-9.90574],[-72.15888,-9.91078],[-72.16331,-9.90851],[-72.16955,-9.91966],[-72.1738,-9.93282],[-72.16612,-9.94048],[-72.15643,-9.94165],[-72.1616,-9.95059],[-72.16063,-9.95564],[-72.14985,-9.96081],[-72.15779,-9.97819],[-72.1758,-9.98423],[-72.1804,-9.99967],[-72.18909,-10.00608],[-72.18935,-10.02087],[-72.18198,-10.03096],[-72.17978,-10.04109],[-72.17218,-10.04824],[-72.16546,-10.0631],[-72.1629,-10.07609],[-72.15105,-10.08131],[-72.14107,-10.09055],[-72.14657,-10.09846],[-72.14351,-10.11211],[-72.14268,-10.13948],[-72.15005,-10.14868],[-72.15695,-10.16526],[-72.16615,-10.16221],[-72.17982,-10.16488],[-72.21413,-10.15971],[-72.22055,-10.16366],[-72.23528,-10.16608],[-72.23561,-10.18207],[-72.24255,-10.18881],[-72.25397,-10.18626],[-72.25713,-10.18877],[-72.27116,-10.18582],[-72.28337,-10.18709],[-72.29333,-10.18145],[-72.30066,-10.18506],[-72.31163,-10.17948],[-72.32442,-10.18234],[-72.3361,-10.17948],[-72.3443,-10.19032],[-72.35737,-10.19946],[-72.36544,-10.2015],[-72.36807,-10.21349],[-72.38177,-10.2225],[-72.39479,-10.22722],[-72.40218,-10.22592],[-72.41889,-10.23344],[-72.43207,-10.24484],[-72.43576,-10.25263],[-72.44472,-10.25504],[-72.46278,-10.28862],[-72.47306,-10.30171],[-72.47767,-10.32268],[-72.47712,-10.33291],[-72.4654,-10.34591],[-72.46597,-10.35223],[-72.47777,-10.36611]]]}},{"type":"Feature","properties":{"ubigeo":"250301","nombre":"Padre Abad"},"geometry":{"type":"Polygon","coordinates":[[[-75.92199,-8.8569],[-75.9276,-8.84609],[-75.92688,-8.83771],[-75.92877,-8.80801],[-75.92165,-8.78081],[-75.93149,-8.76131],[-75.93661,-8.75464],[-75.94003,-8.73775],[-75.94789,-8.72251],[-75.94601,-8.71519],[-75.93212,-8.69693],[-75.92595,-8.69804],[-75.90928,-8.67792],[-75.90085,-8.67771],[-75.89132,-8.66022],[-75.87116,-8.65291],[-75.85349,-8.64916],[-75.84531,-8.65498],[-75.83251,-8.65178],[-75.82923,-8.64605],[-75.8168,-8.63602],[-75.82073,-8.62864],[-75.81772,-8.61726],[-75.81236,-8.60771],[-75.80153,-8.60274],[-75.79246,-8.58563],[-75.79069,-8.57003],[-75.78001,-8.55349],[-75.77929,-8.53195],[-75.78447,-8.5217],[-75.79922,-8.51216],[-75.793,-8.51154],[-75.78221,-8.50371],[-75.78754,-8.49719],[-75.77897,-8.49357],[-75.76898,-8.4978],[-75.76069,-8.48739],[-75.7353,-8.48495],[-75.71646,-8.48689],[-75.7175,-8.47598],[-75.70883,-8.45455],[-75.70814,-8.44651],[-75.68731,-8.42329],[-75.67393,-8.44277],[-75.66565,-8.44058],[-75.6656,-8.44543],[-75.65475,-8.44509],[-75.64549,-8.44028],[-75.64143,-8.4509],[-75.63069,-8.45701],[-75.62794,-8.46815],[-75.61862,-8.47833],[-75.60963,-8.47895],[-75.60758,-8.48414],[-75.59849,-8.48572],[-75.59076,-8.49119],[-75.58533,-8.48508],[-75.56948,-8.48786],[-75.55385,-8.50431],[-75.55572,-8.51117],[-75.54329,-8.51095],[-75.53849,-8.51908],[-75.53764,-8.51068],[-75.53216,-8.51041],[-75.53859,-8.52522],[-75.5352,-8.52899],[-75.52704,-8.52014],[-75.51886,-8.52265],[-75.51356,-8.54295],[-75.51921,-8.55067],[-75.51571,-8.55736],[-75.49979,-8.55217],[-75.49857,-8.56053],[-75.48894,-8.56821],[-75.4889,-8.5752],[-75.48167,-8.57466],[-75.48306,-8.5816],[-75.47901,-8.58534],[-75.47406,-8.57783],[-75.46728,-8.57586],[-75.45878,-8.55984],[-75.44909,-8.55833],[-75.44767,-8.56531],[-75.43911,-8.56011],[-75.43614,-8.56621],[-75.42957,-8.56051],[-75.4277,-8.56804],[-75.42236,-8.56475],[-75.41936,-8.577],[-75.42668,-8.58289],[-75.42248,-8.5855],[-75.40889,-8.58242],[-75.41264,-8.57425],[-75.40877,-8.56732],[-75.401,-8.58158],[-75.4006,-8.59104],[-75.40226,-8.60004],[-75.41066,-8.59124],[-75.40949,-8.60163],[-75.41567,-8.61174],[-75.41986,-8.60498],[-75.43089,-8.60454],[-75.43371,-8.61134],[-75.42856,-8.61513],[-75.42903,-8.63337],[-75.44181,-8.63828],[-75.43684,-8.64366],[-75.42336,-8.6431],[-75.42378,-8.65313],[-75.43128,-8.65422],[-75.44305,-8.65126],[-75.44167,-8.6716],[-75.43123,-8.68275],[-75.43241,-8.69234],[-75.43675,-8.69498],[-75.43091,-8.70356],[-75.42661,-8.70393],[-75.42565,-8.71414],[-75.43459,-8.72775],[-75.44268,-8.73346],[-75.44451,-8.74382],[-75.44297,-8.76085],[-75.44665,-8.76236],[-75.44787,-8.77714],[-75.45363,-8.7808],[-75.44926,-8.78976],[-75.45033,-8.80338],[-75.46073,-8.81231],[-75.4687,-8.81335],[-75.4789,-8.81026],[-75.491,-8.8013],[-75.49277,-8.79183],[-75.49835,-8.79471],[-75.51155,-8.79474],[-75.52412,-8.78748],[-75.53518,-8.80207],[-75.53412,-8.81985],[-75.52873,-8.82162],[-75.52847,-8.83112],[-75.51943,-8.8374],[-75.51962,-8.84696],[-75.51121,-8.85834],[-75.51132,-8.86392],[-75.52044,-8.86161],[-75.52293,-8.87188],[-75.50736,-8.87151],[-75.49404,-8.87888],[-75.49887,-8.89129],[-75.49412,-8.9102],[-75.48725,-8.91475],[-75.48777,-8.92001],[-75.50223,-8.94356],[-75.50642,-8.95443],[-75.50785,-8.97062],[-75.49954,-8.97789],[-75.50446,-8.98197],[-75.50549,-8.99014],[-75.50212,-8.99402],[-75.48355,-9.00328],[-75.48135,-9.01373],[-75.47345,-9.01354],[-75.46916,-9.02729],[-75.45517,-9.03226],[-75.45208,-9.03995],[-75.44135,-9.0434],[-75.43554,-9.05097],[-75.4449,-9.06127],[-75.44174,-9.06731],[-75.42937,-9.07183],[-75.42766,-9.08092],[-75.43196,-9.08595],[-75.43092,-9.09246],[-75.43623,-9.10832],[-75.4413,-9.11209],[-75.44285,-9.1221],[-75.44161,-9.14497],[-75.42809,-9.1591],[-75.4314,-9.1673],[-75.43669,-9.17014],[-75.43704,-9.18797],[-75.42989,-9.19574],[-75.4309,-9.20548],[-75.43762,-9.20881],[-75.44221,-9.22943],[-75.43705,-9.23819],[-75.4381,-9.24497],[-75.44648,-9.24955],[-75.4547,-9.26152],[-75.45599,-9.2851],[-75.45197,-9.29634],[-75.45625,-9.325],[-75.46674,-9.34101],[-75.48141,-9.35967],[-75.48779,-9.37265],[-75.50967,-9.38315],[-75.51796,-9.38217],[-75.53328,-9.38854],[-75.53864,-9.39347],[-75.56247,-9.40118],[-75.5822,-9.4028],[-75.60066,-9.41381],[-75.61138,-9.40614],[-75.61666,-9.41408],[-75.62918,-9.41086],[-75.64349,-9.41277],[-75.66252,-9.41806],[-75.67045,-9.41794],[-75.66871,-9.40554],[-75.6713,-9.40202],[-75.67113,-9.38587],[-75.67835,-9.38133],[-75.68563,-9.36976],[-75.69501,-9.36292],[-75.68862,-9.34937],[-75.69761,-9.34597],[-75.70569,-9.33627],[-75.71078,-9.314],[-75.71546,-9.30875],[-75.71797,-9.29855],[-75.71708,-9.28456],[-75.72024,-9.27723],[-75.73035,-9.27261],[-75.73041,-9.26795],[-75.74019,-9.26383],[-75.74349,-9.25217],[-75.74976,-9.24426],[-75.76396,-9.23785],[-75.75937,-9.23188],[-75.74572,-9.2302],[-75.73979,-9.22138],[-75.72496,-9.21594],[-75.72922,-9.18815],[-75.72937,-9.16883],[-75.74292,-9.16069],[-75.74779,-9.14973],[-75.75003,-9.13728],[-75.74782,-9.12102],[-75.74435,-9.11317],[-75.74308,-9.1001],[-75.735,-9.09117],[-75.72278,-9.08936],[-75.71448,-9.08186],[-75.70853,-9.08452],[-75.6989,-9.07906],[-75.69418,-9.07246],[-75.68367,-9.07389],[-75.67724,-9.06625],[-75.66859,-9.0661],[-75.66464,-9.06043],[-75.65855,-9.06631],[-75.63223,-9.07506],[-75.61687,-9.07331],[-75.61699,-9.06225],[-75.62327,-9.03669],[-75.63169,-9.03143],[-75.63569,-9.02172],[-75.61011,-9.00402],[-75.60452,-8.9944],[-75.60595,-8.98749],[-75.60025,-8.97511],[-75.58783,-8.96865],[-75.58602,-8.96027],[-75.59063,-8.94382],[-75.5912,-8.9557],[-75.60732,-8.96796],[-75.61282,-8.97763],[-75.61847,-8.98043],[-75.61991,-8.97361],[-75.63068,-8.96497],[-75.62742,-8.95238],[-75.63019,-8.94691],[-75.62689,-8.9373],[-75.62855,-8.92468],[-75.62369,-8.91878],[-75.632,-8.91238],[-75.63785,-8.93147],[-75.64644,-8.94285],[-75.66455,-8.94458],[-75.66814,-8.95141],[-75.69056,-8.96326],[-75.70308,-8.96403],[-75.71061,-8.95591],[-75.71089,-8.95115],[-75.71964,-8.93992],[-75.72379,-8.92497],[-75.73487,-8.91662],[-75.77676,-8.90998],[-75.78331,-8.91106],[-75.78655,-8.91651],[-75.78442,-8.92877],[-75.78958,-8.9334],[-75.80788,-8.94097],[-75.8157,-8.9409],[-75.82416,-8.94658],[-75.83429,-8.94635],[-75.83859,-8.94204],[-75.85863,-8.94703],[-75.86122,-8.95962],[-75.87431,-8.96348],[-75.88377,-8.97273],[-75.88844,-8.96279],[-75.88937,-8.94963],[-75.89904,-8.91886],[-75.90312,-8.9155],[-75.90127,-8.89815],[-75.90988,-8.89679],[-75.91118,-8.88489],[-75.9217,-8.86684],[-75.92199,-8.8569]]]}},{"type":"Feature","properties":{"ubigeo":"250302","nombre":"Irazola"},"geometry":{"type":"Polygon","coordinates":[[[-75.1201,-8.901],[-75.11739,-8.91167],[-75.10843,-8.922],[-75.11022,-8.92928],[-75.11742,-8.93123],[-75.1206,-8.93662],[-75.12856,-8.93571],[-75.13474,-8.94483],[-75.13326,-8.9508],[-75.1248,-8.95312],[-75.12056,-8.95985],[-75.11958,-8.98118],[-75.12526,-8.98719],[-75.12981,-8.98594],[-75.14009,-8.99433],[-75.13921,-8.9995],[-75.15469,-8.99964],[-75.15762,-9.0105],[-75.17453,-9.01253],[-75.17571,-9.02473],[-75.16563,-9.02832],[-75.1624,-9.03395],[-75.17035,-9.04133],[-75.17638,-9.04155],[-75.19489,-9.05719],[-75.19496,-9.06326],[-75.20122,-9.06384],[-75.19607,-9.06954],[-75.19607,-9.0759],[-75.2049,-9.08029],[-75.20831,-9.10175],[-75.22007,-9.10462],[-75.24058,-9.10015],[-75.24065,-9.10659],[-75.23176,-9.11844],[-75.2339,-9.12882],[-75.22905,-9.1365],[-75.22875,-9.1477],[-75.21648,-9.15508],[-75.21282,-9.17716],[-75.21914,-9.17825],[-75.22261,-9.19002],[-75.23122,-9.20025],[-75.233,-9.20932],[-75.2436,-9.22225],[-75.25669,-9.23248],[-75.27192,-9.23342],[-75.26811,-9.25001],[-75.27188,-9.26632],[-75.2797,-9.27694],[-75.28577,-9.27828],[-75.30014,-9.28994],[-75.30429,-9.29702],[-75.31333,-9.30154],[-75.31903,-9.29366],[-75.33406,-9.28876],[-75.34949,-9.30454],[-75.35782,-9.30782],[-75.36457,-9.30586],[-75.37215,-9.31023],[-75.38323,-9.30727],[-75.39233,-9.3004],[-75.40225,-9.30196],[-75.41849,-9.29261],[-75.42809,-9.29636],[-75.45197,-9.29634],[-75.45599,-9.2851],[-75.4547,-9.26152],[-75.44648,-9.24955],[-75.4381,-9.24497],[-75.43705,-9.23819],[-75.44221,-9.22943],[-75.43762,-9.20881],[-75.4309,-9.20548],[-75.42989,-9.19574],[-75.43704,-9.18797],[-75.43669,-9.17014],[-75.4314,-9.1673],[-75.42809,-9.1591],[-75.44161,-9.14497],[-75.44285,-9.1221],[-75.4413,-9.11209],[-75.43623,-9.10832],[-75.43092,-9.09246],[-75.43196,-9.08595],[-75.42766,-9.08092],[-75.42937,-9.07183],[-75.44174,-9.06731],[-75.4449,-9.06127],[-75.43554,-9.05097],[-75.43752,-9.03588],[-75.43311,-9.01407],[-75.42504,-9.00043],[-75.42273,-8.99058],[-75.42775,-8.98398],[-75.41451,-8.96431],[-75.42269,-8.95753],[-75.43008,-8.94148],[-75.4275,-8.93598],[-75.41861,-8.93286],[-75.41172,-8.92341],[-75.39665,-8.91947],[-75.38287,-8.91879],[-75.37794,-8.89993],[-75.37071,-8.8856],[-75.35959,-8.8718],[-75.34717,-8.84638],[-75.34641,-8.83856],[-75.35329,-8.81648],[-75.36424,-8.80279],[-75.36364,-8.79333],[-75.35597,-8.78101],[-75.35459,-8.76543],[-75.34721,-8.7464],[-75.35094,-8.73348],[-75.34578,-8.72353],[-75.31927,-8.70491],[-75.31595,-8.69554],[-75.3066,-8.68479],[-75.30622,-8.67842],[-75.29561,-8.65713],[-75.29655,-8.63884],[-75.28598,-8.63764],[-75.28182,-8.62974],[-75.26086,-8.62984],[-75.25146,-8.62441],[-75.24652,-8.60802],[-75.2499,-8.60598],[-75.24902,-8.5957],[-75.24467,-8.59489],[-75.24562,-8.58732],[-75.23558,-8.57733],[-75.21523,-8.57226],[-75.20983,-8.56914],[-75.20958,-8.562],[-75.14737,-8.53614],[-75.14304,-8.55345],[-75.13874,-8.56054],[-75.14532,-8.59679],[-75.14574,-8.60511],[-75.15355,-8.62552],[-75.15564,-8.65182],[-75.16533,-8.65845],[-75.16743,-8.66886],[-75.16197,-8.67736],[-75.16769,-8.69417],[-75.16456,-8.69896],[-75.16451,-8.71266],[-75.15417,-8.72098],[-75.13559,-8.72308],[-75.13163,-8.7317],[-75.12526,-8.73613],[-75.11997,-8.75085],[-75.111,-8.7545],[-75.116,-8.76264],[-75.12312,-8.76187],[-75.12582,-8.76752],[-75.12111,-8.77508],[-75.12361,-8.78111],[-75.12275,-8.79432],[-75.10843,-8.7999],[-75.11712,-8.8126],[-75.11467,-8.83918],[-75.11962,-8.84721],[-75.13211,-8.85392],[-75.13604,-8.85921],[-75.14671,-8.86057],[-75.15347,-8.87467],[-75.14712,-8.89504],[-75.1201,-8.901]]]}},{"type":"Feature","properties":{"ubigeo":"250303","nombre":"Curimana"},"geometry":{"type":"Polygon","coordinates":[[[-75.02077,-8.44779],[-75.02454,-8.4577],[-75.02024,-8.46544],[-75.02843,-8.47064],[-75.02824,-8.47623],[-75.03566,-8.48233],[-75.04285,-8.49277],[-75.04108,-8.50184],[-75.04572,-8.50778],[-75.05619,-8.5084],[-75.07025,-8.51339],[-75.07518,-8.50975],[-75.08689,-8.51244],[-75.1012,-8.51259],[-75.12559,-8.52823],[-75.1431,-8.52778],[-75.14737,-8.53614],[-75.20958,-8.562],[-75.20983,-8.56914],[-75.21523,-8.57226],[-75.23558,-8.57733],[-75.24562,-8.58732],[-75.24467,-8.59489],[-75.24902,-8.5957],[-75.2499,-8.60598],[-75.24652,-8.60802],[-75.25146,-8.62441],[-75.26086,-8.62984],[-75.28182,-8.62974],[-75.28598,-8.63764],[-75.29655,-8.63884],[-75.28727,-8.61574],[-75.29203,-8.61753],[-75.29896,-8.61249],[-75.31161,-8.61382],[-75.31959,-8.6044],[-75.33009,-8.5999],[-75.33136,-8.60927],[-75.34047,-8.61106],[-75.36464,-8.59456],[-75.36757,-8.58961],[-75.37542,-8.59018],[-75.38505,-8.58387],[-75.38175,-8.59823],[-75.38572,-8.61038],[-75.3894,-8.59218],[-75.4006,-8.59104],[-75.401,-8.58158],[-75.40877,-8.56732],[-75.41264,-8.57425],[-75.40889,-8.58242],[-75.42248,-8.5855],[-75.42668,-8.58289],[-75.41936,-8.577],[-75.42236,-8.56475],[-75.4277,-8.56804],[-75.42957,-8.56051],[-75.43614,-8.56621],[-75.43911,-8.56011],[-75.44767,-8.56531],[-75.44909,-8.55833],[-75.45878,-8.55984],[-75.46728,-8.57586],[-75.47406,-8.57783],[-75.47901,-8.58534],[-75.48306,-8.5816],[-75.48167,-8.57466],[-75.4889,-8.5752],[-75.48894,-8.56821],[-75.49857,-8.56053],[-75.49979,-8.55217],[-75.51571,-8.55736],[-75.51921,-8.55067],[-75.51356,-8.54295],[-75.51886,-8.52265],[-75.52704,-8.52014],[-75.5352,-8.52899],[-75.53859,-8.52522],[-75.53216,-8.51041],[-75.53764,-8.51068],[-75.53849,-8.51908],[-75.54329,-8.51095],[-75.55572,-8.51117],[-75.55385,-8.50431],[-75.56948,-8.48786],[-75.58533,-8.48508],[-75.59076,-8.49119],[-75.59849,-8.48572],[-75.60758,-8.48414],[-75.60963,-8.47895],[-75.61862,-8.47833],[-75.62794,-8.46815],[-75.63069,-8.45701],[-75.64143,-8.4509],[-75.64549,-8.44028],[-75.65475,-8.44509],[-75.6656,-8.44543],[-75.66565,-8.44058],[-75.67393,-8.44277],[-75.68731,-8.42329],[-75.65818,-8.41513],[-75.64813,-8.40975],[-75.63407,-8.40802],[-75.61808,-8.40832],[-75.59906,-8.41198],[-75.58828,-8.42357],[-75.58953,-8.42687],[-75.58346,-8.44119],[-75.57448,-8.4405],[-75.57229,-8.44458],[-75.55861,-8.44192],[-75.54922,-8.43299],[-75.53275,-8.43321],[-75.52896,-8.43977],[-75.51084,-8.43204],[-75.48579,-8.43734],[-75.47521,-8.43616],[-75.47122,-8.44342],[-75.46029,-8.4492],[-75.44592,-8.45101],[-75.44082,-8.44773],[-75.43554,-8.45221],[-75.42755,-8.44785],[-75.41887,-8.45084],[-75.41941,-8.44321],[-75.42395,-8.44248],[-75.44339,-8.42239],[-75.45157,-8.4182],[-75.45236,-8.41204],[-75.46144,-8.40666],[-75.46382,-8.39384],[-75.47419,-8.38965],[-75.48067,-8.3804],[-75.48134,-8.36092],[-75.47785,-8.35258],[-75.48368,-8.34476],[-75.49882,-8.34589],[-75.51005,-8.33482],[-75.49779,-8.33139],[-75.4964,-8.32293],[-75.4913,-8.31729],[-75.49606,-8.30071],[-75.50288,-8.28941],[-75.49658,-8.27539],[-75.48838,-8.26403],[-75.47146,-8.25207],[-75.47315,-8.24429],[-75.46704,-8.23599],[-75.45881,-8.23052],[-75.45881,-8.21756],[-75.45297,-8.21007],[-75.44454,-8.21513],[-75.43651,-8.23002],[-75.42032,-8.23586],[-75.41573,-8.24366],[-75.39603,-8.23597],[-75.37852,-8.24438],[-75.35415,-8.24718],[-75.33294,-8.24776],[-75.3166,-8.2536],[-75.30128,-8.25664],[-75.29032,-8.25668],[-75.28603,-8.26063],[-75.27104,-8.26348],[-75.26508,-8.25693],[-75.25803,-8.25509],[-75.24548,-8.2446],[-75.23674,-8.24103],[-75.21661,-8.24042],[-75.21097,-8.24474],[-75.20303,-8.25727],[-75.18457,-8.25727],[-75.17263,-8.26707],[-75.1569,-8.268],[-75.15115,-8.26478],[-75.14261,-8.27271],[-75.1311,-8.27213],[-75.13029,-8.2658],[-75.1144,-8.268],[-75.11035,-8.26555],[-75.10168,-8.27106],[-75.09563,-8.26987],[-75.08145,-8.2739],[-75.06915,-8.28032],[-75.0539,-8.29794],[-75.05124,-8.30402],[-75.04036,-8.31256],[-75.03232,-8.33129],[-75.02664,-8.36286],[-75.01903,-8.37171],[-75.00966,-8.37593],[-75.00484,-8.38063],[-75.00703,-8.38999],[-75.01592,-8.39232],[-75.01238,-8.39656],[-75.01282,-8.40717],[-75.01652,-8.41086],[-75.02682,-8.41103],[-75.02964,-8.41615],[-75.02701,-8.42446],[-75.02828,-8.43306],[-75.02077,-8.44779]]]}},{"type":"Feature","properties":{"ubigeo":"250304","nombre":"Neshuya"},"geometry":{"type":"Polygon","coordinates":[[[-75.10843,-8.7999],[-75.12275,-8.79432],[-75.12361,-8.78111],[-75.12111,-8.77508],[-75.12582,-8.76752],[-75.12312,-8.76187],[-75.116,-8.76264],[-75.111,-8.7545],[-75.11997,-8.75085],[-75.12526,-8.73613],[-75.13163,-8.7317],[-75.13559,-8.72308],[-75.15417,-8.72098],[-75.16451,-8.71266],[-75.16456,-8.69896],[-75.16769,-8.69417],[-75.16197,-8.67736],[-75.16743,-8.66886],[-75.16533,-8.65845],[-75.15564,-8.65182],[-75.15355,-8.62552],[-75.14574,-8.60511],[-75.14532,-8.59679],[-75.13874,-8.56054],[-75.14304,-8.55345],[-75.14737,-8.53614],[-75.1431,-8.52778],[-75.12559,-8.52823],[-75.1012,-8.51259],[-75.08689,-8.51244],[-75.07518,-8.50975],[-75.07025,-8.51339],[-75.05619,-8.5084],[-75.04572,-8.50778],[-75.04108,-8.50184],[-75.04285,-8.49277],[-75.03566,-8.48233],[-75.02824,-8.47623],[-75.02843,-8.47064],[-75.02024,-8.46544],[-75.02454,-8.4577],[-75.02077,-8.44779],[-75.01372,-8.44918],[-75.01143,-8.47018],[-75.00374,-8.48309],[-75.00462,-8.48971],[-74.99924,-8.50515],[-74.98689,-8.51269],[-74.98848,-8.51824],[-74.97846,-8.52285],[-74.97852,-8.53034],[-74.9702,-8.53486],[-74.96436,-8.54694],[-74.96391,-8.55791],[-74.95979,-8.56634],[-74.94813,-8.57323],[-74.94708,-8.58133],[-74.93941,-8.59179],[-74.94273,-8.60426],[-74.95148,-8.60986],[-74.9502,-8.61399],[-74.95551,-8.62353],[-74.95456,-8.6329],[-74.96339,-8.64796],[-74.96443,-8.66664],[-74.96696,-8.67136],[-74.95844,-8.68502],[-74.95361,-8.70347],[-74.94397,-8.71016],[-74.94153,-8.72135],[-74.9456,-8.73076],[-74.94236,-8.74364],[-74.94193,-8.75766],[-74.94634,-8.77983],[-74.95661,-8.79141],[-75.01835,-8.77667],[-75.01715,-8.77141],[-75.02224,-8.76077],[-75.01932,-8.75249],[-75.02324,-8.74188],[-75.03328,-8.74595],[-75.04587,-8.74328],[-75.06579,-8.75887],[-75.06914,-8.75825],[-75.07465,-8.77092],[-75.08665,-8.7718],[-75.09775,-8.78063],[-75.10383,-8.79882],[-75.10843,-8.7999]]]}},{"type":"Feature","properties":{"ubigeo":"250305","nombre":"Alexander Von Humboldt"},"geometry":{"type":"Polygon","coordinates":[[[-74.95447,-8.86357],[-74.96575,-8.86941],[-74.97898,-8.87165],[-75.005,-8.86973],[-75.00681,-8.86489],[-75.02365,-8.85907],[-75.03322,-8.86772],[-75.04687,-8.86824],[-75.05484,-8.87642],[-75.06737,-8.88141],[-75.07139,-8.8736],[-75.09431,-8.87636],[-75.10872,-8.88254],[-75.12259,-8.88095],[-75.1201,-8.901],[-75.14712,-8.89504],[-75.15347,-8.87467],[-75.14671,-8.86057],[-75.13604,-8.85921],[-75.13211,-8.85392],[-75.11962,-8.84721],[-75.11467,-8.83918],[-75.11712,-8.8126],[-75.10843,-8.7999],[-75.10383,-8.79882],[-75.09775,-8.78063],[-75.08665,-8.7718],[-75.07465,-8.77092],[-75.06914,-8.75825],[-75.06579,-8.75887],[-75.04587,-8.74328],[-75.03328,-8.74595],[-75.02324,-8.74188],[-75.01932,-8.75249],[-75.02224,-8.76077],[-75.01715,-8.77141],[-75.01835,-8.77667],[-74.95661,-8.79141],[-74.96465,-8.80514],[-74.96615,-8.81858],[-74.95447,-8.86357]]]}},{"type":"Feature","properties":{"ubigeo":"250306","nombre":"Huipoca"},"geometry":{"type":"Polygon","coordinates":[[[-75.4006,-8.59104],[-75.3894,-8.59218],[-75.38572,-8.61038],[-75.38175,-8.59823],[-75.38505,-8.58387],[-75.37542,-8.59018],[-75.36757,-8.58961],[-75.36464,-8.59456],[-75.34047,-8.61106],[-75.33136,-8.60927],[-75.33009,-8.5999],[-75.31959,-8.6044],[-75.31161,-8.61382],[-75.29896,-8.61249],[-75.29203,-8.61753],[-75.28727,-8.61574],[-75.29655,-8.63884],[-75.29561,-8.65713],[-75.30622,-8.67842],[-75.3066,-8.68479],[-75.31595,-8.69554],[-75.31927,-8.70491],[-75.34578,-8.72353],[-75.35094,-8.73348],[-75.34721,-8.7464],[-75.35459,-8.76543],[-75.35597,-8.78101],[-75.36364,-8.79333],[-75.36424,-8.80279],[-75.35329,-8.81648],[-75.34641,-8.83856],[-75.34717,-8.84638],[-75.35959,-8.8718],[-75.37071,-8.8856],[-75.37794,-8.89993],[-75.38287,-8.91879],[-75.39665,-8.91947],[-75.41172,-8.92341],[-75.41861,-8.93286],[-75.4275,-8.93598],[-75.43008,-8.94148],[-75.42269,-8.95753],[-75.41451,-8.96431],[-75.42775,-8.98398],[-75.42273,-8.99058],[-75.42504,-9.00043],[-75.43311,-9.01407],[-75.43752,-9.03588],[-75.43554,-9.05097],[-75.44135,-9.0434],[-75.45208,-9.03995],[-75.45517,-9.03226],[-75.46916,-9.02729],[-75.47345,-9.01354],[-75.48135,-9.01373],[-75.48355,-9.00328],[-75.50212,-8.99402],[-75.50549,-8.99014],[-75.50446,-8.98197],[-75.49954,-8.97789],[-75.50785,-8.97062],[-75.50642,-8.95443],[-75.50223,-8.94356],[-75.48777,-8.92001],[-75.48725,-8.91475],[-75.49412,-8.9102],[-75.49887,-8.89129],[-75.49404,-8.87888],[-75.50736,-8.87151],[-75.52293,-8.87188],[-75.52044,-8.86161],[-75.51132,-8.86392],[-75.51121,-8.85834],[-75.51962,-8.84696],[-75.51943,-8.8374],[-75.52847,-8.83112],[-75.52873,-8.82162],[-75.53412,-8.81985],[-75.53518,-8.80207],[-75.52412,-8.78748],[-75.51155,-8.79474],[-75.49835,-8.79471],[-75.49277,-8.79183],[-75.491,-8.8013],[-75.4789,-8.81026],[-75.4687,-8.81335],[-75.46073,-8.81231],[-75.45033,-8.80338],[-75.44926,-8.78976],[-75.45363,-8.7808],[-75.44787,-8.77714],[-75.44665,-8.76236],[-75.44297,-8.76085],[-75.44451,-8.74382],[-75.44268,-8.73346],[-75.43459,-8.72775],[-75.42565,-8.71414],[-75.42661,-8.70393],[-75.43091,-8.70356],[-75.43675,-8.69498],[-75.43241,-8.69234],[-75.43123,-8.68275],[-75.44167,-8.6716],[-75.44305,-8.65126],[-75.43128,-8.65422],[-75.42378,-8.65313],[-75.42336,-8.6431],[-75.43684,-8.64366],[-75.44181,-8.63828],[-75.42903,-8.63337],[-75.42856,-8.61513],[-75.43371,-8.61134],[-75.43089,-8.60454],[-75.41986,-8.60498],[-75.41567,-8.61174],[-75.40949,-8.60163],[-75.41066,-8.59124],[-75.40226,-8.60004],[-75.4006,-8.59104]]]}},{"type":"Feature","properties":{"ubigeo":"250307","nombre":"Boqueron"},"geometry":{"type":"Polygon","coordinates":[[[-75.83962,-9.07654],[-75.83788,-9.06194],[-75.84965,-9.05114],[-75.85852,-9.05151],[-75.86657,-9.03569],[-75.87575,-9.02947],[-75.87898,-9.01763],[-75.8907,-9.00487],[-75.8945,-8.98371],[-75.88487,-8.98015],[-75.88377,-8.97273],[-75.87431,-8.96348],[-75.86122,-8.95962],[-75.85863,-8.94703],[-75.83859,-8.94204],[-75.83429,-8.94635],[-75.82416,-8.94658],[-75.8157,-8.9409],[-75.80788,-8.94097],[-75.78958,-8.9334],[-75.78442,-8.92877],[-75.78655,-8.91651],[-75.78331,-8.91106],[-75.77676,-8.90998],[-75.73487,-8.91662],[-75.72379,-8.92497],[-75.71964,-8.93992],[-75.71089,-8.95115],[-75.71061,-8.95591],[-75.70308,-8.96403],[-75.69056,-8.96326],[-75.66814,-8.95141],[-75.66455,-8.94458],[-75.64644,-8.94285],[-75.63785,-8.93147],[-75.632,-8.91238],[-75.62369,-8.91878],[-75.62855,-8.92468],[-75.62689,-8.9373],[-75.63019,-8.94691],[-75.62742,-8.95238],[-75.63068,-8.96497],[-75.61991,-8.97361],[-75.61847,-8.98043],[-75.61282,-8.97763],[-75.60732,-8.96796],[-75.5912,-8.9557],[-75.59063,-8.94382],[-75.58602,-8.96027],[-75.58783,-8.96865],[-75.60025,-8.97511],[-75.60595,-8.98749],[-75.60452,-8.9944],[-75.61011,-9.00402],[-75.63569,-9.02172],[-75.63169,-9.03143],[-75.62327,-9.03669],[-75.61699,-9.06225],[-75.61687,-9.07331],[-75.63223,-9.07506],[-75.65855,-9.06631],[-75.66464,-9.06043],[-75.66859,-9.0661],[-75.67724,-9.06625],[-75.68367,-9.07389],[-75.69418,-9.07246],[-75.6989,-9.07906],[-75.70853,-9.08452],[-75.71448,-9.08186],[-75.72278,-9.08936],[-75.735,-9.09117],[-75.74308,-9.1001],[-75.74435,-9.11317],[-75.74782,-9.12102],[-75.75003,-9.13728],[-75.74779,-9.14973],[-75.74292,-9.16069],[-75.72937,-9.16883],[-75.72922,-9.18815],[-75.72496,-9.21594],[-75.73979,-9.22138],[-75.74572,-9.2302],[-75.75937,-9.23188],[-75.76379,-9.2171],[-75.77081,-9.22031],[-75.78429,-9.20801],[-75.7957,-9.20332],[-75.79581,-9.18195],[-75.80095,-9.17028],[-75.79963,-9.16173],[-75.80999,-9.13239],[-75.82152,-9.11801],[-75.82013,-9.10059],[-75.82502,-9.09005],[-75.83787,-9.08489],[-75.83962,-9.07654]]]}},{"type":"Feature","properties":{"ubigeo":"250401","nombre":"Purus"},"geometry":{"type":"Polygon","coordinates":[[[-72.48435,-10.79219],[-72.48393,-10.7809],[-72.47945,-10.77713],[-72.48033,-10.76588],[-72.46919,-10.75833],[-72.46575,-10.74062],[-72.46831,-10.72646],[-72.46686,-10.71627],[-72.45946,-10.70772],[-72.45577,-10.68875],[-72.45852,-10.67568],[-72.44337,-10.63649],[-72.43833,-10.63685],[-72.42663,-10.64762],[-72.4061,-10.64946],[-72.40509,-10.63265],[-72.39879,-10.62699],[-72.39462,-10.60223],[-72.38794,-10.59466],[-72.39228,-10.5745],[-72.38556,-10.56526],[-72.37884,-10.5477],[-72.3808,-10.53783],[-72.3983,-10.52873],[-72.40789,-10.51705],[-72.43226,-10.51235],[-72.44358,-10.51453],[-72.4626,-10.5098],[-72.46359,-10.50468],[-72.45109,-10.498],[-72.42767,-10.48955],[-72.4204,-10.47955],[-72.41986,-10.47151],[-72.42245,-10.44647],[-72.43523,-10.43195],[-72.45149,-10.41668],[-72.45893,-10.4038],[-72.46136,-10.39316],[-72.46953,-10.38892],[-72.47717,-10.37869],[-72.47777,-10.36611],[-72.46597,-10.35223],[-72.4654,-10.34591],[-72.47712,-10.33291],[-72.47767,-10.32268],[-72.47306,-10.30171],[-72.46278,-10.28862],[-72.44472,-10.25504],[-72.43576,-10.25263],[-72.43207,-10.24484],[-72.41889,-10.23344],[-72.40218,-10.22592],[-72.39479,-10.22722],[-72.38177,-10.2225],[-72.36807,-10.21349],[-72.36544,-10.2015],[-72.35737,-10.19946],[-72.3443,-10.19032],[-72.3361,-10.17948],[-72.32442,-10.18234],[-72.31163,-10.17948],[-72.30066,-10.18506],[-72.29333,-10.18145],[-72.28337,-10.18709],[-72.27116,-10.18582],[-72.25713,-10.18877],[-72.25397,-10.18626],[-72.24255,-10.18881],[-72.23561,-10.18207],[-72.23528,-10.16608],[-72.22055,-10.16366],[-72.21413,-10.15971],[-72.17982,-10.16488],[-72.16615,-10.16221],[-72.15695,-10.16526],[-72.15005,-10.14868],[-72.14268,-10.13948],[-72.14351,-10.11211],[-72.14657,-10.09846],[-72.14107,-10.09055],[-72.15105,-10.08131],[-72.1629,-10.07609],[-72.16546,-10.0631],[-72.17218,-10.04824],[-72.17978,-10.04109],[-72.18198,-10.03096],[-72.18935,-10.02087],[-72.18909,-10.00608],[-72.1804,-9.99967],[-72.01968,-9.99987],[-72.00069,-9.99924],[-71.88682,-9.99996],[-71.7648,-9.99962],[-71.50316,-10.00032],[-71.37504,-10.00014],[-71.36001,-9.98374],[-71.35007,-9.98519],[-71.35128,-9.97693],[-71.34276,-9.96677],[-71.32963,-9.97375],[-71.32243,-9.98572],[-71.31641,-9.9853],[-71.31125,-9.99165],[-71.30625,-9.98801],[-71.29744,-9.99218],[-71.29187,-9.9825],[-71.28518,-9.98587],[-71.27171,-9.97782],[-71.25702,-9.97849],[-71.25132,-9.97405],[-71.25321,-9.96293],[-71.24696,-9.96204],[-71.24155,-9.96655],[-71.23645,-9.96441],[-71.22284,-9.97001],[-71.20939,-9.96505],[-71.21,-9.95255],[-71.20509,-9.94638],[-71.19199,-9.94039],[-71.18861,-9.92012],[-71.17876,-9.91812],[-71.17951,-9.90802],[-71.17275,-9.90038],[-71.1706,-9.88985],[-71.16573,-9.88804],[-71.15765,-9.87215],[-71.14954,-9.87026],[-71.1437,-9.861],[-71.13475,-9.85384],[-71.12144,-9.85168],[-71.1094,-9.85438],[-71.10197,-9.85301],[-71.10133,-9.84836],[-71.08962,-9.84034],[-71.08678,-9.84109],[-71.07516,-9.82696],[-71.05744,-9.8236],[-71.05096,-9.81584],[-71.04369,-9.81903],[-71.03165,-9.81386],[-71.02231,-9.81861],[-71.01925,-9.8159],[-70.99838,-9.81821],[-70.99085,-9.81123],[-70.99394,-9.80565],[-70.99226,-9.79589],[-70.98058,-9.77803],[-70.98035,-9.77132],[-70.97032,-9.75604],[-70.96165,-9.75288],[-70.95181,-9.7422],[-70.92451,-9.74164],[-70.91441,-9.72697],[-70.91048,-9.72695],[-70.90608,-9.71856],[-70.89766,-9.71371],[-70.89687,-9.70338],[-70.88641,-9.68868],[-70.88007,-9.68795],[-70.87979,-9.68063],[-70.87157,-9.67425],[-70.86813,-9.66476],[-70.8579,-9.66063],[-70.85339,-9.65559],[-70.8387,-9.65667],[-70.83484,-9.64313],[-70.81486,-9.64316],[-70.81312,-9.63985],[-70.80468,-9.64361],[-70.79322,-9.63748],[-70.79276,-9.62783],[-70.78524,-9.62356],[-70.78569,-9.61394],[-70.76577,-9.60601],[-70.76724,-9.60075],[-70.75893,-9.60567],[-70.7555,-9.59632],[-70.7587,-9.5877],[-70.75599,-9.57656],[-70.74976,-9.56929],[-70.75506,-9.56774],[-70.75114,-9.56094],[-70.74682,-9.56315],[-70.73832,-9.55901],[-70.73601,-9.56391],[-70.72548,-9.56705],[-70.72464,-9.56075],[-70.71476,-9.54715],[-70.69288,-9.53931],[-70.69267,-9.53546],[-70.67265,-9.52713],[-70.6512,-9.51177],[-70.65322,-9.50118],[-70.6445,-9.50095],[-70.64236,-9.49622],[-70.6366,-9.50135],[-70.63075,-9.49309],[-70.6364,-9.48705],[-70.63132,-9.47982],[-70.62594,-9.47908],[-70.62184,-9.47048],[-70.61799,-9.47514],[-70.611,-9.45732],[-70.59789,-9.46086],[-70.59581,-9.4425],[-70.58777,-9.4464],[-70.58114,-9.44052],[-70.56113,-9.43027],[-70.55908,-9.43394],[-70.54901,-9.43488],[-70.5475,-9.42842],[-70.5378,-9.43415],[-70.53788,-9.43828],[-70.52672,-9.42889],[-70.52651,-9.43818],[-70.52152,-9.43027],[-70.51047,-9.42468],[-70.50222,-9.42783],[-70.49598,-9.42549],[-70.49587,-9.44088],[-70.51168,-9.44955],[-70.50478,-9.46334],[-70.51482,-9.46614],[-70.51541,-9.46043],[-70.52455,-9.45936],[-70.5213,-9.47653],[-70.50387,-9.49645],[-70.50971,-9.50474],[-70.51083,-9.49465],[-70.51766,-9.49669],[-70.52005,-9.50393],[-70.53152,-9.50355],[-70.52979,-9.51272],[-70.53524,-9.51656],[-70.54065,-9.51318],[-70.54702,-9.51821],[-70.54633,-9.52719],[-70.53973,-9.52892],[-70.54213,-9.5377],[-70.55541,-9.53917],[-70.56319,-9.53113],[-70.57082,-9.53474],[-70.564,-9.54071],[-70.56908,-9.55435],[-70.55524,-9.56235],[-70.55357,-9.56742],[-70.55926,-9.57489],[-70.56603,-9.57318],[-70.57505,-9.56401],[-70.58353,-9.56779],[-70.58881,-9.56572],[-70.58467,-9.55601],[-70.59185,-9.54855],[-70.59879,-9.55496],[-70.60042,-9.563],[-70.58565,-9.57558],[-70.58511,-9.59069],[-70.58998,-9.60175],[-70.59824,-9.60729],[-70.59184,-9.61582],[-70.59268,-9.62314],[-70.57945,-9.64368],[-70.5751,-9.6545],[-70.56663,-9.66741],[-70.55117,-9.66981],[-70.54771,-9.67957],[-70.54292,-9.67978],[-70.53165,-9.71152],[-70.52523,-9.71498],[-70.52959,-9.71761],[-70.52807,-9.72602],[-70.53504,-9.7342],[-70.53273,-9.74538],[-70.53939,-9.75013],[-70.53663,-9.76584],[-70.55637,-9.78819],[-70.5625,-9.78887],[-70.57777,-9.77779],[-70.58661,-9.78571],[-70.58585,-9.79376],[-70.59187,-9.80322],[-70.6014,-9.79997],[-70.61228,-9.8054],[-70.61678,-9.81654],[-70.62342,-9.82105],[-70.62003,-9.82791],[-70.62113,-9.84097],[-70.61896,-9.84645],[-70.62108,-9.85614],[-70.61348,-9.86608],[-70.6138,-9.87339],[-70.6214,-9.87808],[-70.63954,-9.88438],[-70.6398,-9.88939],[-70.63348,-9.89896],[-70.6416,-9.90808],[-70.64177,-9.91501],[-70.65075,-9.93318],[-70.64695,-9.94592],[-70.65039,-9.95463],[-70.66763,-9.97245],[-70.65907,-9.98983],[-70.65716,-10.00193],[-70.66648,-10.00659],[-70.66653,-10.01398],[-70.67232,-10.02313],[-70.66143,-10.02969],[-70.65206,-10.04006],[-70.66003,-10.05147],[-70.65618,-10.06023],[-70.64454,-10.06874],[-70.65314,-10.07552],[-70.65138,-10.0807],[-70.66103,-10.08496],[-70.66368,-10.09242],[-70.67075,-10.09985],[-70.68098,-10.10264],[-70.68388,-10.11258],[-70.69817,-10.11803],[-70.70031,-10.1267],[-70.70785,-10.13561],[-70.70511,-10.15868],[-70.71237,-10.16364],[-70.71703,-10.17265],[-70.73439,-10.1854],[-70.74651,-10.18858],[-70.75349,-10.19406],[-70.76155,-10.20916],[-70.77405,-10.21427],[-70.7803,-10.21992],[-70.79041,-10.24104],[-70.8032,-10.25115],[-70.81493,-10.25467],[-70.84157,-10.25067],[-70.86685,-10.25305],[-70.87459,-10.25572],[-70.88083,-10.26197],[-70.88262,-10.27595],[-70.87369,-10.29439],[-70.87399,-10.3007],[-70.88946,-10.33514],[-70.8974,-10.33741],[-70.92009,-10.33068],[-70.93473,-10.33326],[-70.96801,-10.33555],[-70.97068,-10.34602],[-70.95811,-10.37779],[-70.96037,-10.39362],[-70.97575,-10.40599],[-70.98386,-10.40879],[-70.99327,-10.41616],[-70.99688,-10.4272],[-71.00497,-10.43082],[-71.00064,-10.44222],[-71.00697,-10.44719],[-71.00813,-10.45754],[-71.0132,-10.45608],[-71.01549,-10.46709],[-71.01891,-10.46676],[-71.02453,-10.4782],[-71.04089,-10.48866],[-71.05337,-10.48965],[-71.05956,-10.49403],[-71.06708,-10.49355],[-71.07076,-10.49847],[-71.09028,-10.50339],[-71.09345,-10.50097],[-71.10621,-10.50445],[-71.10838,-10.50778],[-71.11674,-10.50129],[-71.13256,-10.50721],[-71.1468,-10.53098],[-71.16457,-10.53126],[-71.16558,-10.54226],[-71.16308,-10.54677],[-71.16644,-10.55728],[-71.16377,-10.5642],[-71.16649,-10.57161],[-71.17314,-10.57498],[-71.18229,-10.57389],[-71.19621,-10.57986],[-71.20517,-10.59154],[-71.21091,-10.61916],[-71.2208,-10.63673],[-71.20842,-10.64747],[-71.20629,-10.65216],[-71.21283,-10.66833],[-71.22896,-10.67853],[-71.23146,-10.69131],[-71.22439,-10.70774],[-71.21604,-10.71331],[-71.2246,-10.73065],[-71.21889,-10.74921],[-71.21957,-10.76103],[-71.22743,-10.7613],[-71.22156,-10.7767],[-71.23074,-10.78008],[-71.24384,-10.77676],[-71.25037,-10.78324],[-71.25872,-10.78493],[-71.27147,-10.81905],[-71.27094,-10.84735],[-71.27534,-10.85639],[-71.29471,-10.8763],[-71.30902,-10.8787],[-71.31646,-10.89737],[-71.3173,-10.90957],[-71.32901,-10.91099],[-71.33613,-10.91679],[-71.34179,-10.93288],[-71.35137,-10.93923],[-71.35209,-10.9479],[-71.36144,-10.95161],[-71.37042,-10.94735],[-71.37628,-10.95268],[-71.39486,-10.94763],[-71.3994,-10.95296],[-71.41294,-10.95807],[-71.42611,-10.95566],[-71.44336,-10.95875],[-71.47056,-10.95547],[-71.48052,-10.95712],[-71.48595,-10.96379],[-71.49396,-10.96175],[-71.50813,-10.96609],[-71.52715,-10.96173],[-71.53161,-10.95223],[-71.5383,-10.95366],[-71.55885,-10.9648],[-71.56959,-10.96279],[-71.58791,-10.97106],[-71.59689,-10.97275],[-71.60432,-10.97054],[-71.62877,-10.97356],[-71.638,-10.97683],[-71.65134,-10.97702],[-71.65515,-10.9814],[-71.6665,-10.98166],[-71.68072,-10.97156],[-71.69217,-10.97943],[-71.69955,-10.97455],[-71.70541,-10.97558],[-71.71371,-10.9849],[-71.71408,-10.99561],[-71.72016,-10.99655],[-71.73,-10.98359],[-71.74525,-10.99273],[-71.77004,-10.99281],[-71.78023,-10.98781],[-71.78759,-10.99257],[-71.80895,-10.99383],[-71.82436,-11.00408],[-71.82846,-11.01187],[-71.84701,-10.99568],[-71.87736,-10.99993],[-71.89507,-10.99453],[-71.90244,-10.9977],[-71.91934,-10.99922],[-71.92565,-11.00247],[-71.93838,-11.0039],[-71.94459,-10.99745],[-71.96057,-10.99503],[-71.96813,-10.99661],[-71.98035,-10.99098],[-71.98656,-10.9955],[-71.99674,-10.99112],[-72.01394,-10.9884],[-72.02983,-10.99793],[-72.0437,-10.99692],[-72.05174,-11.01091],[-72.06979,-11.00843],[-72.09279,-11.00168],[-72.10471,-10.99293],[-72.12503,-10.99562],[-72.12793,-10.97984],[-72.1399,-10.98874],[-72.15286,-10.99421],[-72.1543,-11.00309],[-72.15825,-11.00529],[-72.17354,-10.99553],[-72.18519,-11.00893],[-72.19418,-11.00449],[-72.20262,-11.00648],[-72.21027,-11.01328],[-72.21629,-11.01311],[-72.2203,-11.00571],[-72.23249,-10.99403],[-72.2383,-10.98542],[-72.26213,-10.97168],[-72.27974,-10.97527],[-72.28857,-10.97302],[-72.29459,-10.97819],[-72.29925,-10.97562],[-72.31083,-10.98309],[-72.3203,-10.98028],[-72.33036,-10.96898],[-72.34674,-10.96969],[-72.36183,-10.96102],[-72.36343,-10.95619],[-72.37296,-10.95072],[-72.39025,-10.93588],[-72.40006,-10.92981],[-72.39951,-10.91788],[-72.41053,-10.90888],[-72.41904,-10.90629],[-72.43137,-10.8798],[-72.42821,-10.86196],[-72.43721,-10.84259],[-72.44802,-10.8323],[-72.46726,-10.82166],[-72.47232,-10.81707],[-72.47632,-10.80536],[-72.48435,-10.79219]]]}}]}