{"type":"FeatureCollection","features":[{"type":"Feature","properties":{"ubigeo":"0101","nombre":"Chachapoyas"},"geometry":{"type":"Polygon","coordinates":[[[-77.53381,-6.06337],[-77.52216,-6.08417],[-77.50992,-6.08649],[-77.50547,-6.10887],[-77.50938,-6.11873],[-77.49972,-6.12831],[-77.49549,-6.14144],[-77.49977,-6.153],[-77.48807,-6.1586],[-77.46981,-6.18235],[-77.48262,-6.1919],[-77.50133,-6.21569],[-77.5153,-6.22504],[-77.52976,-6.24571],[-77.5277,-6.25896],[-77.54013,-6.28745],[-77.55481,-6.30258],[-77.56788,-6.30946],[-77.58901,-6.30442],[-77.59855,-6.29256],[-77.61757,-6.28076],[-77.62346,-6.28971],[-77.62417,-6.30613],[-77.67004,-6.33982],[-77.69905,-6.33558],[-77.71049,-6.34611],[-77.70414,-6.36074],[-77.71598,-6.36236],[-77.74432,-6.38457],[-77.75226,-6.40355],[-77.74352,-6.42066],[-77.74408,-6.44014],[-77.7326,-6.45315],[-77.73858,-6.46409],[-77.72884,-6.49412],[-77.73121,-6.50209],[-77.72618,-6.55206],[-77.70903,-6.56494],[-77.70618,-6.58159],[-77.69138,-6.58609],[-77.68275,-6.57905],[-77.66655,-6.57826],[-77.65587,-6.60366],[-77.64325,-6.60458],[-77.62666,-6.61274],[-77.65089,-6.62958],[-77.65912,-6.64095],[-77.66266,-6.6599],[-77.67724,-6.67277],[-77.6941,-6.6784],[-77.70966,-6.67202],[-77.71594,-6.65912],[-77.7332,-6.64804],[-77.74561,-6.66516],[-77.74105,-6.68669],[-77.74473,-6.69233],[-77.7395,-6.7111],[-77.74579,-6.72845],[-77.74671,-6.75184],[-77.73717,-6.76033],[-77.73532,-6.78829],[-77.75948,-6.79327],[-77.76472,-6.79844],[-77.74014,-6.84409],[-77.74098,-6.85392],[-77.73163,-6.86638],[-77.73324,-6.87383],[-77.72332,-6.89346],[-77.70731,-6.90885],[-77.71527,-6.92066],[-77.73382,-6.92858],[-77.73985,-6.93549],[-77.73838,-6.94834],[-77.75893,-6.96451],[-77.76594,-6.96212],[-77.7793,-6.94145],[-77.78763,-6.95491],[-77.80193,-6.96614],[-77.80989,-6.96118],[-77.83343,-6.95678],[-77.83924,-6.97323],[-77.84586,-6.9764],[-77.88034,-6.9625],[-77.90001,-6.98067],[-77.91529,-6.98057],[-77.92753,-6.98671],[-77.94915,-6.97343],[-77.96289,-6.97618],[-77.98358,-6.96309],[-77.99951,-6.97053],[-77.99774,-6.95204],[-78.00089,-6.9383],[-78.01364,-6.93168],[-78.00071,-6.91229],[-77.99865,-6.90012],[-78.00548,-6.8936],[-78.00108,-6.88161],[-78.00639,-6.87528],[-78.00079,-6.86726],[-78.0134,-6.85174],[-78.03111,-6.84672],[-78.01491,-6.83191],[-78.01369,-6.82125],[-78.02119,-6.81766],[-78.01638,-6.80905],[-78.02418,-6.7982],[-78.02043,-6.79194],[-78.03582,-6.74992],[-78.03533,-6.74271],[-78.02782,-6.74591],[-78.00886,-6.74296],[-78.00102,-6.72121],[-77.97231,-6.71767],[-77.94183,-6.70298],[-77.93597,-6.68979],[-77.91948,-6.69026],[-77.90688,-6.70223],[-77.90507,-6.71453],[-77.89281,-6.73412],[-77.8506,-6.72748],[-77.83536,-6.73289],[-77.82296,-6.71551],[-77.81099,-6.70674],[-77.80316,-6.70707],[-77.7983,-6.69557],[-77.79813,-6.65638],[-77.81335,-6.63474],[-77.81115,-6.61408],[-77.81794,-6.59372],[-77.83036,-6.56745],[-77.82727,-6.54701],[-77.83232,-6.53208],[-77.85141,-6.50898],[-77.85243,-6.49897],[-77.86381,-6.47482],[-77.85921,-6.46412],[-77.86258,-6.4455],[-77.87724,-6.42611],[-77.87224,-6.41694],[-77.87786,-6.40707],[-77.88484,-6.40864],[-77.90547,-6.38046],[-77.90587,-6.36758],[-77.91989,-6.3685],[-77.93199,-6.33614],[-77.92719,-6.32939],[-77.93632,-6.31637],[-77.93592,-6.28608],[-77.94128,-6.2835],[-77.94201,-6.26883],[-77.93421,-6.25035],[-77.9258,-6.24835],[-77.91795,-6.2366],[-77.91399,-6.22131],[-77.90282,-6.20807],[-77.90203,-6.19935],[-77.91026,-6.18169],[-77.90306,-6.16674],[-77.9043,-6.14619],[-77.89765,-6.13794],[-77.89541,-6.11142],[-77.89095,-6.10269],[-77.87609,-6.10249],[-77.85841,-6.12162],[-77.84145,-6.12865],[-77.82232,-6.13036],[-77.79224,-6.12543],[-77.78898,-6.12195],[-77.79612,-6.10239],[-77.80781,-6.08093],[-77.80507,-6.03056],[-77.79049,-6.02255],[-77.78016,-5.9955],[-77.77279,-5.98855],[-77.7745,-5.97432],[-77.74483,-5.94494],[-77.71726,-5.9442],[-77.70373,-5.9529],[-77.68756,-5.9791],[-77.67167,-5.9741],[-77.66063,-5.98845],[-77.63914,-6.00108],[-77.62208,-6.00483],[-77.61624,-6.00092],[-77.59771,-6.00442],[-77.59346,-6.00935],[-77.59825,-6.03128],[-77.5862,-6.03692],[-77.56513,-6.02918],[-77.55474,-6.05073],[-77.54223,-6.05279],[-77.53381,-6.06337]]]}},{"type":"Feature","properties":{"ubigeo":"0102","nombre":"Bagua"},"geometry":{"type":"Polygon","coordinates":[[[-78.55475,-5.53807],[-78.55011,-5.51872],[-78.55852,-5.49909],[-78.54308,-5.48177],[-78.54214,-5.47039],[-78.51518,-5.45435],[-78.51132,-5.4468],[-78.51376,-5.42609],[-78.52159,-5.42057],[-78.5184,-5.39928],[-78.53987,-5.36569],[-78.55131,-5.36027],[-78.56398,-5.34462],[-78.58981,-5.32494],[-78.60966,-5.30751],[-78.63844,-5.30533],[-78.64799,-5.29335],[-78.65443,-5.2743],[-78.67146,-5.26684],[-78.68424,-5.26749],[-78.68843,-5.25495],[-78.68409,-5.23982],[-78.69355,-5.23275],[-78.70299,-5.20773],[-78.71089,-5.15677],[-78.70583,-5.14959],[-78.70062,-5.10408],[-78.6955,-5.09347],[-78.68341,-5.08703],[-78.6802,-5.07212],[-78.65771,-5.06742],[-78.64746,-5.03933],[-78.64179,-5.03637],[-78.64305,-5.00606],[-78.65284,-4.98822],[-78.65143,-4.97857],[-78.66777,-4.97866],[-78.67833,-4.96838],[-78.66298,-4.94909],[-78.66228,-4.94135],[-78.6451,-4.90747],[-78.64101,-4.88987],[-78.64483,-4.88773],[-78.64306,-4.8561],[-78.63188,-4.83645],[-78.63588,-4.8303],[-78.64129,-4.79984],[-78.62079,-4.76854],[-78.63113,-4.75731],[-78.62827,-4.73968],[-78.64466,-4.73645],[-78.64,-4.70523],[-78.63171,-4.69843],[-78.63578,-4.68538],[-78.64363,-4.68216],[-78.63794,-4.65798],[-78.64969,-4.64662],[-78.66379,-4.65602],[-78.69538,-4.63696],[-78.70596,-4.62387],[-78.69562,-4.60745],[-78.67487,-4.59202],[-78.66822,-4.59411],[-78.65582,-4.58488],[-78.66286,-4.57009],[-78.65657,-4.56209],[-78.66268,-4.53691],[-78.64752,-4.50897],[-78.63575,-4.50088],[-78.62542,-4.50051],[-78.61909,-4.51001],[-78.59892,-4.50909],[-78.5907,-4.52863],[-78.58133,-4.53401],[-78.58872,-4.56197],[-78.5825,-4.58076],[-78.58279,-4.59986],[-78.57444,-4.60307],[-78.57163,-4.59538],[-78.55318,-4.57903],[-78.54025,-4.58453],[-78.52243,-4.58575],[-78.4966,-4.60629],[-78.48752,-4.6193],[-78.47123,-4.63113],[-78.46583,-4.64849],[-78.44868,-4.6455],[-78.41693,-4.65953],[-78.39975,-4.65778],[-78.39297,-4.65264],[-78.37,-4.65144],[-78.36126,-4.6477],[-78.34173,-4.66793],[-78.33982,-4.67774],[-78.32948,-4.67954],[-78.31774,-4.66733],[-78.30025,-4.67524],[-78.28509,-4.67309],[-78.2763,-4.65998],[-78.262,-4.68124],[-78.26892,-4.70387],[-78.26242,-4.72104],[-78.2189,-4.65854],[-78.19828,-4.65342],[-78.18642,-4.6561],[-78.16356,-4.63418],[-78.14729,-4.64319],[-78.15416,-4.65387],[-78.15001,-4.66297],[-78.13316,-4.66488],[-78.12014,-4.69951],[-78.14524,-4.7581],[-78.15414,-4.7627],[-78.13943,-4.77996],[-78.13638,-4.79353],[-78.14286,-4.80147],[-78.11941,-4.84024],[-78.12812,-4.84855],[-78.12778,-4.8833],[-78.13438,-4.88743],[-78.14089,-4.90931],[-78.14998,-4.91902],[-78.16121,-4.92296],[-78.16326,-4.94739],[-78.14587,-4.96816],[-78.14543,-4.98957],[-78.17696,-4.99454],[-78.19391,-5.02128],[-78.19484,-5.03789],[-78.17727,-5.06137],[-78.16771,-5.08091],[-78.14314,-5.08066],[-78.13779,-5.0855],[-78.14383,-5.09557],[-78.15403,-5.09653],[-78.15801,-5.11636],[-78.1424,-5.11886],[-78.12225,-5.1352],[-78.09932,-5.14609],[-78.09725,-5.16901],[-78.08633,-5.17491],[-78.07971,-5.17076],[-78.07149,-5.19142],[-78.0569,-5.20859],[-78.06066,-5.22197],[-78.06961,-5.2287],[-78.06699,-5.23898],[-78.07617,-5.25401],[-78.06761,-5.26527],[-78.07451,-5.28672],[-78.08086,-5.2946],[-78.0842,-5.31285],[-78.09074,-5.31831],[-78.09676,-5.34128],[-78.10615,-5.342],[-78.12125,-5.32892],[-78.14604,-5.3399],[-78.14802,-5.36059],[-78.15976,-5.37038],[-78.16341,-5.38683],[-78.17248,-5.39062],[-78.1797,-5.4069],[-78.20909,-5.42913],[-78.22273,-5.43525],[-78.22847,-5.44348],[-78.2304,-5.45942],[-78.23887,-5.47039],[-78.26708,-5.47478],[-78.27425,-5.47058],[-78.28801,-5.48056],[-78.31183,-5.48599],[-78.30316,-5.50083],[-78.3109,-5.50518],[-78.3246,-5.53317],[-78.33502,-5.53972],[-78.3234,-5.54993],[-78.32613,-5.56619],[-78.31351,-5.59613],[-78.31484,-5.61594],[-78.324,-5.62018],[-78.36813,-5.62679],[-78.38718,-5.64922],[-78.40233,-5.67196],[-78.40557,-5.69026],[-78.44829,-5.73137],[-78.45538,-5.73297],[-78.45946,-5.71584],[-78.48938,-5.69559],[-78.50331,-5.69156],[-78.4978,-5.68144],[-78.50558,-5.68008],[-78.51638,-5.65748],[-78.53309,-5.64409],[-78.54938,-5.65102],[-78.56025,-5.64658],[-78.5566,-5.63725],[-78.56372,-5.62755],[-78.55601,-5.62606],[-78.54224,-5.6117],[-78.56636,-5.59464],[-78.56432,-5.5662],[-78.55449,-5.55995],[-78.56336,-5.55557],[-78.55348,-5.54807],[-78.55475,-5.53807]]]}},{"type":"Feature","properties":{"ubigeo":"0103","nombre":"Bongará"},"geometry":{"type":"Polygon","coordinates":[[[-77.74483,-5.4069],[-77.74672,-5.41379],[-77.76845,-5.43805],[-77.74901,-5.45809],[-77.75083,-5.46419],[-77.77064,-5.47815],[-77.77157,-5.49392],[-77.75704,-5.51394],[-77.76576,-5.53898],[-77.74986,-5.57344],[-77.75168,-5.58226],[-77.74446,-5.58733],[-77.73689,-5.60514],[-77.73892,-5.62217],[-77.75261,-5.63758],[-77.75437,-5.659],[-77.76917,-5.6745],[-77.77371,-5.68521],[-77.77515,-5.71075],[-77.76591,-5.71603],[-77.75936,-5.72985],[-77.76171,-5.74237],[-77.77224,-5.75287],[-77.76074,-5.76923],[-77.77036,-5.78814],[-77.76393,-5.81971],[-77.74614,-5.83511],[-77.72642,-5.84398],[-77.69481,-5.84023],[-77.68153,-5.84949],[-77.67788,-5.85965],[-77.68343,-5.87606],[-77.66611,-5.89385],[-77.66889,-5.89681],[-77.66329,-5.91767],[-77.65189,-5.93533],[-77.65991,-5.95513],[-77.67125,-5.96326],[-77.67167,-5.9741],[-77.68756,-5.9791],[-77.70373,-5.9529],[-77.71726,-5.9442],[-77.74483,-5.94494],[-77.7745,-5.97432],[-77.77279,-5.98855],[-77.78016,-5.9955],[-77.79049,-6.02255],[-77.80507,-6.03056],[-77.80781,-6.08093],[-77.79612,-6.10239],[-77.78898,-6.12195],[-77.79224,-6.12543],[-77.82232,-6.13036],[-77.84145,-6.12865],[-77.85841,-6.12162],[-77.87609,-6.10249],[-77.89095,-6.10269],[-77.90392,-6.09208],[-77.91139,-6.06894],[-77.93107,-6.05263],[-77.93589,-6.03785],[-77.95218,-6.02225],[-77.96453,-5.99147],[-77.97907,-5.96591],[-78.0176,-5.97496],[-78.05031,-5.97717],[-78.06079,-5.97291],[-78.07879,-5.95412],[-78.07563,-5.94549],[-78.08264,-5.93368],[-78.07445,-5.92037],[-78.12737,-5.91618],[-78.1308,-5.90256],[-78.13522,-5.89424],[-78.1224,-5.89108],[-78.11873,-5.87241],[-78.10455,-5.85726],[-78.10249,-5.84135],[-78.09631,-5.83668],[-78.10229,-5.82511],[-78.09703,-5.80906],[-78.08581,-5.79319],[-78.0863,-5.78642],[-78.07636,-5.76943],[-78.10397,-5.75504],[-78.01239,-5.6115],[-78.01174,-5.60229],[-78.00212,-5.59597],[-77.99563,-5.5834],[-77.98491,-5.57581],[-77.98996,-5.5327],[-77.98481,-5.52739],[-77.99127,-5.51408],[-77.97455,-5.50833],[-77.94142,-5.48939],[-77.93256,-5.49094],[-77.93136,-5.46081],[-77.93714,-5.45167],[-77.94328,-5.42205],[-77.95468,-5.41836],[-77.95552,-5.39972],[-77.74529,-5.13302],[-77.72086,-5.14045],[-77.69508,-5.1671],[-77.70343,-5.17478],[-77.70824,-5.19091],[-77.72754,-5.2009],[-77.73956,-5.2126],[-77.72302,-5.23457],[-77.70983,-5.23974],[-77.69308,-5.26769],[-77.69275,-5.28359],[-77.68415,-5.29588],[-77.6862,-5.30247],[-77.68207,-5.3384],[-77.68805,-5.34635],[-77.69623,-5.37344],[-77.70279,-5.38069],[-77.69596,-5.41105],[-77.7127,-5.41641],[-77.74483,-5.4069]]]}},{"type":"Feature","properties":{"ubigeo":"0104","nombre":"Condorcanqui"},"geometry":{"type":"Polygon","coordinates":[[[-77.95552,-5.39972],[-77.96544,-5.39309],[-77.97982,-5.39521],[-77.99239,-5.39178],[-78.00899,-5.37103],[-78.02179,-5.36581],[-78.0509,-5.37505],[-78.05512,-5.39543],[-78.04833,-5.41053],[-78.05544,-5.4138],[-78.07319,-5.40919],[-78.08056,-5.40237],[-78.07896,-5.39221],[-78.09383,-5.36047],[-78.10615,-5.342],[-78.09676,-5.34128],[-78.09074,-5.31831],[-78.0842,-5.31285],[-78.08086,-5.2946],[-78.07451,-5.28672],[-78.06761,-5.26527],[-78.07617,-5.25401],[-78.06699,-5.23898],[-78.06961,-5.2287],[-78.06066,-5.22197],[-78.0569,-5.20859],[-78.07149,-5.19142],[-78.07971,-5.17076],[-78.08633,-5.17491],[-78.09725,-5.16901],[-78.09932,-5.14609],[-78.12225,-5.1352],[-78.1424,-5.11886],[-78.15801,-5.11636],[-78.15403,-5.09653],[-78.14383,-5.09557],[-78.13779,-5.0855],[-78.14314,-5.08066],[-78.16771,-5.08091],[-78.17727,-5.06137],[-78.19484,-5.03789],[-78.19391,-5.02128],[-78.17696,-4.99454],[-78.14543,-4.98957],[-78.14587,-4.96816],[-78.16326,-4.94739],[-78.16121,-4.92296],[-78.14998,-4.91902],[-78.14089,-4.90931],[-78.13438,-4.88743],[-78.12778,-4.8833],[-78.12812,-4.84855],[-78.11941,-4.84024],[-78.14286,-4.80147],[-78.13638,-4.79353],[-78.13943,-4.77996],[-78.15414,-4.7627],[-78.14524,-4.7581],[-78.12014,-4.69951],[-78.13316,-4.66488],[-78.15001,-4.66297],[-78.15416,-4.65387],[-78.14729,-4.64319],[-78.16356,-4.63418],[-78.18642,-4.6561],[-78.19828,-4.65342],[-78.2189,-4.65854],[-78.26242,-4.72104],[-78.26892,-4.70387],[-78.262,-4.68124],[-78.2763,-4.65998],[-78.28509,-4.67309],[-78.30025,-4.67524],[-78.31774,-4.66733],[-78.32948,-4.67954],[-78.33982,-4.67774],[-78.34173,-4.66793],[-78.36126,-4.6477],[-78.37,-4.65144],[-78.39297,-4.65264],[-78.39975,-4.65778],[-78.41693,-4.65953],[-78.44868,-4.6455],[-78.46583,-4.64849],[-78.47123,-4.63113],[-78.48752,-4.6193],[-78.4966,-4.60629],[-78.52243,-4.58575],[-78.54025,-4.58453],[-78.55318,-4.57903],[-78.57163,-4.59538],[-78.57444,-4.60307],[-78.58279,-4.59986],[-78.5825,-4.58076],[-78.58872,-4.56197],[-78.58133,-4.53401],[-78.5907,-4.52863],[-78.59892,-4.50909],[-78.61909,-4.51001],[-78.62542,-4.50051],[-78.63575,-4.50088],[-78.63741,-4.47821],[-78.63382,-4.46287],[-78.62761,-4.45822],[-78.61989,-4.43679],[-78.60087,-4.42883],[-78.60397,-4.41165],[-78.63409,-4.41516],[-78.64113,-4.40093],[-78.63857,-4.37986],[-78.65076,-4.35182],[-78.65227,-4.33251],[-78.63818,-4.30265],[-78.61824,-4.29422],[-78.61086,-4.26726],[-78.60172,-4.2562],[-78.60889,-4.23394],[-78.60774,-4.2203],[-78.59834,-4.20791],[-78.57728,-4.19555],[-78.57875,-4.18166],[-78.57437,-4.17074],[-78.58132,-4.1355],[-78.56835,-4.10229],[-78.54079,-4.07388],[-78.53754,-4.06063],[-78.56263,-4.04981],[-78.5697,-4.03741],[-78.56491,-4.02293],[-78.56611,-3.9933],[-78.56139,-3.98535],[-78.54169,-3.97262],[-78.54287,-3.96461],[-78.52867,-3.94966],[-78.5245,-3.93726],[-78.48867,-3.93361],[-78.47555,-3.90606],[-78.48656,-3.89244],[-78.47761,-3.88224],[-78.47653,-3.85869],[-78.46837,-3.84462],[-78.46196,-3.84358],[-78.46333,-3.82484],[-78.45319,-3.82694],[-78.43565,-3.81848],[-78.41391,-3.79261],[-78.40867,-3.77168],[-78.41582,-3.76736],[-78.40248,-3.73539],[-78.42175,-3.72329],[-78.41787,-3.7092],[-78.42274,-3.69089],[-78.41575,-3.68597],[-78.40142,-3.69031],[-78.39322,-3.67718],[-78.39915,-3.66862],[-78.39457,-3.65982],[-78.40082,-3.65134],[-78.38631,-3.6401],[-78.39781,-3.6226],[-78.39985,-3.6081],[-78.39256,-3.59955],[-78.39475,-3.58776],[-78.38621,-3.57371],[-78.39119,-3.5601],[-78.37698,-3.54949],[-78.36493,-3.5297],[-78.36657,-3.51414],[-78.35524,-3.49357],[-78.35392,-3.48094],[-78.35918,-3.46952],[-78.34535,-3.44844],[-78.34138,-3.4271],[-78.35623,-3.40356],[-78.33999,-3.38215],[-78.31642,-3.39605],[-78.30119,-3.39976],[-78.28795,-3.39634],[-78.26908,-3.40467],[-78.24621,-3.40233],[-78.24156,-3.40997],[-78.24324,-3.43981],[-78.23665,-3.44559],[-78.23637,-3.46152],[-78.22632,-3.49103],[-78.22953,-3.50139],[-78.21479,-3.50859],[-78.20079,-3.49578],[-78.1929,-3.50016],[-78.16816,-3.49068],[-78.1609,-3.48054],[-78.14917,-3.4808],[-78.14489,-3.46045],[-78.15491,-3.41156],[-78.17774,-3.41009],[-78.17967,-3.39612],[-78.18903,-3.38562],[-78.18985,-3.37096],[-78.1958,-3.36288],[-78.17121,-3.35083],[-78.15161,-3.33321],[-78.13919,-3.32768],[-78.13953,-3.31659],[-78.12734,-3.29862],[-78.10725,-3.27715],[-78.10578,-3.26332],[-78.09898,-3.26148],[-78.09071,-3.23431],[-78.06477,-3.22445],[-78.05468,-3.20839],[-78.04157,-3.20368],[-78.03538,-3.18906],[-78.02008,-3.18608],[-78.01269,-3.17885],[-78.00913,-3.15807],[-77.98496,-3.1336],[-77.98245,-3.11965],[-77.97215,-3.11841],[-77.96268,-3.0954],[-77.95137,-3.09053],[-77.94733,-3.07254],[-77.94075,-3.06547],[-77.84005,-3.0082],[-77.84457,-2.998],[-77.80862,-2.98613],[-77.81725,-3.00079],[-77.80826,-3.02295],[-77.79315,-3.04398],[-77.78766,-3.07478],[-77.79434,-3.09011],[-77.78643,-3.10274],[-77.79094,-3.11763],[-77.78329,-3.17423],[-77.77852,-3.18718],[-77.77985,-3.29158],[-77.77528,-3.32406],[-77.77835,-3.35929],[-77.77648,-3.40913],[-77.77254,-3.42881],[-77.76427,-3.44352],[-77.76054,-3.4598],[-77.75301,-3.46241],[-77.74564,-3.48223],[-77.72773,-3.50546],[-77.71646,-3.51244],[-77.71089,-3.52626],[-77.71646,-3.54231],[-77.68984,-3.55569],[-77.67041,-3.56838],[-77.65934,-3.58244],[-77.64301,-3.61935],[-77.62195,-3.62053],[-77.61694,-3.6343],[-77.62136,-3.66433],[-77.61778,-3.67472],[-77.62135,-3.68611],[-77.61562,-3.70772],[-77.6223,-3.71773],[-77.62605,-3.73496],[-77.64321,-3.75306],[-77.65157,-3.78184],[-77.63574,-3.80126],[-77.62313,-3.82214],[-77.60924,-3.82524],[-77.58192,-3.86282],[-77.56169,-3.87756],[-77.56902,-3.89307],[-77.56088,-3.90402],[-77.55716,-3.91816],[-77.54177,-3.94333],[-77.53788,-3.9619],[-77.54123,-3.98638],[-77.5381,-4.00347],[-77.53812,-4.02871],[-77.54966,-4.10989],[-77.55838,-4.12997],[-77.569,-4.16988],[-77.56759,-4.179],[-77.5806,-4.24071],[-77.58555,-4.25133],[-77.57956,-4.27618],[-77.57901,-4.30116],[-77.57156,-4.32881],[-77.56539,-4.37246],[-77.56488,-4.39355],[-77.56828,-4.42092],[-77.57349,-4.43044],[-77.58594,-4.47501],[-77.59105,-4.48265],[-77.60455,-4.48581],[-77.61752,-4.49588],[-77.64063,-4.49652],[-77.64135,-4.51006],[-77.65546,-4.51854],[-77.64902,-4.54642],[-77.65965,-4.55797],[-77.65312,-4.57599],[-77.65925,-4.58138],[-77.66616,-4.61568],[-77.67195,-4.62947],[-77.69451,-4.65867],[-77.71597,-4.66509],[-77.73139,-4.68844],[-77.75596,-4.70246],[-77.77188,-4.71756],[-77.78305,-4.73289],[-77.79462,-4.76301],[-77.78927,-4.78511],[-77.7954,-4.79304],[-77.79582,-4.81858],[-77.79175,-4.83377],[-77.79357,-4.84996],[-77.7748,-4.87822],[-77.77379,-4.89167],[-77.76015,-4.90935],[-77.76693,-4.92122],[-77.75929,-4.95178],[-77.76818,-4.95593],[-77.78627,-4.98805],[-77.80834,-5.01549],[-77.82462,-5.03178],[-77.81603,-5.03829],[-77.81193,-5.05471],[-77.82228,-5.08179],[-77.81766,-5.09123],[-77.80202,-5.0862],[-77.791,-5.09522],[-77.77429,-5.09718],[-77.76757,-5.11159],[-77.74529,-5.13302],[-77.95552,-5.39972]]]}},{"type":"Feature","properties":{"ubigeo":"0105","nombre":"Luya"},"geometry":{"type":"Polygon","coordinates":[[[-78.03533,-6.74271],[-78.03917,-6.71458],[-78.04388,-6.71234],[-78.04638,-6.68871],[-78.05676,-6.67574],[-78.07313,-6.6732],[-78.08022,-6.6553],[-78.09412,-6.65737],[-78.10509,-6.64571],[-78.10599,-6.61937],[-78.12074,-6.59732],[-78.11667,-6.578],[-78.13763,-6.56317],[-78.13578,-6.52701],[-78.15048,-6.51242],[-78.15218,-6.49983],[-78.16437,-6.4908],[-78.17304,-6.49418],[-78.17709,-6.47442],[-78.18576,-6.47111],[-78.19003,-6.45702],[-78.20999,-6.45803],[-78.21806,-6.44695],[-78.22188,-6.42971],[-78.25149,-6.39642],[-78.26829,-6.39111],[-78.27529,-6.39969],[-78.27793,-6.38896],[-78.29354,-6.37179],[-78.29952,-6.37538],[-78.319,-6.35702],[-78.33373,-6.35098],[-78.33539,-6.31868],[-78.34774,-6.29854],[-78.35642,-6.29543],[-78.36037,-6.28038],[-78.36996,-6.27108],[-78.37009,-6.23908],[-78.38026,-6.23074],[-78.40162,-6.22597],[-78.40203,-6.21977],[-78.41899,-6.20571],[-78.41973,-6.18842],[-78.40121,-6.18116],[-78.38941,-6.17144],[-78.37306,-6.16978],[-78.36785,-6.1469],[-78.37245,-6.13364],[-78.36812,-6.10862],[-78.34972,-6.08687],[-78.32723,-6.08],[-78.30378,-6.08504],[-78.2914,-6.06515],[-78.26539,-6.06299],[-78.24908,-6.05804],[-78.22372,-6.06155],[-78.21405,-6.05529],[-78.20684,-6.03902],[-78.19744,-6.03133],[-78.16433,-6.01727],[-78.17241,-5.99415],[-78.16459,-5.98558],[-78.15441,-5.96381],[-78.13588,-5.95892],[-78.14498,-5.94569],[-78.13691,-5.92824],[-78.13712,-5.90695],[-78.1308,-5.90256],[-78.12737,-5.91618],[-78.07445,-5.92037],[-78.08264,-5.93368],[-78.07563,-5.94549],[-78.07879,-5.95412],[-78.06079,-5.97291],[-78.05031,-5.97717],[-78.0176,-5.97496],[-77.97907,-5.96591],[-77.96453,-5.99147],[-77.95218,-6.02225],[-77.93589,-6.03785],[-77.93107,-6.05263],[-77.91139,-6.06894],[-77.90392,-6.09208],[-77.89095,-6.10269],[-77.89541,-6.11142],[-77.89765,-6.13794],[-77.9043,-6.14619],[-77.90306,-6.16674],[-77.91026,-6.18169],[-77.90203,-6.19935],[-77.90282,-6.20807],[-77.91399,-6.22131],[-77.91795,-6.2366],[-77.9258,-6.24835],[-77.93421,-6.25035],[-77.94201,-6.26883],[-77.94128,-6.2835],[-77.93592,-6.28608],[-77.93632,-6.31637],[-77.92719,-6.32939],[-77.93199,-6.33614],[-77.91989,-6.3685],[-77.90587,-6.36758],[-77.90547,-6.38046],[-77.88484,-6.40864],[-77.87786,-6.40707],[-77.87224,-6.41694],[-77.87724,-6.42611],[-77.86258,-6.4455],[-77.85921,-6.46412],[-77.86381,-6.47482],[-77.85243,-6.49897],[-77.85141,-6.50898],[-77.83232,-6.53208],[-77.82727,-6.54701],[-77.83036,-6.56745],[-77.81794,-6.59372],[-77.81115,-6.61408],[-77.81335,-6.63474],[-77.79813,-6.65638],[-77.7983,-6.69557],[-77.80316,-6.70707],[-77.81099,-6.70674],[-77.82296,-6.71551],[-77.83536,-6.73289],[-77.8506,-6.72748],[-77.89281,-6.73412],[-77.90507,-6.71453],[-77.90688,-6.70223],[-77.91948,-6.69026],[-77.93597,-6.68979],[-77.94183,-6.70298],[-77.97231,-6.71767],[-78.00102,-6.72121],[-78.00886,-6.74296],[-78.02782,-6.74591],[-78.03533,-6.74271]]]}},{"type":"Feature","properties":{"ubigeo":"0106","nombre":"Rodríguez de Mendoza"},"geometry":{"type":"Polygon","coordinates":[[[-77.14658,-6.35111],[-77.14941,-6.35894],[-77.17173,-6.38117],[-77.19319,-6.38152],[-77.20824,-6.37518],[-77.22146,-6.38113],[-77.23347,-6.35993],[-77.24128,-6.35264],[-77.24365,-6.33812],[-77.25467,-6.33645],[-77.26001,-6.32771],[-77.28666,-6.33102],[-77.28098,-6.36307],[-77.28255,-6.37334],[-77.27551,-6.38473],[-77.27316,-6.40653],[-77.29803,-6.42549],[-77.3046,-6.45132],[-77.32636,-6.46803],[-77.33285,-6.49146],[-77.33048,-6.49749],[-77.33515,-6.52233],[-77.34485,-6.54723],[-77.36096,-6.56507],[-77.37868,-6.56743],[-77.38392,-6.57338],[-77.39387,-6.60269],[-77.40088,-6.60446],[-77.43788,-6.60253],[-77.43565,-6.61807],[-77.42369,-6.63806],[-77.40766,-6.64633],[-77.40499,-6.66305],[-77.39773,-6.66935],[-77.38173,-6.69759],[-77.40014,-6.70845],[-77.40715,-6.72678],[-77.41866,-6.70808],[-77.43736,-6.70099],[-77.45466,-6.68169],[-77.47548,-6.68363],[-77.48942,-6.67562],[-77.51718,-6.67363],[-77.52062,-6.67954],[-77.53497,-6.67404],[-77.54407,-6.677],[-77.56114,-6.65461],[-77.5637,-6.64408],[-77.57578,-6.63453],[-77.5839,-6.63463],[-77.61234,-6.61226],[-77.62666,-6.61274],[-77.64325,-6.60458],[-77.65587,-6.60366],[-77.66655,-6.57826],[-77.68275,-6.57905],[-77.69138,-6.58609],[-77.70618,-6.58159],[-77.70903,-6.56494],[-77.72618,-6.55206],[-77.73121,-6.50209],[-77.72884,-6.49412],[-77.73858,-6.46409],[-77.7326,-6.45315],[-77.74408,-6.44014],[-77.74352,-6.42066],[-77.75226,-6.40355],[-77.74432,-6.38457],[-77.71598,-6.36236],[-77.70414,-6.36074],[-77.71049,-6.34611],[-77.69905,-6.33558],[-77.67004,-6.33982],[-77.62417,-6.30613],[-77.62346,-6.28971],[-77.61757,-6.28076],[-77.59855,-6.29256],[-77.58901,-6.30442],[-77.56788,-6.30946],[-77.55481,-6.30258],[-77.54013,-6.28745],[-77.5277,-6.25896],[-77.52976,-6.24571],[-77.5153,-6.22504],[-77.50133,-6.21569],[-77.48262,-6.1919],[-77.46981,-6.18235],[-77.48807,-6.1586],[-77.49977,-6.153],[-77.49549,-6.14144],[-77.49972,-6.12831],[-77.50938,-6.11873],[-77.50547,-6.10887],[-77.50992,-6.08649],[-77.52216,-6.08417],[-77.53381,-6.06337],[-77.51884,-6.05594],[-77.50975,-6.0325],[-77.48976,-6.02886],[-77.48731,-6.01117],[-77.47358,-6.00005],[-77.46751,-6.01961],[-77.43446,-6.06041],[-77.42226,-6.05007],[-77.4193,-6.03238],[-77.3955,-6.03938],[-77.3805,-6.07999],[-77.36045,-6.07219],[-77.35122,-6.09019],[-77.34643,-6.11434],[-77.33241,-6.11218],[-77.31687,-6.12555],[-77.30121,-6.13313],[-77.29,-6.13313],[-77.28153,-6.14172],[-77.25383,-6.13851],[-77.2452,-6.14747],[-77.22299,-6.1469],[-77.21212,-6.16083],[-77.20257,-6.18203],[-77.21909,-6.19573],[-77.21242,-6.21419],[-77.19728,-6.23342],[-77.16908,-6.25501],[-77.17079,-6.2652],[-77.16061,-6.26945],[-77.13273,-6.30242],[-77.1323,-6.32255],[-77.14658,-6.35111]]]}},{"type":"Feature","properties":{"ubigeo":"0107","nombre":"Utcubamba"},"geometry":{"type":"Polygon","coordinates":[[[-78.1308,-5.90256],[-78.13712,-5.90695],[-78.13691,-5.92824],[-78.14498,-5.94569],[-78.13588,-5.95892],[-78.15441,-5.96381],[-78.16459,-5.98558],[-78.17241,-5.99415],[-78.16433,-6.01727],[-78.19744,-6.03133],[-78.20684,-6.03902],[-78.21405,-6.05529],[-78.22372,-6.06155],[-78.24908,-6.05804],[-78.26539,-6.06299],[-78.2914,-6.06515],[-78.30378,-6.08504],[-78.32723,-6.08],[-78.34972,-6.08687],[-78.36812,-6.10862],[-78.37245,-6.13364],[-78.36785,-6.1469],[-78.37306,-6.16978],[-78.38941,-6.17144],[-78.40121,-6.18116],[-78.41973,-6.18842],[-78.43702,-6.17363],[-78.43816,-6.16569],[-78.4605,-6.14817],[-78.46739,-6.13464],[-78.47584,-6.13263],[-78.47728,-6.11483],[-78.49844,-6.1025],[-78.49861,-6.08927],[-78.5082,-6.0858],[-78.51586,-6.07206],[-78.54103,-6.07376],[-78.55583,-6.07128],[-78.56059,-6.07772],[-78.58872,-6.07608],[-78.60857,-6.05429],[-78.60693,-6.02774],[-78.61121,-6.01661],[-78.63586,-5.98874],[-78.6432,-5.9682],[-78.65838,-5.95835],[-78.6718,-5.91926],[-78.68277,-5.91108],[-78.68766,-5.89691],[-78.69593,-5.88853],[-78.69133,-5.87196],[-78.69837,-5.86087],[-78.69915,-5.84076],[-78.71229,-5.82872],[-78.70057,-5.78522],[-78.69472,-5.77705],[-78.69176,-5.75074],[-78.68603,-5.74437],[-78.65368,-5.73522],[-78.65182,-5.72189],[-78.66643,-5.71739],[-78.6838,-5.70705],[-78.68633,-5.69889],[-78.67921,-5.69073],[-78.65108,-5.67563],[-78.64881,-5.66227],[-78.63758,-5.64434],[-78.62477,-5.63936],[-78.61818,-5.62069],[-78.60482,-5.60721],[-78.60812,-5.59615],[-78.6,-5.59024],[-78.59419,-5.57071],[-78.58513,-5.56483],[-78.58074,-5.54848],[-78.56408,-5.53828],[-78.55475,-5.53807],[-78.55348,-5.54807],[-78.56336,-5.55557],[-78.55449,-5.55995],[-78.56432,-5.5662],[-78.56636,-5.59464],[-78.54224,-5.6117],[-78.55601,-5.62606],[-78.56372,-5.62755],[-78.5566,-5.63725],[-78.56025,-5.64658],[-78.54938,-5.65102],[-78.53309,-5.64409],[-78.51638,-5.65748],[-78.50558,-5.68008],[-78.4978,-5.68144],[-78.50331,-5.69156],[-78.48938,-5.69559],[-78.45946,-5.71584],[-78.45538,-5.73297],[-78.44829,-5.73137],[-78.40557,-5.69026],[-78.40233,-5.67196],[-78.38718,-5.64922],[-78.36813,-5.62679],[-78.324,-5.62018],[-78.31484,-5.61594],[-78.31351,-5.59613],[-78.32613,-5.56619],[-78.3234,-5.54993],[-78.33502,-5.53972],[-78.3246,-5.53317],[-78.3109,-5.50518],[-78.30316,-5.50083],[-78.31183,-5.48599],[-78.28801,-5.48056],[-78.27425,-5.47058],[-78.26708,-5.47478],[-78.23887,-5.47039],[-78.2304,-5.45942],[-78.22847,-5.44348],[-78.22273,-5.43525],[-78.20909,-5.42913],[-78.1797,-5.4069],[-78.17248,-5.39062],[-78.16341,-5.38683],[-78.15976,-5.37038],[-78.14802,-5.36059],[-78.14604,-5.3399],[-78.12125,-5.32892],[-78.10615,-5.342],[-78.09383,-5.36047],[-78.07896,-5.39221],[-78.08056,-5.40237],[-78.07319,-5.40919],[-78.05544,-5.4138],[-78.04833,-5.41053],[-78.05512,-5.39543],[-78.0509,-5.37505],[-78.02179,-5.36581],[-78.00899,-5.37103],[-77.99239,-5.39178],[-77.97982,-5.39521],[-77.96544,-5.39309],[-77.95552,-5.39972],[-77.95468,-5.41836],[-77.94328,-5.42205],[-77.93714,-5.45167],[-77.93136,-5.46081],[-77.93256,-5.49094],[-77.94142,-5.48939],[-77.97455,-5.50833],[-77.99127,-5.51408],[-77.98481,-5.52739],[-77.98996,-5.5327],[-77.98491,-5.57581],[-77.99563,-5.5834],[-78.00212,-5.59597],[-78.01174,-5.60229],[-78.01239,-5.6115],[-78.10397,-5.75504],[-78.07636,-5.76943],[-78.0863,-5.78642],[-78.08581,-5.79319],[-78.09703,-5.80906],[-78.10229,-5.82511],[-78.09631,-5.83668],[-78.10249,-5.84135],[-78.10455,-5.85726],[-78.11873,-5.87241],[-78.1224,-5.89108],[-78.13522,-5.89424],[-78.1308,-5.90256]]]}}]}