{"type":"FeatureCollection","features":[{"type":"Feature","properties":{"ubigeo":"0201","nombre":"Huaraz"},"geometry":{"type":"Polygon","coordinates":[[[-77.26971,-9.64874],[-77.29507,-9.65879],[-77.29729,-9.66608],[-77.31099,-9.67431],[-77.32926,-9.67626],[-77.3314,-9.66754],[-77.34372,-9.66572],[-77.35832,-9.67115],[-77.37252,-9.66959],[-77.39977,-9.67253],[-77.42438,-9.67972],[-77.43262,-9.67335],[-77.44073,-9.67751],[-77.44949,-9.66909],[-77.46433,-9.66684],[-77.4795,-9.67122],[-77.4833,-9.66271],[-77.5031,-9.6627],[-77.5256,-9.6896],[-77.52094,-9.71035],[-77.52508,-9.72648],[-77.53625,-9.73787],[-77.54707,-9.71252],[-77.54161,-9.70589],[-77.56511,-9.68023],[-77.56921,-9.66915],[-77.59203,-9.65878],[-77.59817,-9.63974],[-77.61162,-9.64966],[-77.61006,-9.62867],[-77.6213,-9.62083],[-77.64592,-9.64837],[-77.66428,-9.66046],[-77.66099,-9.686],[-77.67975,-9.68489],[-77.69987,-9.69718],[-77.71212,-9.69002],[-77.72482,-9.69635],[-77.73333,-9.71277],[-77.73024,-9.72127],[-77.73381,-9.73721],[-77.74498,-9.74685],[-77.76036,-9.78799],[-77.77431,-9.79104],[-77.7808,-9.80067],[-77.79479,-9.79135],[-77.81142,-9.79221],[-77.8205,-9.78109],[-77.85351,-9.76652],[-77.86786,-9.76378],[-77.88386,-9.76967],[-77.92756,-9.76781],[-77.94139,-9.77322],[-77.95381,-9.77159],[-77.96163,-9.77998],[-77.97093,-9.75766],[-77.98712,-9.73945],[-77.98432,-9.72899],[-77.96998,-9.7196],[-77.96762,-9.70614],[-77.9797,-9.71184],[-78.00096,-9.71143],[-78.02941,-9.70181],[-78.04189,-9.6899],[-78.02137,-9.68833],[-78.00609,-9.68064],[-78.00263,-9.66682],[-77.98929,-9.64444],[-77.97603,-9.63905],[-77.96079,-9.61537],[-77.95926,-9.59045],[-77.97471,-9.56987],[-77.97415,-9.55048],[-77.9923,-9.53615],[-77.97114,-9.53102],[-77.94636,-9.53971],[-77.93633,-9.52807],[-77.93375,-9.50822],[-77.92822,-9.49867],[-77.91903,-9.4976],[-77.91535,-9.48763],[-77.92923,-9.48405],[-77.90599,-9.45621],[-77.901,-9.44223],[-77.89236,-9.42942],[-77.88245,-9.42541],[-77.857,-9.40273],[-77.84458,-9.41233],[-77.83863,-9.42404],[-77.80397,-9.42231],[-77.77892,-9.42509],[-77.76624,-9.42186],[-77.76064,-9.41373],[-77.76583,-9.40065],[-77.7567,-9.39481],[-77.7442,-9.37071],[-77.71895,-9.38237],[-77.69048,-9.37784],[-77.67513,-9.39438],[-77.68138,-9.41766],[-77.66564,-9.42666],[-77.66477,-9.43742],[-77.64964,-9.45213],[-77.64429,-9.44719],[-77.64368,-9.43259],[-77.61301,-9.42208],[-77.60999,-9.40994],[-77.60105,-9.40107],[-77.58166,-9.39148],[-77.58494,-9.37529],[-77.5764,-9.37412],[-77.54229,-9.38659],[-77.53001,-9.37271],[-77.51036,-9.36902],[-77.48301,-9.37014],[-77.47603,-9.36369],[-77.46847,-9.36734],[-77.44565,-9.35584],[-77.41547,-9.35577],[-77.39764,-9.34661],[-77.39852,-9.35608],[-77.38259,-9.37057],[-77.37044,-9.36825],[-77.36833,-9.37487],[-77.35102,-9.38846],[-77.33009,-9.38239],[-77.32905,-9.39027],[-77.31688,-9.39503],[-77.31972,-9.42711],[-77.30068,-9.44086],[-77.30217,-9.45431],[-77.30876,-9.4648],[-77.3262,-9.47193],[-77.31883,-9.50397],[-77.31034,-9.51473],[-77.30467,-9.53528],[-77.30939,-9.54016],[-77.30081,-9.55501],[-77.30983,-9.57206],[-77.30812,-9.57904],[-77.29579,-9.5814],[-77.2857,-9.59936],[-77.28371,-9.61785],[-77.27386,-9.63423],[-77.26748,-9.63503],[-77.26971,-9.64874]]]}},{"type":"Feature","properties":{"ubigeo":"0202","nombre":"Aija"},"geometry":{"type":"Polygon","coordinates":[[[-77.55249,-9.87218],[-77.57665,-9.87184],[-77.58384,-9.86473],[-77.60679,-9.86038],[-77.6214,-9.86778],[-77.62809,-9.85981],[-77.64125,-9.85605],[-77.66411,-9.86533],[-77.70355,-9.84835],[-77.71205,-9.8371],[-77.73471,-9.84685],[-77.74434,-9.85885],[-77.76375,-9.87243],[-77.76611,-9.89017],[-77.77215,-9.89014],[-77.77979,-9.90506],[-77.79882,-9.90842],[-77.81247,-9.90569],[-77.82553,-9.90837],[-77.82987,-9.88799],[-77.82694,-9.87809],[-77.84372,-9.84405],[-77.83275,-9.84073],[-77.85389,-9.81709],[-77.88222,-9.81179],[-77.90312,-9.82299],[-77.93421,-9.80622],[-77.96163,-9.77998],[-77.95381,-9.77159],[-77.94139,-9.77322],[-77.92756,-9.76781],[-77.88386,-9.76967],[-77.86786,-9.76378],[-77.85351,-9.76652],[-77.8205,-9.78109],[-77.81142,-9.79221],[-77.79479,-9.79135],[-77.7808,-9.80067],[-77.77431,-9.79104],[-77.76036,-9.78799],[-77.74498,-9.74685],[-77.73381,-9.73721],[-77.73024,-9.72127],[-77.73333,-9.71277],[-77.72482,-9.69635],[-77.71212,-9.69002],[-77.69987,-9.69718],[-77.67975,-9.68489],[-77.66099,-9.686],[-77.66428,-9.66046],[-77.64592,-9.64837],[-77.6213,-9.62083],[-77.61006,-9.62867],[-77.61162,-9.64966],[-77.59817,-9.63974],[-77.59203,-9.65878],[-77.56921,-9.66915],[-77.56511,-9.68023],[-77.54161,-9.70589],[-77.54707,-9.71252],[-77.53625,-9.73787],[-77.52987,-9.76402],[-77.52169,-9.77457],[-77.52145,-9.79227],[-77.50688,-9.79906],[-77.50194,-9.81325],[-77.48895,-9.81984],[-77.49428,-9.83752],[-77.48504,-9.83883],[-77.4789,-9.87377],[-77.49106,-9.8707],[-77.50378,-9.87412],[-77.5099,-9.86584],[-77.52479,-9.86771],[-77.53773,-9.86127],[-77.55249,-9.87218]]]}},{"type":"Feature","properties":{"ubigeo":"0203","nombre":"Antonio Raymondi"},"geometry":{"type":"Polygon","coordinates":[[[-77.17387,-9.15996],[-77.15458,-9.14184],[-77.16841,-9.12157],[-77.16547,-9.10579],[-77.15303,-9.09488],[-77.14411,-9.09566],[-77.14139,-9.0556],[-77.15239,-9.03372],[-77.12879,-9.02417],[-77.11133,-9.00836],[-77.12279,-8.97805],[-77.10314,-8.97243],[-77.09316,-8.97173],[-77.06142,-8.99238],[-77.03719,-8.99929],[-77.03412,-9.01197],[-77.01678,-9.02662],[-77.00279,-9.03262],[-76.99585,-9.04714],[-76.98017,-9.06299],[-76.96514,-9.06183],[-76.9454,-9.07483],[-76.94693,-9.11422],[-76.94441,-9.13315],[-76.96159,-9.15325],[-76.95946,-9.17014],[-76.9631,-9.17644],[-76.96001,-9.20598],[-76.96935,-9.21474],[-76.97477,-9.23816],[-76.98956,-9.25122],[-76.98946,-9.26477],[-77.00829,-9.28549],[-77.01232,-9.29878],[-77.02687,-9.30092],[-77.03945,-9.29036],[-77.05469,-9.28532],[-77.0776,-9.27256],[-77.08643,-9.26441],[-77.08215,-9.23762],[-77.09354,-9.21251],[-77.08721,-9.18881],[-77.09453,-9.18505],[-77.10453,-9.19446],[-77.11049,-9.19113],[-77.12116,-9.19902],[-77.14221,-9.20242],[-77.15741,-9.17269],[-77.17387,-9.15996]]]}},{"type":"Feature","properties":{"ubigeo":"0204","nombre":"Asunción"},"geometry":{"type":"Polygon","coordinates":[[[-77.26205,-9.20779],[-77.26428,-9.24196],[-77.27375,-9.24373],[-77.27736,-9.25768],[-77.2753,-9.27827],[-77.29169,-9.28851],[-77.30898,-9.2833],[-77.31493,-9.29038],[-77.31143,-9.30624],[-77.31918,-9.32411],[-77.32568,-9.31005],[-77.34735,-9.29986],[-77.35394,-9.30125],[-77.38003,-9.2879],[-77.38894,-9.28894],[-77.40898,-9.27313],[-77.43213,-9.27551],[-77.45096,-9.26399],[-77.46962,-9.27028],[-77.48172,-9.26899],[-77.48037,-9.25532],[-77.49273,-9.25086],[-77.51083,-9.25435],[-77.51757,-9.2359],[-77.51758,-9.20378],[-77.53238,-9.1986],[-77.52902,-9.18662],[-77.53355,-9.17312],[-77.51671,-9.13385],[-77.50305,-9.1275],[-77.49046,-9.10667],[-77.46583,-9.10017],[-77.45702,-9.08791],[-77.44808,-9.08595],[-77.43767,-9.06811],[-77.43735,-9.05925],[-77.41814,-9.06],[-77.39123,-9.05687],[-77.362,-9.06499],[-77.36581,-9.09243],[-77.36602,-9.11388],[-77.35683,-9.11363],[-77.34068,-9.13164],[-77.31928,-9.13724],[-77.31378,-9.15862],[-77.2914,-9.17626],[-77.29266,-9.18229],[-77.27765,-9.18154],[-77.26546,-9.19381],[-77.26205,-9.20779]]]}},{"type":"Feature","properties":{"ubigeo":"0205","nombre":"Bolognesi"},"geometry":{"type":"Polygon","coordinates":[[[-76.90625,-10.27419],[-76.93812,-10.2797],[-76.94293,-10.28752],[-76.96227,-10.29721],[-76.96545,-10.30538],[-76.98985,-10.29585],[-77.00672,-10.28423],[-77.0091,-10.30777],[-77.02471,-10.32753],[-77.05328,-10.33984],[-77.06233,-10.33463],[-77.07161,-10.3381],[-77.08077,-10.35768],[-77.089,-10.36014],[-77.0902,-10.37263],[-77.11088,-10.39209],[-77.11099,-10.40334],[-77.12829,-10.42121],[-77.13824,-10.42647],[-77.15002,-10.45109],[-77.17462,-10.4646],[-77.17603,-10.4831],[-77.18936,-10.46558],[-77.18932,-10.45793],[-77.17191,-10.44275],[-77.17157,-10.41836],[-77.17438,-10.405],[-77.16652,-10.39167],[-77.16647,-10.37575],[-77.15821,-10.36192],[-77.19749,-10.33771],[-77.21964,-10.33961],[-77.22968,-10.33],[-77.23263,-10.3149],[-77.24122,-10.30502],[-77.23597,-10.29803],[-77.24376,-10.26717],[-77.25412,-10.25443],[-77.2621,-10.25268],[-77.27736,-10.26645],[-77.29074,-10.26871],[-77.29964,-10.28426],[-77.30585,-10.27368],[-77.3155,-10.27041],[-77.32712,-10.25622],[-77.34039,-10.26649],[-77.34564,-10.27847],[-77.3595,-10.29203],[-77.39915,-10.27205],[-77.40941,-10.27751],[-77.4388,-10.27303],[-77.44998,-10.27765],[-77.46252,-10.27566],[-77.46913,-10.28648],[-77.46629,-10.29561],[-77.47783,-10.3067],[-77.48148,-10.34623],[-77.50018,-10.34779],[-77.50367,-10.35806],[-77.51684,-10.36437],[-77.52364,-10.3874],[-77.56108,-10.39018],[-77.59937,-10.38333],[-77.59774,-10.36642],[-77.61704,-10.33628],[-77.61943,-10.32783],[-77.63166,-10.32221],[-77.6492,-10.34347],[-77.66691,-10.33895],[-77.67717,-10.32822],[-77.69875,-10.3221],[-77.69945,-10.31195],[-77.69383,-10.28482],[-77.69643,-10.25685],[-77.67752,-10.23423],[-77.68091,-10.22165],[-77.6744,-10.20671],[-77.66709,-10.21643],[-77.6357,-10.2241],[-77.60803,-10.24051],[-77.59168,-10.23722],[-77.57532,-10.24986],[-77.56123,-10.23101],[-77.55465,-10.18846],[-77.54605,-10.17536],[-77.53402,-10.17345],[-77.51701,-10.14834],[-77.50557,-10.14574],[-77.48422,-10.15548],[-77.45867,-10.15616],[-77.43683,-10.14252],[-77.41884,-10.14109],[-77.40065,-10.13215],[-77.39331,-10.13281],[-77.38013,-10.14685],[-77.35789,-10.15118],[-77.34491,-10.15956],[-77.33518,-10.14423],[-77.34234,-10.13084],[-77.32053,-10.12704],[-77.29908,-10.13841],[-77.28045,-10.16031],[-77.25764,-10.14767],[-77.24949,-10.13651],[-77.21277,-10.13371],[-77.20475,-10.12603],[-77.21012,-10.11516],[-77.2016,-10.09338],[-77.21624,-10.0868],[-77.20793,-10.06153],[-77.21295,-10.04941],[-77.22391,-10.03941],[-77.21412,-10.02373],[-77.21881,-10.01376],[-77.21157,-10.00343],[-77.2126,-9.98496],[-77.2056,-9.96703],[-77.22344,-9.95199],[-77.21606,-9.94297],[-77.21788,-9.91921],[-77.18905,-9.92949],[-77.17379,-9.91313],[-77.1829,-9.86706],[-77.18902,-9.84752],[-77.18713,-9.83621],[-77.16219,-9.82705],[-77.12386,-9.83934],[-77.11544,-9.83318],[-77.10283,-9.8411],[-77.09279,-9.83675],[-77.10109,-9.81751],[-77.09669,-9.80455],[-77.07606,-9.79703],[-77.06016,-9.80215],[-77.04646,-9.79286],[-77.04946,-9.78287],[-77.03884,-9.7791],[-77.0278,-9.76412],[-77.02611,-9.75033],[-77.03065,-9.73381],[-77.02547,-9.72864],[-77.03566,-9.71932],[-77.03433,-9.70935],[-77.02384,-9.70433],[-77.01023,-9.71728],[-76.98651,-9.74911],[-76.97428,-9.76024],[-76.96978,-9.75834],[-76.98029,-9.74029],[-76.98104,-9.72457],[-76.97039,-9.71149],[-76.96161,-9.71346],[-76.94539,-9.70257],[-76.93466,-9.71999],[-76.93457,-9.72892],[-76.91735,-9.74366],[-76.91191,-9.76367],[-76.90138,-9.7705],[-76.90308,-9.78515],[-76.89521,-9.8156],[-76.8808,-9.83303],[-76.86936,-9.85993],[-76.87298,-9.86377],[-76.86211,-9.87545],[-76.85902,-9.88859],[-76.85075,-9.89456],[-76.84037,-9.91773],[-76.83894,-9.93455],[-76.82898,-9.93842],[-76.81368,-9.96157],[-76.81772,-9.97853],[-76.82562,-9.98929],[-76.82405,-10.011],[-76.81521,-10.02254],[-76.80904,-10.05411],[-76.81241,-10.07157],[-76.80717,-10.08436],[-76.83803,-10.08512],[-76.84604,-10.08874],[-76.85358,-10.10178],[-76.87268,-10.09489],[-76.87989,-10.11655],[-76.90194,-10.11334],[-76.91546,-10.11991],[-76.90854,-10.17678],[-76.91392,-10.18994],[-76.90944,-10.19902],[-76.91622,-10.21752],[-76.91345,-10.23045],[-76.90494,-10.23741],[-76.90625,-10.27419]]]}},{"type":"Feature","properties":{"ubigeo":"0206","nombre":"Carhuaz"},"geometry":{"type":"Polygon","coordinates":[[[-77.31918,-9.32411],[-77.33456,-9.35272],[-77.33009,-9.38239],[-77.35102,-9.38846],[-77.36833,-9.37487],[-77.37044,-9.36825],[-77.38259,-9.37057],[-77.39852,-9.35608],[-77.39764,-9.34661],[-77.41547,-9.35577],[-77.44565,-9.35584],[-77.46847,-9.36734],[-77.47603,-9.36369],[-77.48301,-9.37014],[-77.51036,-9.36902],[-77.53001,-9.37271],[-77.54229,-9.38659],[-77.5764,-9.37412],[-77.58494,-9.37529],[-77.58166,-9.39148],[-77.60105,-9.40107],[-77.60999,-9.40994],[-77.61301,-9.42208],[-77.64368,-9.43259],[-77.64429,-9.44719],[-77.64964,-9.45213],[-77.66477,-9.43742],[-77.66564,-9.42666],[-77.68138,-9.41766],[-77.67513,-9.39438],[-77.69048,-9.37784],[-77.71895,-9.38237],[-77.7442,-9.37071],[-77.74771,-9.35042],[-77.77125,-9.33395],[-77.7767,-9.31565],[-77.76565,-9.29232],[-77.74399,-9.2903],[-77.72451,-9.2764],[-77.71959,-9.25825],[-77.71198,-9.24504],[-77.6893,-9.22416],[-77.68048,-9.2457],[-77.66138,-9.23984],[-77.65932,-9.22492],[-77.64405,-9.19727],[-77.61674,-9.21411],[-77.59558,-9.18417],[-77.58892,-9.1587],[-77.59428,-9.13199],[-77.60399,-9.12043],[-77.60132,-9.10894],[-77.58092,-9.09572],[-77.5724,-9.08577],[-77.53034,-9.08292],[-77.52366,-9.09537],[-77.51807,-9.09449],[-77.49995,-9.10631],[-77.49046,-9.10667],[-77.50305,-9.1275],[-77.51671,-9.13385],[-77.53355,-9.17312],[-77.52902,-9.18662],[-77.53238,-9.1986],[-77.51758,-9.20378],[-77.51757,-9.2359],[-77.51083,-9.25435],[-77.49273,-9.25086],[-77.48037,-9.25532],[-77.48172,-9.26899],[-77.46962,-9.27028],[-77.45096,-9.26399],[-77.43213,-9.27551],[-77.40898,-9.27313],[-77.38894,-9.28894],[-77.38003,-9.2879],[-77.35394,-9.30125],[-77.34735,-9.29986],[-77.32568,-9.31005],[-77.31918,-9.32411]]]}},{"type":"Feature","properties":{"ubigeo":"0207","nombre":"Carlos Fermín Fitzcarrald"},"geometry":{"type":"Polygon","coordinates":[[[-77.17387,-9.15996],[-77.18607,-9.15499],[-77.19827,-9.16584],[-77.22156,-9.16758],[-77.23344,-9.17968],[-77.24247,-9.19937],[-77.26205,-9.20779],[-77.26546,-9.19381],[-77.27765,-9.18154],[-77.29266,-9.18229],[-77.2914,-9.17626],[-77.31378,-9.15862],[-77.31928,-9.13724],[-77.34068,-9.13164],[-77.35683,-9.11363],[-77.36602,-9.11388],[-77.36581,-9.09243],[-77.362,-9.06499],[-77.35768,-9.05903],[-77.36265,-9.03817],[-77.36071,-9.01021],[-77.36417,-8.98628],[-77.3595,-8.97724],[-77.35854,-8.96992],[-77.34551,-8.95583],[-77.33777,-8.95749],[-77.32047,-8.94544],[-77.30415,-8.9486],[-77.2682,-8.94469],[-77.23504,-8.92617],[-77.21007,-8.92347],[-77.18857,-8.92838],[-77.1693,-8.92148],[-77.15953,-8.8971],[-77.14787,-8.89551],[-77.12963,-8.91987],[-77.12351,-8.94483],[-77.10607,-8.94891],[-77.10314,-8.97243],[-77.12279,-8.97805],[-77.11133,-9.00836],[-77.12879,-9.02417],[-77.15239,-9.03372],[-77.14139,-9.0556],[-77.14411,-9.09566],[-77.15303,-9.09488],[-77.16547,-9.10579],[-77.16841,-9.12157],[-77.15458,-9.14184],[-77.17387,-9.15996]]]}},{"type":"Feature","properties":{"ubigeo":"0208","nombre":"Casma"},"geometry":{"type":"Polygon","coordinates":[[[-77.901,-9.44223],[-77.90599,-9.45621],[-77.92923,-9.48405],[-77.91535,-9.48763],[-77.91903,-9.4976],[-77.92822,-9.49867],[-77.93375,-9.50822],[-77.93633,-9.52807],[-77.94636,-9.53971],[-77.97114,-9.53102],[-77.9923,-9.53615],[-77.97415,-9.55048],[-77.97471,-9.56987],[-77.95926,-9.59045],[-77.96079,-9.61537],[-77.97603,-9.63905],[-77.98929,-9.64444],[-78.00263,-9.66682],[-78.00609,-9.68064],[-78.02137,-9.68833],[-78.04189,-9.6899],[-78.05827,-9.68917],[-78.07938,-9.71589],[-78.0874,-9.72049],[-78.10817,-9.71783],[-78.12285,-9.71137],[-78.14483,-9.71458],[-78.17066,-9.7418],[-78.19533,-9.75987],[-78.20878,-9.76633],[-78.2222,-9.77983],[-78.22621,-9.79528],[-78.24585,-9.7705],[-78.25986,-9.75926],[-78.27201,-9.75607],[-78.27559,-9.74263],[-78.29593,-9.71916],[-78.29434,-9.70543],[-78.30647,-9.69444],[-78.30761,-9.68394],[-78.31688,-9.68355],[-78.32256,-9.67484],[-78.32182,-9.66175],[-78.33786,-9.64748],[-78.34432,-9.63293],[-78.36327,-9.62508],[-78.36179,-9.60871],[-78.36983,-9.58711],[-78.3664,-9.56109],[-78.3877,-9.53536],[-78.38513,-9.51873],[-78.39572,-9.50189],[-78.39226,-9.49042],[-78.39785,-9.48796],[-78.39897,-9.46492],[-78.38088,-9.45572],[-78.38011,-9.44549],[-78.38729,-9.43268],[-78.39601,-9.42779],[-78.40735,-9.43583],[-78.4178,-9.41741],[-78.42467,-9.41767],[-78.43299,-9.38855],[-78.42777,-9.37121],[-78.41021,-9.36706],[-78.41391,-9.35986],[-78.42728,-9.36046],[-78.42789,-9.3493],[-78.41735,-9.35524],[-78.40381,-9.34713],[-78.38966,-9.32657],[-78.38362,-9.32619],[-78.38582,-9.3053],[-78.37151,-9.2872],[-78.36967,-9.27647],[-78.35965,-9.26302],[-78.34529,-9.26494],[-78.33372,-9.26076],[-78.33708,-9.2503],[-78.32941,-9.24953],[-78.31907,-9.23462],[-78.29184,-9.21579],[-78.28111,-9.22279],[-78.2608,-9.20092],[-78.24135,-9.20504],[-78.23283,-9.21188],[-78.21346,-9.20812],[-78.198,-9.21872],[-78.19662,-9.22571],[-78.17547,-9.24703],[-78.15529,-9.25105],[-78.14126,-9.26859],[-78.11575,-9.25734],[-78.10636,-9.26451],[-78.06193,-9.27036],[-78.0561,-9.2747],[-78.06229,-9.29242],[-78.05493,-9.30374],[-78.05396,-9.3242],[-78.05965,-9.3355],[-78.05359,-9.33679],[-78.04227,-9.35333],[-78.02757,-9.36513],[-78.01663,-9.36773],[-78.00332,-9.38097],[-78.00952,-9.39033],[-78.03122,-9.4066],[-78.03018,-9.41849],[-77.99295,-9.44661],[-77.97991,-9.4396],[-77.96973,-9.42777],[-77.95581,-9.4229],[-77.94956,-9.41258],[-77.93291,-9.39898],[-77.91031,-9.43595],[-77.901,-9.44223]]]}},{"type":"Feature","properties":{"ubigeo":"0209","nombre":"Corongo"},"geometry":{"type":"Polygon","coordinates":[[[-77.97203,-8.692],[-77.98899,-8.68355],[-78.00884,-8.66698],[-78.02216,-8.67431],[-78.04007,-8.67179],[-78.04602,-8.66296],[-78.05709,-8.66483],[-78.07279,-8.65682],[-78.09505,-8.66256],[-78.1058,-8.65982],[-78.11548,-8.64854],[-78.13049,-8.61714],[-78.12178,-8.59621],[-78.09409,-8.59574],[-78.09457,-8.5894],[-78.07852,-8.57962],[-78.07987,-8.57143],[-78.06817,-8.56418],[-78.05182,-8.56356],[-78.03735,-8.55475],[-78.03223,-8.54426],[-78.0149,-8.5368],[-77.9928,-8.53241],[-77.98281,-8.51184],[-77.96832,-8.50408],[-77.96824,-8.49231],[-77.97594,-8.47577],[-77.96554,-8.4807],[-77.94896,-8.48083],[-77.93618,-8.46159],[-77.93392,-8.44929],[-77.91631,-8.45798],[-77.89753,-8.44057],[-77.88064,-8.43981],[-77.88197,-8.43042],[-77.87689,-8.39809],[-77.86073,-8.39337],[-77.85353,-8.40331],[-77.83638,-8.3923],[-77.79886,-8.38119],[-77.78218,-8.40324],[-77.77167,-8.39648],[-77.75915,-8.40337],[-77.75543,-8.41634],[-77.76507,-8.42808],[-77.76481,-8.44099],[-77.7414,-8.46],[-77.73578,-8.47749],[-77.71833,-8.48974],[-77.71501,-8.50252],[-77.70416,-8.50987],[-77.71196,-8.52236],[-77.70848,-8.53093],[-77.71386,-8.5416],[-77.69102,-8.55759],[-77.68866,-8.57636],[-77.70656,-8.58337],[-77.71032,-8.59081],[-77.69566,-8.60233],[-77.70862,-8.6123],[-77.70302,-8.6298],[-77.71364,-8.63183],[-77.72073,-8.65653],[-77.73699,-8.6619],[-77.74866,-8.65919],[-77.77247,-8.67382],[-77.79208,-8.66132],[-77.81213,-8.66284],[-77.84044,-8.67668],[-77.85932,-8.68219],[-77.87995,-8.68404],[-77.88963,-8.70621],[-77.90508,-8.71486],[-77.91292,-8.73267],[-77.90997,-8.73871],[-77.921,-8.7475],[-77.92442,-8.73989],[-77.94021,-8.729],[-77.94757,-8.71021],[-77.95613,-8.69936],[-77.97203,-8.692]]]}},{"type":"Feature","properties":{"ubigeo":"0210","nombre":"Huari"},"geometry":{"type":"Polygon","coordinates":[[[-77.02384,-9.70433],[-77.03433,-9.70935],[-77.03566,-9.71932],[-77.02547,-9.72864],[-77.03065,-9.73381],[-77.02611,-9.75033],[-77.0278,-9.76412],[-77.03884,-9.7791],[-77.04946,-9.78287],[-77.04646,-9.79286],[-77.06016,-9.80215],[-77.07606,-9.79703],[-77.09669,-9.80455],[-77.10109,-9.81751],[-77.09279,-9.83675],[-77.10283,-9.8411],[-77.11544,-9.83318],[-77.12386,-9.83934],[-77.16219,-9.82705],[-77.18713,-9.83621],[-77.20282,-9.8311],[-77.20659,-9.82121],[-77.21694,-9.82393],[-77.22572,-9.80664],[-77.24385,-9.80573],[-77.23881,-9.78772],[-77.24558,-9.77383],[-77.23079,-9.74749],[-77.23598,-9.72501],[-77.22777,-9.71339],[-77.2316,-9.70523],[-77.24301,-9.70108],[-77.25063,-9.69186],[-77.24906,-9.67981],[-77.26501,-9.66058],[-77.26971,-9.64874],[-77.26748,-9.63503],[-77.27386,-9.63423],[-77.28371,-9.61785],[-77.2857,-9.59936],[-77.29579,-9.5814],[-77.30812,-9.57904],[-77.30983,-9.57206],[-77.30081,-9.55501],[-77.30939,-9.54016],[-77.30467,-9.53528],[-77.31034,-9.51473],[-77.31883,-9.50397],[-77.3262,-9.47193],[-77.30876,-9.4648],[-77.30217,-9.45431],[-77.30068,-9.44086],[-77.31972,-9.42711],[-77.31688,-9.39503],[-77.32905,-9.39027],[-77.33009,-9.38239],[-77.33456,-9.35272],[-77.31918,-9.32411],[-77.31143,-9.30624],[-77.31493,-9.29038],[-77.30898,-9.2833],[-77.29169,-9.28851],[-77.2753,-9.27827],[-77.27736,-9.25768],[-77.27375,-9.24373],[-77.26428,-9.24196],[-77.26205,-9.20779],[-77.24247,-9.19937],[-77.23344,-9.17968],[-77.22156,-9.16758],[-77.19827,-9.16584],[-77.18607,-9.15499],[-77.17387,-9.15996],[-77.15741,-9.17269],[-77.14221,-9.20242],[-77.12116,-9.19902],[-77.11049,-9.19113],[-77.10453,-9.19446],[-77.09453,-9.18505],[-77.08721,-9.18881],[-77.09354,-9.21251],[-77.08215,-9.23762],[-77.08643,-9.26441],[-77.0776,-9.27256],[-77.05469,-9.28532],[-77.03945,-9.29036],[-77.02687,-9.30092],[-77.01232,-9.29878],[-77.00829,-9.28549],[-76.98946,-9.26477],[-76.98956,-9.25122],[-76.97477,-9.23816],[-76.96935,-9.21474],[-76.96001,-9.20598],[-76.9631,-9.17644],[-76.95946,-9.17014],[-76.96159,-9.15325],[-76.94441,-9.13315],[-76.94693,-9.11422],[-76.9454,-9.07483],[-76.92928,-9.07057],[-76.91761,-9.07562],[-76.89849,-9.09846],[-76.86938,-9.11438],[-76.85154,-9.11428],[-76.81926,-9.12725],[-76.78996,-9.13589],[-76.78636,-9.14485],[-76.76894,-9.15702],[-76.76706,-9.17041],[-76.74159,-9.19614],[-76.73461,-9.20879],[-76.72836,-9.23292],[-76.73125,-9.24627],[-76.72597,-9.25615],[-76.74062,-9.27451],[-76.74546,-9.29672],[-76.73919,-9.31726],[-76.75794,-9.36221],[-76.76562,-9.36727],[-76.78287,-9.3429],[-76.79469,-9.33338],[-76.81548,-9.32646],[-76.81565,-9.31673],[-76.82944,-9.29302],[-76.83396,-9.26601],[-76.84229,-9.26173],[-76.85635,-9.29007],[-76.86873,-9.29275],[-76.8662,-9.30533],[-76.88183,-9.32668],[-76.89292,-9.33196],[-76.90011,-9.35714],[-76.90959,-9.36855],[-76.9179,-9.36951],[-76.92413,-9.39153],[-76.93524,-9.39855],[-76.93629,-9.40898],[-76.92924,-9.42613],[-76.94042,-9.44858],[-76.94867,-9.45314],[-76.95233,-9.4697],[-76.93862,-9.4917],[-76.93801,-9.52658],[-76.9551,-9.54269],[-76.95511,-9.5603],[-76.98152,-9.56542],[-76.98297,-9.57697],[-76.99021,-9.57937],[-76.98824,-9.59175],[-76.99527,-9.60344],[-77.02367,-9.61066],[-77.04568,-9.62915],[-77.04849,-9.64746],[-77.03087,-9.68482],[-77.02384,-9.70433]]]}},{"type":"Feature","properties":{"ubigeo":"0211","nombre":"Huarmey"},"geometry":{"type":"Polygon","coordinates":[[[-77.96163,-9.77998],[-77.93421,-9.80622],[-77.90312,-9.82299],[-77.88222,-9.81179],[-77.85389,-9.81709],[-77.83275,-9.84073],[-77.84372,-9.84405],[-77.82694,-9.87809],[-77.82987,-9.88799],[-77.82553,-9.90837],[-77.81247,-9.90569],[-77.79882,-9.90842],[-77.77979,-9.90506],[-77.77215,-9.89014],[-77.76611,-9.89017],[-77.76375,-9.87243],[-77.74434,-9.85885],[-77.73471,-9.84685],[-77.71205,-9.8371],[-77.70355,-9.84835],[-77.66411,-9.86533],[-77.64125,-9.85605],[-77.62809,-9.85981],[-77.6214,-9.86778],[-77.60679,-9.86038],[-77.58384,-9.86473],[-77.57665,-9.87184],[-77.55249,-9.87218],[-77.55032,-9.87846],[-77.55807,-9.89363],[-77.57889,-9.90987],[-77.5858,-9.92343],[-77.5954,-9.9316],[-77.59819,-9.94217],[-77.60817,-9.95014],[-77.61143,-9.97391],[-77.62023,-9.97706],[-77.63044,-10.00377],[-77.63141,-10.02202],[-77.64568,-10.02377],[-77.6703,-10.01987],[-77.68313,-10.02111],[-77.71235,-10.0126],[-77.72753,-10.01379],[-77.73524,-10.00753],[-77.75063,-10.00621],[-77.75497,-9.99771],[-77.76888,-9.99069],[-77.77528,-10.00419],[-77.7705,-10.0251],[-77.75999,-10.03153],[-77.74916,-10.04556],[-77.72987,-10.04364],[-77.70997,-10.05245],[-77.71891,-10.06303],[-77.72187,-10.07868],[-77.71726,-10.09269],[-77.69968,-10.10853],[-77.69878,-10.14139],[-77.69325,-10.14602],[-77.674,-10.13956],[-77.66013,-10.14391],[-77.65626,-10.15198],[-77.66262,-10.16891],[-77.6731,-10.18494],[-77.6744,-10.20671],[-77.68091,-10.22165],[-77.67752,-10.23423],[-77.69643,-10.25685],[-77.69383,-10.28482],[-77.69945,-10.31195],[-77.69875,-10.3221],[-77.74624,-10.32438],[-77.75251,-10.3219],[-77.75704,-10.34422],[-77.75213,-10.37286],[-77.75562,-10.384],[-77.74987,-10.4068],[-77.75816,-10.41683],[-77.76389,-10.43771],[-77.78962,-10.45962],[-77.79832,-10.47612],[-77.78644,-10.48892],[-77.78106,-10.50726],[-77.77244,-10.51248],[-77.77174,-10.53776],[-77.77427,-10.55401],[-77.77138,-10.57161],[-77.785,-10.57204],[-77.7911,-10.5838],[-77.81835,-10.58044],[-77.83217,-10.56735],[-77.85714,-10.5787],[-77.86861,-10.5965],[-77.88628,-10.61196],[-77.88601,-10.60507],[-77.90847,-10.56998],[-77.90094,-10.56504],[-77.90816,-10.54429],[-77.93571,-10.5174],[-77.9394,-10.50901],[-77.96062,-10.49252],[-77.96324,-10.47145],[-77.97479,-10.45876],[-77.98034,-10.43955],[-78.00727,-10.41962],[-78.01476,-10.40963],[-78.00402,-10.40332],[-78.00078,-10.39424],[-78.01446,-10.37066],[-78.05455,-10.34596],[-78.05406,-10.32065],[-78.06165,-10.3081],[-78.0579,-10.30143],[-78.07754,-10.28223],[-78.08707,-10.27712],[-78.087,-10.25853],[-78.08101,-10.24832],[-78.08825,-10.24854],[-78.09228,-10.23852],[-78.08761,-10.22956],[-78.09614,-10.22192],[-78.10226,-10.20015],[-78.11333,-10.19588],[-78.1227,-10.17637],[-78.13097,-10.176],[-78.16357,-10.14719],[-78.17301,-10.11604],[-78.18482,-10.10949],[-78.18221,-10.1011],[-78.16665,-10.09493],[-78.16579,-10.08654],[-78.17578,-10.06735],[-78.17212,-10.06054],[-78.18107,-10.0342],[-78.19128,-10.02616],[-78.1967,-10.01281],[-78.19306,-10.00135],[-78.20696,-9.9804],[-78.20808,-9.96677],[-78.23121,-9.95246],[-78.2255,-9.93947],[-78.22477,-9.92325],[-78.22972,-9.91112],[-78.22451,-9.90722],[-78.23332,-9.8831],[-78.24265,-9.87365],[-78.24119,-9.85631],[-78.23583,-9.85631],[-78.23649,-9.83251],[-78.22999,-9.82974],[-78.22455,-9.80595],[-78.22621,-9.79528],[-78.2222,-9.77983],[-78.20878,-9.76633],[-78.19533,-9.75987],[-78.17066,-9.7418],[-78.14483,-9.71458],[-78.12285,-9.71137],[-78.10817,-9.71783],[-78.0874,-9.72049],[-78.07938,-9.71589],[-78.05827,-9.68917],[-78.04189,-9.6899],[-78.02941,-9.70181],[-78.00096,-9.71143],[-77.9797,-9.71184],[-77.96762,-9.70614],[-77.96998,-9.7196],[-77.98432,-9.72899],[-77.98712,-9.73945],[-77.97093,-9.75766],[-77.96163,-9.77998]]]}},{"type":"Feature","properties":{"ubigeo":"0212","nombre":"Huaylas"},"geometry":{"type":"Polygon","coordinates":[[[-77.57427,-8.90044],[-77.58317,-8.91708],[-77.582,-8.93128],[-77.58792,-8.94079],[-77.604,-8.94287],[-77.61362,-8.95652],[-77.62072,-8.97569],[-77.61456,-8.99381],[-77.62931,-9.00147],[-77.63236,-9.00976],[-77.65561,-9.01874],[-77.66949,-9.03478],[-77.67845,-9.03275],[-77.692,-9.04418],[-77.69981,-9.05693],[-77.72845,-9.06959],[-77.733,-9.06386],[-77.76431,-9.07507],[-77.78116,-9.08515],[-77.77304,-9.10171],[-77.78359,-9.11692],[-77.77903,-9.17842],[-77.78231,-9.21722],[-77.79752,-9.22919],[-77.81586,-9.22613],[-77.82956,-9.21725],[-77.83947,-9.21757],[-77.8491,-9.22877],[-77.85245,-9.24161],[-77.86127,-9.25119],[-77.87672,-9.25035],[-77.89513,-9.26145],[-77.90343,-9.25276],[-77.91822,-9.25219],[-77.92783,-9.24612],[-77.94989,-9.2468],[-77.95845,-9.25399],[-77.97542,-9.24404],[-78.00003,-9.24326],[-78.02421,-9.24837],[-78.03717,-9.24371],[-78.059,-9.23116],[-78.06775,-9.21481],[-78.06681,-9.18597],[-78.07346,-9.17424],[-78.0456,-9.17667],[-78.02133,-9.17146],[-78.03587,-9.14544],[-78.05173,-9.14084],[-78.06222,-9.12843],[-78.05671,-9.10105],[-78.05933,-9.08613],[-78.0405,-9.075],[-78.02395,-9.06034],[-78.01048,-9.04153],[-77.99716,-9.01722],[-77.97993,-9.01271],[-77.95599,-8.98223],[-77.94244,-8.97858],[-77.94213,-8.9687],[-77.9554,-8.95594],[-77.94031,-8.92611],[-77.96206,-8.89069],[-77.98337,-8.88042],[-77.97848,-8.87403],[-77.98672,-8.84735],[-78.00077,-8.84192],[-77.9885,-8.82242],[-78.0038,-8.77931],[-78.01459,-8.76636],[-78.01377,-8.7495],[-78.00646,-8.73997],[-77.99551,-8.70715],[-77.98645,-8.69499],[-77.97203,-8.692],[-77.95613,-8.69936],[-77.94757,-8.71021],[-77.94021,-8.729],[-77.92442,-8.73989],[-77.921,-8.7475],[-77.90997,-8.73871],[-77.91292,-8.73267],[-77.90508,-8.71486],[-77.88963,-8.70621],[-77.87995,-8.68404],[-77.85932,-8.68219],[-77.84044,-8.67668],[-77.81213,-8.66284],[-77.79208,-8.66132],[-77.77247,-8.67382],[-77.74866,-8.65919],[-77.73699,-8.6619],[-77.72073,-8.65653],[-77.71627,-8.66345],[-77.67169,-8.69305],[-77.67237,-8.70126],[-77.66377,-8.70498],[-77.65573,-8.72348],[-77.64536,-8.72437],[-77.63894,-8.73395],[-77.6261,-8.73869],[-77.61438,-8.75099],[-77.60139,-8.74505],[-77.59274,-8.75767],[-77.5812,-8.77112],[-77.58974,-8.79229],[-77.58043,-8.81125],[-77.58105,-8.81833],[-77.59762,-8.83377],[-77.5951,-8.85541],[-77.60116,-8.87078],[-77.60765,-8.87228],[-77.60463,-8.88671],[-77.58782,-8.88738],[-77.57427,-8.90044]]]}},{"type":"Feature","properties":{"ubigeo":"0213","nombre":"Mariscal Luzuriaga"},"geometry":{"type":"Polygon","coordinates":[[[-77.17482,-8.83362],[-77.17712,-8.84722],[-77.16997,-8.85752],[-77.1725,-8.87662],[-77.16488,-8.88124],[-77.15953,-8.8971],[-77.1693,-8.92148],[-77.18857,-8.92838],[-77.21007,-8.92347],[-77.23504,-8.92617],[-77.2682,-8.94469],[-77.30415,-8.9486],[-77.32047,-8.94544],[-77.33777,-8.95749],[-77.34551,-8.95583],[-77.35854,-8.96992],[-77.3595,-8.97724],[-77.3677,-8.97975],[-77.38633,-8.99508],[-77.4104,-8.99146],[-77.42171,-8.99477],[-77.44514,-8.99018],[-77.47087,-8.99766],[-77.48654,-9.00727],[-77.51787,-9.0052],[-77.53793,-8.99749],[-77.55273,-8.98782],[-77.55722,-8.96206],[-77.56192,-8.95367],[-77.54649,-8.94719],[-77.544,-8.93129],[-77.56345,-8.90337],[-77.55188,-8.9051],[-77.53845,-8.90079],[-77.52551,-8.90508],[-77.51626,-8.923],[-77.50611,-8.9206],[-77.48758,-8.90609],[-77.47096,-8.91182],[-77.4472,-8.90888],[-77.40557,-8.91318],[-77.38847,-8.9049],[-77.37531,-8.912],[-77.36819,-8.90824],[-77.38758,-8.89069],[-77.39246,-8.88104],[-77.43962,-8.84741],[-77.44713,-8.83832],[-77.43817,-8.82464],[-77.43793,-8.8135],[-77.4157,-8.80694],[-77.40054,-8.79534],[-77.39264,-8.77743],[-77.395,-8.7701],[-77.34644,-8.73972],[-77.3258,-8.7301],[-77.30936,-8.72726],[-77.3024,-8.71804],[-77.27977,-8.70282],[-77.26334,-8.71388],[-77.24736,-8.71276],[-77.24817,-8.72731],[-77.22749,-8.74283],[-77.22197,-8.77315],[-77.20605,-8.78234],[-77.20013,-8.79359],[-77.19573,-8.81499],[-77.17482,-8.83362]]]}},{"type":"Feature","properties":{"ubigeo":"0214","nombre":"Ocros"},"geometry":{"type":"Polygon","coordinates":[[[-77.3447,-10.60798],[-77.34855,-10.6078],[-77.3673,-10.6383],[-77.38011,-10.63944],[-77.3889,-10.65765],[-77.39531,-10.66154],[-77.40379,-10.69097],[-77.38566,-10.70779],[-77.39439,-10.71678],[-77.41543,-10.72998],[-77.43614,-10.72364],[-77.45265,-10.72893],[-77.47111,-10.74187],[-77.49496,-10.7461],[-77.50429,-10.73601],[-77.52657,-10.73629],[-77.54293,-10.75084],[-77.5511,-10.75225],[-77.57371,-10.7747],[-77.59119,-10.78645],[-77.59207,-10.77522],[-77.58521,-10.76419],[-77.5888,-10.75768],[-77.5757,-10.71689],[-77.56314,-10.70943],[-77.57454,-10.69431],[-77.57276,-10.68626],[-77.57622,-10.65736],[-77.58923,-10.64558],[-77.58297,-10.63893],[-77.58266,-10.62185],[-77.57412,-10.61466],[-77.57326,-10.59292],[-77.57665,-10.58375],[-77.59599,-10.58541],[-77.61794,-10.60011],[-77.61951,-10.61425],[-77.63816,-10.6029],[-77.64534,-10.58286],[-77.63949,-10.57765],[-77.63821,-10.56303],[-77.63123,-10.56012],[-77.61287,-10.53818],[-77.61633,-10.52467],[-77.59965,-10.51745],[-77.60132,-10.5093],[-77.62474,-10.50203],[-77.6353,-10.51629],[-77.64108,-10.51385],[-77.65139,-10.53013],[-77.67017,-10.54098],[-77.68778,-10.5373],[-77.7083,-10.54744],[-77.71008,-10.56017],[-77.72756,-10.55271],[-77.73181,-10.56622],[-77.74479,-10.56078],[-77.74462,-10.53227],[-77.73794,-10.52079],[-77.72188,-10.51189],[-77.72119,-10.50408],[-77.71189,-10.50507],[-77.7012,-10.46858],[-77.68739,-10.45197],[-77.68883,-10.43861],[-77.68392,-10.43139],[-77.66578,-10.42712],[-77.66303,-10.41833],[-77.6453,-10.40866],[-77.63456,-10.41227],[-77.62323,-10.40546],[-77.59937,-10.38333],[-77.56108,-10.39018],[-77.52364,-10.3874],[-77.51684,-10.36437],[-77.50367,-10.35806],[-77.50018,-10.34779],[-77.48148,-10.34623],[-77.47783,-10.3067],[-77.46629,-10.29561],[-77.46913,-10.28648],[-77.46252,-10.27566],[-77.44998,-10.27765],[-77.4388,-10.27303],[-77.40941,-10.27751],[-77.39915,-10.27205],[-77.3595,-10.29203],[-77.34564,-10.27847],[-77.34039,-10.26649],[-77.32712,-10.25622],[-77.3155,-10.27041],[-77.30585,-10.27368],[-77.29964,-10.28426],[-77.29074,-10.26871],[-77.27736,-10.26645],[-77.2621,-10.25268],[-77.25412,-10.25443],[-77.24376,-10.26717],[-77.23597,-10.29803],[-77.24122,-10.30502],[-77.23263,-10.3149],[-77.22968,-10.33],[-77.21964,-10.33961],[-77.19749,-10.33771],[-77.15821,-10.36192],[-77.16647,-10.37575],[-77.16652,-10.39167],[-77.17438,-10.405],[-77.17157,-10.41836],[-77.17191,-10.44275],[-77.18932,-10.45793],[-77.18936,-10.46558],[-77.17603,-10.4831],[-77.16682,-10.50413],[-77.17083,-10.5173],[-77.1811,-10.52389],[-77.18059,-10.53331],[-77.19099,-10.55213],[-77.21406,-10.55436],[-77.22527,-10.54616],[-77.25187,-10.54524],[-77.26726,-10.55054],[-77.26943,-10.56023],[-77.29011,-10.55607],[-77.31063,-10.56769],[-77.32051,-10.58792],[-77.33438,-10.59421],[-77.3447,-10.60798]]]}},{"type":"Feature","properties":{"ubigeo":"0215","nombre":"Pallasca"},"geometry":{"type":"Polygon","coordinates":[[[-77.79886,-8.38119],[-77.83638,-8.3923],[-77.85353,-8.40331],[-77.86073,-8.39337],[-77.87689,-8.39809],[-77.88197,-8.43042],[-77.88064,-8.43981],[-77.89753,-8.44057],[-77.91631,-8.45798],[-77.93392,-8.44929],[-77.93618,-8.46159],[-77.94896,-8.48083],[-77.96554,-8.4807],[-77.97594,-8.47577],[-77.96824,-8.49231],[-77.96832,-8.50408],[-77.98281,-8.51184],[-77.9928,-8.53241],[-78.0149,-8.5368],[-78.03223,-8.54426],[-78.03735,-8.55475],[-78.05182,-8.56356],[-78.06817,-8.56418],[-78.07987,-8.57143],[-78.07852,-8.57962],[-78.09457,-8.5894],[-78.09409,-8.59574],[-78.12178,-8.59621],[-78.13049,-8.61714],[-78.11548,-8.64854],[-78.1058,-8.65982],[-78.13396,-8.67322],[-78.14648,-8.66832],[-78.15821,-8.67529],[-78.15724,-8.68626],[-78.16371,-8.69447],[-78.18471,-8.69402],[-78.19446,-8.68792],[-78.1944,-8.67364],[-78.20407,-8.66001],[-78.21477,-8.6626],[-78.23227,-8.65804],[-78.23557,-8.65292],[-78.22835,-8.64479],[-78.20715,-8.6327],[-78.19362,-8.59968],[-78.2019,-8.57389],[-78.21515,-8.56571],[-78.2169,-8.55799],[-78.2026,-8.52607],[-78.17366,-8.50354],[-78.17041,-8.49204],[-78.1573,-8.47819],[-78.15674,-8.46357],[-78.13947,-8.42783],[-78.14061,-8.41413],[-78.13464,-8.39305],[-78.13923,-8.39016],[-78.1375,-8.36867],[-78.12247,-8.36008],[-78.10854,-8.3359],[-78.12064,-8.31869],[-78.11595,-8.3101],[-78.10223,-8.30538],[-78.08198,-8.28109],[-78.06646,-8.27759],[-78.04551,-8.25787],[-78.03489,-8.25392],[-78.03431,-8.24543],[-78.01863,-8.22432],[-77.98233,-8.21537],[-77.97887,-8.21049],[-77.9574,-8.20827],[-77.93411,-8.19419],[-77.92655,-8.15714],[-77.92037,-8.14726],[-77.9142,-8.12144],[-77.90446,-8.10455],[-77.90543,-8.09492],[-77.89795,-8.07616],[-77.89694,-8.06323],[-77.88352,-8.06371],[-77.86556,-8.05708],[-77.85221,-8.07478],[-77.83328,-8.07574],[-77.81044,-8.06774],[-77.7958,-8.07102],[-77.78578,-8.0792],[-77.76105,-8.07523],[-77.75023,-8.0772],[-77.74339,-8.07018],[-77.71839,-8.07347],[-77.69137,-8.06052],[-77.68468,-8.063],[-77.64741,-8.04971],[-77.64273,-8.06722],[-77.6233,-8.07353],[-77.61883,-8.07983],[-77.6254,-8.09447],[-77.63652,-8.10619],[-77.62401,-8.11789],[-77.61595,-8.13146],[-77.60338,-8.13476],[-77.60787,-8.14678],[-77.60319,-8.15718],[-77.57541,-8.16815],[-77.55729,-8.19373],[-77.57079,-8.20726],[-77.57534,-8.23006],[-77.56571,-8.23739],[-77.57034,-8.25518],[-77.61149,-8.26852],[-77.63563,-8.26921],[-77.64334,-8.28869],[-77.65997,-8.30237],[-77.66629,-8.31203],[-77.6867,-8.30428],[-77.70568,-8.30938],[-77.72315,-8.3309],[-77.71946,-8.33931],[-77.7358,-8.34551],[-77.74138,-8.35958],[-77.76147,-8.36944],[-77.77096,-8.36973],[-77.79886,-8.38119]]]}},{"type":"Feature","properties":{"ubigeo":"0216","nombre":"Pomabamba"},"geometry":{"type":"Polygon","coordinates":[[[-77.24736,-8.71276],[-77.26334,-8.71388],[-77.27977,-8.70282],[-77.3024,-8.71804],[-77.30936,-8.72726],[-77.3258,-8.7301],[-77.34644,-8.73972],[-77.395,-8.7701],[-77.39264,-8.77743],[-77.40054,-8.79534],[-77.4157,-8.80694],[-77.43793,-8.8135],[-77.43817,-8.82464],[-77.44713,-8.83832],[-77.43962,-8.84741],[-77.39246,-8.88104],[-77.38758,-8.89069],[-77.36819,-8.90824],[-77.37531,-8.912],[-77.38847,-8.9049],[-77.40557,-8.91318],[-77.4472,-8.90888],[-77.47096,-8.91182],[-77.48758,-8.90609],[-77.50611,-8.9206],[-77.51626,-8.923],[-77.52551,-8.90508],[-77.53845,-8.90079],[-77.55188,-8.9051],[-77.56345,-8.90337],[-77.57427,-8.90044],[-77.58782,-8.88738],[-77.60463,-8.88671],[-77.60765,-8.87228],[-77.60116,-8.87078],[-77.5951,-8.85541],[-77.59762,-8.83377],[-77.58105,-8.81833],[-77.58043,-8.81125],[-77.58974,-8.79229],[-77.5812,-8.77112],[-77.59274,-8.75767],[-77.58278,-8.74973],[-77.58596,-8.74059],[-77.57198,-8.72852],[-77.56216,-8.7278],[-77.53868,-8.70175],[-77.52289,-8.69541],[-77.49648,-8.69702],[-77.48601,-8.68343],[-77.50296,-8.66579],[-77.50507,-8.65124],[-77.50126,-8.64006],[-77.50156,-8.61436],[-77.48992,-8.59067],[-77.47391,-8.57549],[-77.46432,-8.58057],[-77.44603,-8.57085],[-77.43117,-8.54875],[-77.41489,-8.53997],[-77.4002,-8.52668],[-77.39177,-8.52673],[-77.36602,-8.50709],[-77.34735,-8.51793],[-77.3371,-8.53145],[-77.31749,-8.53015],[-77.31541,-8.54375],[-77.30501,-8.56544],[-77.28903,-8.5893],[-77.29485,-8.63293],[-77.28512,-8.64435],[-77.2606,-8.64852],[-77.26163,-8.66447],[-77.25172,-8.68339],[-77.24736,-8.71276]]]}},{"type":"Feature","properties":{"ubigeo":"0217","nombre":"Recuay"},"geometry":{"type":"Polygon","coordinates":[[[-77.6744,-10.20671],[-77.6731,-10.18494],[-77.66262,-10.16891],[-77.65626,-10.15198],[-77.66013,-10.14391],[-77.674,-10.13956],[-77.69325,-10.14602],[-77.69878,-10.14139],[-77.69968,-10.10853],[-77.71726,-10.09269],[-77.72187,-10.07868],[-77.71891,-10.06303],[-77.70997,-10.05245],[-77.72987,-10.04364],[-77.74916,-10.04556],[-77.75999,-10.03153],[-77.7705,-10.0251],[-77.77528,-10.00419],[-77.76888,-9.99069],[-77.75497,-9.99771],[-77.75063,-10.00621],[-77.73524,-10.00753],[-77.72753,-10.01379],[-77.71235,-10.0126],[-77.68313,-10.02111],[-77.6703,-10.01987],[-77.64568,-10.02377],[-77.63141,-10.02202],[-77.63044,-10.00377],[-77.62023,-9.97706],[-77.61143,-9.97391],[-77.60817,-9.95014],[-77.59819,-9.94217],[-77.5954,-9.9316],[-77.5858,-9.92343],[-77.57889,-9.90987],[-77.55807,-9.89363],[-77.55032,-9.87846],[-77.55249,-9.87218],[-77.53773,-9.86127],[-77.52479,-9.86771],[-77.5099,-9.86584],[-77.50378,-9.87412],[-77.49106,-9.8707],[-77.4789,-9.87377],[-77.48504,-9.83883],[-77.49428,-9.83752],[-77.48895,-9.81984],[-77.50194,-9.81325],[-77.50688,-9.79906],[-77.52145,-9.79227],[-77.52169,-9.77457],[-77.52987,-9.76402],[-77.53625,-9.73787],[-77.52508,-9.72648],[-77.52094,-9.71035],[-77.5256,-9.6896],[-77.5031,-9.6627],[-77.4833,-9.66271],[-77.4795,-9.67122],[-77.46433,-9.66684],[-77.44949,-9.66909],[-77.44073,-9.67751],[-77.43262,-9.67335],[-77.42438,-9.67972],[-77.39977,-9.67253],[-77.37252,-9.66959],[-77.35832,-9.67115],[-77.34372,-9.66572],[-77.3314,-9.66754],[-77.32926,-9.67626],[-77.31099,-9.67431],[-77.29729,-9.66608],[-77.29507,-9.65879],[-77.26971,-9.64874],[-77.26501,-9.66058],[-77.24906,-9.67981],[-77.25063,-9.69186],[-77.24301,-9.70108],[-77.2316,-9.70523],[-77.22777,-9.71339],[-77.23598,-9.72501],[-77.23079,-9.74749],[-77.24558,-9.77383],[-77.23881,-9.78772],[-77.24385,-9.80573],[-77.22572,-9.80664],[-77.21694,-9.82393],[-77.20659,-9.82121],[-77.20282,-9.8311],[-77.18713,-9.83621],[-77.18902,-9.84752],[-77.1829,-9.86706],[-77.17379,-9.91313],[-77.18905,-9.92949],[-77.21788,-9.91921],[-77.21606,-9.94297],[-77.22344,-9.95199],[-77.2056,-9.96703],[-77.2126,-9.98496],[-77.21157,-10.00343],[-77.21881,-10.01376],[-77.21412,-10.02373],[-77.22391,-10.03941],[-77.21295,-10.04941],[-77.20793,-10.06153],[-77.21624,-10.0868],[-77.2016,-10.09338],[-77.21012,-10.11516],[-77.20475,-10.12603],[-77.21277,-10.13371],[-77.24949,-10.13651],[-77.25764,-10.14767],[-77.28045,-10.16031],[-77.29908,-10.13841],[-77.32053,-10.12704],[-77.34234,-10.13084],[-77.33518,-10.14423],[-77.34491,-10.15956],[-77.35789,-10.15118],[-77.38013,-10.14685],[-77.39331,-10.13281],[-77.40065,-10.13215],[-77.41884,-10.14109],[-77.43683,-10.14252],[-77.45867,-10.15616],[-77.48422,-10.15548],[-77.50557,-10.14574],[-77.51701,-10.14834],[-77.53402,-10.17345],[-77.54605,-10.17536],[-77.55465,-10.18846],[-77.56123,-10.23101],[-77.57532,-10.24986],[-77.59168,-10.23722],[-77.60803,-10.24051],[-77.6357,-10.2241],[-77.66709,-10.21643],[-77.6744,-10.20671]]]}},{"type":"Feature","properties":{"ubigeo":"0218","nombre":"Santa"},"geometry":{"type":"Polygon","coordinates":[[[-77.97203,-8.692],[-77.98645,-8.69499],[-77.99551,-8.70715],[-78.00646,-8.73997],[-78.01377,-8.7495],[-78.01459,-8.76636],[-78.0038,-8.77931],[-77.9885,-8.82242],[-78.00077,-8.84192],[-77.98672,-8.84735],[-77.97848,-8.87403],[-77.98337,-8.88042],[-77.96206,-8.89069],[-77.94031,-8.92611],[-77.9554,-8.95594],[-77.94213,-8.9687],[-77.94244,-8.97858],[-77.95599,-8.98223],[-77.97993,-9.01271],[-77.99716,-9.01722],[-78.01048,-9.04153],[-78.02395,-9.06034],[-78.0405,-9.075],[-78.05933,-9.08613],[-78.05671,-9.10105],[-78.06222,-9.12843],[-78.05173,-9.14084],[-78.03587,-9.14544],[-78.02133,-9.17146],[-78.0456,-9.17667],[-78.07346,-9.17424],[-78.06681,-9.18597],[-78.06775,-9.21481],[-78.059,-9.23116],[-78.03717,-9.24371],[-78.04307,-9.24449],[-78.0561,-9.2747],[-78.06193,-9.27036],[-78.10636,-9.26451],[-78.11575,-9.25734],[-78.14126,-9.26859],[-78.15529,-9.25105],[-78.17547,-9.24703],[-78.19662,-9.22571],[-78.198,-9.21872],[-78.21346,-9.20812],[-78.23283,-9.21188],[-78.24135,-9.20504],[-78.2608,-9.20092],[-78.28111,-9.22279],[-78.29184,-9.21579],[-78.31907,-9.23462],[-78.32941,-9.24953],[-78.33708,-9.2503],[-78.33372,-9.26076],[-78.34529,-9.26494],[-78.35965,-9.26302],[-78.36967,-9.27647],[-78.37151,-9.2872],[-78.38582,-9.3053],[-78.38362,-9.32619],[-78.38966,-9.32657],[-78.40381,-9.34713],[-78.41735,-9.35524],[-78.42789,-9.3493],[-78.4254,-9.3413],[-78.43872,-9.34061],[-78.44294,-9.32703],[-78.45849,-9.32625],[-78.45842,-9.31779],[-78.47545,-9.32026],[-78.47218,-9.32862],[-78.48182,-9.33273],[-78.47945,-9.3221],[-78.48739,-9.32091],[-78.49502,-9.3055],[-78.49943,-9.28622],[-78.51441,-9.27684],[-78.52337,-9.27759],[-78.50707,-9.25729],[-78.4918,-9.25087],[-78.4847,-9.21677],[-78.48681,-9.20335],[-78.49775,-9.18814],[-78.5083,-9.18038],[-78.53324,-9.17462],[-78.55175,-9.17653],[-78.56493,-9.18462],[-78.56623,-9.19432],[-78.55676,-9.20348],[-78.55969,-9.20979],[-78.55388,-9.23512],[-78.56944,-9.22379],[-78.5762,-9.21379],[-78.57685,-9.19671],[-78.59412,-9.19279],[-78.60603,-9.17455],[-78.60777,-9.16053],[-78.59785,-9.16731],[-78.58476,-9.16408],[-78.57224,-9.17157],[-78.56539,-9.16463],[-78.55842,-9.14546],[-78.56213,-9.11744],[-78.57408,-9.09421],[-78.58875,-9.07959],[-78.61409,-9.07242],[-78.6226,-9.07675],[-78.63329,-9.06678],[-78.631,-9.05751],[-78.63865,-9.04748],[-78.63456,-9.02889],[-78.6221,-9.01826],[-78.64085,-9.0009],[-78.65811,-8.99372],[-78.64406,-8.98327],[-78.64492,-8.96923],[-78.62973,-8.97089],[-78.59166,-8.946],[-78.58962,-8.92497],[-78.57979,-8.90544],[-78.57648,-8.88905],[-78.58245,-8.8666],[-78.58828,-8.85868],[-78.56534,-8.7926],[-78.55161,-8.77504],[-78.52937,-8.76311],[-78.51814,-8.75298],[-78.48482,-8.75054],[-78.46793,-8.74153],[-78.44823,-8.73693],[-78.42533,-8.7239],[-78.41012,-8.70821],[-78.37917,-8.69657],[-78.3732,-8.68724],[-78.35481,-8.67328],[-78.33728,-8.67568],[-78.33348,-8.66646],[-78.31095,-8.66721],[-78.29479,-8.65881],[-78.28767,-8.6625],[-78.27266,-8.65631],[-78.24613,-8.65836],[-78.23557,-8.65292],[-78.23227,-8.65804],[-78.21477,-8.6626],[-78.20407,-8.66001],[-78.1944,-8.67364],[-78.19446,-8.68792],[-78.18471,-8.69402],[-78.16371,-8.69447],[-78.15724,-8.68626],[-78.15821,-8.67529],[-78.14648,-8.66832],[-78.13396,-8.67322],[-78.1058,-8.65982],[-78.09505,-8.66256],[-78.07279,-8.65682],[-78.05709,-8.66483],[-78.04602,-8.66296],[-78.04007,-8.67179],[-78.02216,-8.67431],[-78.00884,-8.66698],[-77.98899,-8.68355],[-77.97203,-8.692]]]}},{"type":"Feature","properties":{"ubigeo":"0219","nombre":"Sihuas"},"geometry":{"type":"Polygon","coordinates":[[[-77.59274,-8.75767],[-77.60139,-8.74505],[-77.61438,-8.75099],[-77.6261,-8.73869],[-77.63894,-8.73395],[-77.64536,-8.72437],[-77.65573,-8.72348],[-77.66377,-8.70498],[-77.67237,-8.70126],[-77.67169,-8.69305],[-77.71627,-8.66345],[-77.72073,-8.65653],[-77.71364,-8.63183],[-77.70302,-8.6298],[-77.70862,-8.6123],[-77.69566,-8.60233],[-77.71032,-8.59081],[-77.70656,-8.58337],[-77.68866,-8.57636],[-77.69102,-8.55759],[-77.71386,-8.5416],[-77.70848,-8.53093],[-77.71196,-8.52236],[-77.70416,-8.50987],[-77.71501,-8.50252],[-77.71833,-8.48974],[-77.73578,-8.47749],[-77.7414,-8.46],[-77.76481,-8.44099],[-77.76507,-8.42808],[-77.75543,-8.41634],[-77.75915,-8.40337],[-77.77167,-8.39648],[-77.78218,-8.40324],[-77.79886,-8.38119],[-77.77096,-8.36973],[-77.76147,-8.36944],[-77.74138,-8.35958],[-77.7358,-8.34551],[-77.71946,-8.33931],[-77.72315,-8.3309],[-77.70568,-8.30938],[-77.6867,-8.30428],[-77.66629,-8.31203],[-77.65997,-8.30237],[-77.64334,-8.28869],[-77.63563,-8.26921],[-77.61149,-8.26852],[-77.57034,-8.25518],[-77.56571,-8.23739],[-77.55276,-8.23642],[-77.52783,-8.24722],[-77.52863,-8.26569],[-77.50341,-8.27455],[-77.49137,-8.28255],[-77.48213,-8.31392],[-77.47364,-8.3205],[-77.47799,-8.32655],[-77.4589,-8.33566],[-77.45944,-8.35494],[-77.44696,-8.36937],[-77.44848,-8.38162],[-77.4386,-8.39791],[-77.43836,-8.42233],[-77.41834,-8.43965],[-77.40546,-8.44148],[-77.39898,-8.46415],[-77.40034,-8.48197],[-77.3863,-8.49408],[-77.36907,-8.49986],[-77.36602,-8.50709],[-77.39177,-8.52673],[-77.4002,-8.52668],[-77.41489,-8.53997],[-77.43117,-8.54875],[-77.44603,-8.57085],[-77.46432,-8.58057],[-77.47391,-8.57549],[-77.48992,-8.59067],[-77.50156,-8.61436],[-77.50126,-8.64006],[-77.50507,-8.65124],[-77.50296,-8.66579],[-77.48601,-8.68343],[-77.49648,-8.69702],[-77.52289,-8.69541],[-77.53868,-8.70175],[-77.56216,-8.7278],[-77.57198,-8.72852],[-77.58596,-8.74059],[-77.58278,-8.74973],[-77.59274,-8.75767]]]}},{"type":"Feature","properties":{"ubigeo":"0220","nombre":"Yungay"},"geometry":{"type":"Polygon","coordinates":[[[-77.3595,-8.97724],[-77.36417,-8.98628],[-77.36071,-9.01021],[-77.36265,-9.03817],[-77.35768,-9.05903],[-77.362,-9.06499],[-77.39123,-9.05687],[-77.41814,-9.06],[-77.43735,-9.05925],[-77.43767,-9.06811],[-77.44808,-9.08595],[-77.45702,-9.08791],[-77.46583,-9.10017],[-77.49046,-9.10667],[-77.49995,-9.10631],[-77.51807,-9.09449],[-77.52366,-9.09537],[-77.53034,-9.08292],[-77.5724,-9.08577],[-77.58092,-9.09572],[-77.60132,-9.10894],[-77.60399,-9.12043],[-77.59428,-9.13199],[-77.58892,-9.1587],[-77.59558,-9.18417],[-77.61674,-9.21411],[-77.64405,-9.19727],[-77.65932,-9.22492],[-77.66138,-9.23984],[-77.68048,-9.2457],[-77.6893,-9.22416],[-77.71198,-9.24504],[-77.71959,-9.25825],[-77.72451,-9.2764],[-77.74399,-9.2903],[-77.76565,-9.29232],[-77.7767,-9.31565],[-77.77125,-9.33395],[-77.74771,-9.35042],[-77.7442,-9.37071],[-77.7567,-9.39481],[-77.76583,-9.40065],[-77.76064,-9.41373],[-77.76624,-9.42186],[-77.77892,-9.42509],[-77.80397,-9.42231],[-77.83863,-9.42404],[-77.84458,-9.41233],[-77.857,-9.40273],[-77.88245,-9.42541],[-77.89236,-9.42942],[-77.901,-9.44223],[-77.91031,-9.43595],[-77.93291,-9.39898],[-77.94956,-9.41258],[-77.95581,-9.4229],[-77.96973,-9.42777],[-77.97991,-9.4396],[-77.99295,-9.44661],[-78.03018,-9.41849],[-78.03122,-9.4066],[-78.00952,-9.39033],[-78.00332,-9.38097],[-78.01663,-9.36773],[-78.02757,-9.36513],[-78.04227,-9.35333],[-78.05359,-9.33679],[-78.05965,-9.3355],[-78.05396,-9.3242],[-78.05493,-9.30374],[-78.06229,-9.29242],[-78.0561,-9.2747],[-78.04307,-9.24449],[-78.03717,-9.24371],[-78.02421,-9.24837],[-78.00003,-9.24326],[-77.97542,-9.24404],[-77.95845,-9.25399],[-77.94989,-9.2468],[-77.92783,-9.24612],[-77.91822,-9.25219],[-77.90343,-9.25276],[-77.89513,-9.26145],[-77.87672,-9.25035],[-77.86127,-9.25119],[-77.85245,-9.24161],[-77.8491,-9.22877],[-77.83947,-9.21757],[-77.82956,-9.21725],[-77.81586,-9.22613],[-77.79752,-9.22919],[-77.78231,-9.21722],[-77.77903,-9.17842],[-77.78359,-9.11692],[-77.77304,-9.10171],[-77.78116,-9.08515],[-77.76431,-9.07507],[-77.733,-9.06386],[-77.72845,-9.06959],[-77.69981,-9.05693],[-77.692,-9.04418],[-77.67845,-9.03275],[-77.66949,-9.03478],[-77.65561,-9.01874],[-77.63236,-9.00976],[-77.62931,-9.00147],[-77.61456,-8.99381],[-77.62072,-8.97569],[-77.61362,-8.95652],[-77.604,-8.94287],[-77.58792,-8.94079],[-77.582,-8.93128],[-77.58317,-8.91708],[-77.57427,-8.90044],[-77.56345,-8.90337],[-77.544,-8.93129],[-77.54649,-8.94719],[-77.56192,-8.95367],[-77.55722,-8.96206],[-77.55273,-8.98782],[-77.53793,-8.99749],[-77.51787,-9.0052],[-77.48654,-9.00727],[-77.47087,-8.99766],[-77.44514,-8.99018],[-77.42171,-8.99477],[-77.4104,-8.99146],[-77.38633,-8.99508],[-77.3677,-8.97975],[-77.3595,-8.97724]]]}}]}