{"type":"FeatureCollection","features":[{"type":"Feature","properties":{"ubigeo":"0301","nombre":"Abancay"},"geometry":{"type":"Polygon","coordinates":[[[-72.39982,-13.64185],[-72.42188,-13.65061],[-72.43107,-13.67641],[-72.43722,-13.68083],[-72.43802,-13.70598],[-72.44579,-13.73444],[-72.44712,-13.75806],[-72.46038,-13.79021],[-72.46958,-13.77072],[-72.49178,-13.75061],[-72.50143,-13.74694],[-72.52706,-13.751],[-72.54258,-13.74793],[-72.55352,-13.75082],[-72.56712,-13.74314],[-72.57662,-13.74356],[-72.57356,-13.73185],[-72.5921,-13.73032],[-72.60925,-13.74896],[-72.61863,-13.74812],[-72.64227,-13.75805],[-72.6401,-13.76661],[-72.6487,-13.77202],[-72.66958,-13.77034],[-72.67892,-13.776],[-72.67558,-13.7879],[-72.6578,-13.8003],[-72.65591,-13.81119],[-72.64011,-13.81888],[-72.63787,-13.83049],[-72.64505,-13.83692],[-72.63795,-13.86223],[-72.64692,-13.85719],[-72.67472,-13.87327],[-72.68229,-13.88696],[-72.70502,-13.89435],[-72.71103,-13.90312],[-72.7358,-13.9145],[-72.73937,-13.92922],[-72.72685,-13.94732],[-72.73713,-13.95089],[-72.74528,-13.96459],[-72.75595,-13.96345],[-72.76325,-13.97897],[-72.78892,-13.98046],[-72.79113,-14.00338],[-72.80352,-14.01977],[-72.80491,-14.03538],[-72.79438,-14.05474],[-72.79852,-14.07126],[-72.81721,-14.09545],[-72.85123,-14.09407],[-72.85911,-14.09863],[-72.85565,-14.10858],[-72.86203,-14.1186],[-72.87562,-14.12287],[-72.87506,-14.13386],[-72.88701,-14.14628],[-72.88687,-14.16161],[-72.89235,-14.17039],[-72.90784,-14.16707],[-72.9068,-14.15775],[-72.91368,-14.14729],[-72.92928,-14.13625],[-72.94421,-14.15107],[-72.95306,-14.14065],[-72.96289,-14.13959],[-72.97645,-14.12723],[-72.98029,-14.11834],[-73.00474,-14.12052],[-73.01974,-14.11262],[-73.01664,-14.09589],[-73.0266,-14.08783],[-73.02808,-14.06428],[-73.02235,-14.04788],[-73.028,-14.04419],[-73.0219,-14.02102],[-73.0293,-14.01178],[-73.02449,-13.99204],[-73.03496,-13.97459],[-73.03941,-13.92377],[-73.0376,-13.90528],[-73.05553,-13.89634],[-73.07374,-13.89699],[-73.09887,-13.86845],[-73.10709,-13.8659],[-73.12753,-13.83858],[-73.14327,-13.8223],[-73.16139,-13.8157],[-73.1719,-13.80364],[-73.1603,-13.77679],[-73.14232,-13.76778],[-73.13152,-13.76672],[-73.11958,-13.75344],[-73.10308,-13.76305],[-73.09178,-13.74337],[-73.0787,-13.74822],[-73.0775,-13.73241],[-73.06893,-13.73098],[-73.06053,-13.72044],[-73.02621,-13.70774],[-73.01501,-13.71329],[-72.99689,-13.70411],[-72.97774,-13.70027],[-72.95583,-13.66272],[-72.94463,-13.65213],[-72.95429,-13.63781],[-72.97777,-13.62706],[-72.99591,-13.60362],[-73.01247,-13.57707],[-73.01596,-13.56481],[-73.02731,-13.5606],[-73.04033,-13.5642],[-73.04175,-13.54116],[-73.0558,-13.52492],[-73.08543,-13.51146],[-73.11314,-13.48937],[-73.1264,-13.48646],[-73.13904,-13.46539],[-73.14215,-13.44901],[-73.16016,-13.44334],[-73.14865,-13.43521],[-73.14987,-13.42328],[-73.14411,-13.41912],[-73.12609,-13.44005],[-73.10888,-13.43574],[-73.10338,-13.44859],[-73.07488,-13.44306],[-73.0588,-13.43655],[-73.04405,-13.41196],[-73.03157,-13.41354],[-73.01513,-13.42667],[-72.99988,-13.41082],[-72.98763,-13.40429],[-72.97649,-13.3882],[-72.95191,-13.38961],[-72.92596,-13.38307],[-72.89409,-13.39013],[-72.88631,-13.41587],[-72.86579,-13.41588],[-72.83827,-13.42707],[-72.8264,-13.42182],[-72.81626,-13.42652],[-72.80575,-13.42194],[-72.79341,-13.42612],[-72.79702,-13.45124],[-72.78946,-13.45792],[-72.77286,-13.44888],[-72.75887,-13.46262],[-72.74545,-13.4829],[-72.7297,-13.49055],[-72.71629,-13.49043],[-72.70924,-13.50118],[-72.6957,-13.51036],[-72.68025,-13.51481],[-72.67207,-13.5221],[-72.65677,-13.51335],[-72.63688,-13.54214],[-72.62584,-13.53556],[-72.61299,-13.54606],[-72.60207,-13.54418],[-72.59339,-13.56217],[-72.57593,-13.56276],[-72.56304,-13.55142],[-72.54411,-13.55757],[-72.53338,-13.57239],[-72.52495,-13.56662],[-72.49177,-13.58262],[-72.48641,-13.5919],[-72.47698,-13.58826],[-72.45961,-13.59055],[-72.45129,-13.59997],[-72.4214,-13.60608],[-72.4,-13.63332],[-72.39982,-13.64185]]]}},{"type":"Feature","properties":{"ubigeo":"0302","nombre":"Andahuaylas"},"geometry":{"type":"Polygon","coordinates":[[[-73.1719,-13.80364],[-73.1824,-13.80012],[-73.19583,-13.80787],[-73.19569,-13.81695],[-73.22346,-13.8283],[-73.24501,-13.81506],[-73.2529,-13.83174],[-73.26323,-13.84074],[-73.26245,-13.84957],[-73.27991,-13.86772],[-73.27723,-13.87528],[-73.28557,-13.89354],[-73.3051,-13.8973],[-73.33185,-13.90658],[-73.35454,-13.92656],[-73.34572,-13.93699],[-73.34732,-13.9483],[-73.35952,-13.96469],[-73.35428,-13.99098],[-73.35973,-13.99414],[-73.36576,-14.01703],[-73.37875,-14.03355],[-73.37065,-14.06418],[-73.37717,-14.076],[-73.37865,-14.09185],[-73.40981,-14.10734],[-73.41054,-14.11937],[-73.39985,-14.13463],[-73.4047,-14.14686],[-73.39654,-14.15943],[-73.41118,-14.16606],[-73.41537,-14.18063],[-73.39731,-14.18783],[-73.39543,-14.21251],[-73.3859,-14.21824],[-73.37957,-14.23393],[-73.38059,-14.25752],[-73.37437,-14.26577],[-73.37595,-14.27569],[-73.3702,-14.28575],[-73.37711,-14.29456],[-73.36877,-14.31074],[-73.37047,-14.32027],[-73.38219,-14.32291],[-73.40903,-14.33609],[-73.42578,-14.35517],[-73.42671,-14.37493],[-73.4367,-14.38174],[-73.45313,-14.40255],[-73.44812,-14.41764],[-73.45973,-14.43222],[-73.4602,-14.44034],[-73.47299,-14.44652],[-73.47532,-14.47573],[-73.49024,-14.49105],[-73.49328,-14.50722],[-73.4865,-14.53503],[-73.50701,-14.54431],[-73.52075,-14.53355],[-73.52386,-14.51159],[-73.53246,-14.50724],[-73.53506,-14.49154],[-73.55456,-14.4807],[-73.5514,-14.465],[-73.56899,-14.45933],[-73.57473,-14.44329],[-73.57389,-14.43197],[-73.58175,-14.41613],[-73.55964,-14.40991],[-73.55386,-14.40122],[-73.55351,-14.37751],[-73.53384,-14.35429],[-73.52801,-14.32256],[-73.51719,-14.30936],[-73.51225,-14.26816],[-73.51814,-14.26322],[-73.52336,-14.22833],[-73.54406,-14.20866],[-73.5452,-14.19698],[-73.55313,-14.19211],[-73.55772,-14.17618],[-73.56931,-14.15506],[-73.57728,-14.14718],[-73.58662,-14.11034],[-73.59178,-14.10956],[-73.60955,-14.08501],[-73.6184,-14.05896],[-73.62578,-14.04902],[-73.61832,-14.02613],[-73.63112,-13.98711],[-73.64276,-13.97854],[-73.64222,-13.96244],[-73.65647,-13.92995],[-73.67915,-13.91632],[-73.68909,-13.89076],[-73.69493,-13.88313],[-73.69334,-13.86349],[-73.69778,-13.84742],[-73.71465,-13.83456],[-73.72869,-13.81612],[-73.73354,-13.80144],[-73.74326,-13.78733],[-73.7413,-13.77861],[-73.74789,-13.76337],[-73.7344,-13.7541],[-73.72849,-13.75727],[-73.7164,-13.75039],[-73.69292,-13.74942],[-73.6875,-13.73994],[-73.66954,-13.73823],[-73.67371,-13.73074],[-73.62896,-13.73658],[-73.60618,-13.72877],[-73.61204,-13.72048],[-73.61392,-13.69888],[-73.60561,-13.69191],[-73.60162,-13.66412],[-73.59367,-13.65654],[-73.59285,-13.6465],[-73.60698,-13.62222],[-73.60443,-13.60993],[-73.58349,-13.60762],[-73.5704,-13.59626],[-73.55125,-13.60857],[-73.54165,-13.60559],[-73.53163,-13.61644],[-73.51989,-13.60358],[-73.50048,-13.59619],[-73.50131,-13.58889],[-73.49208,-13.57733],[-73.45075,-13.59001],[-73.45922,-13.5696],[-73.45965,-13.54959],[-73.48016,-13.52059],[-73.48346,-13.50631],[-73.47006,-13.4846],[-73.47676,-13.47473],[-73.46337,-13.45926],[-73.44539,-13.43036],[-73.43608,-13.42996],[-73.42892,-13.43787],[-73.40958,-13.43673],[-73.40332,-13.44475],[-73.38664,-13.43986],[-73.36964,-13.44225],[-73.36599,-13.43676],[-73.34716,-13.43483],[-73.33298,-13.4444],[-73.33179,-13.45638],[-73.31708,-13.45383],[-73.3132,-13.44718],[-73.29093,-13.45619],[-73.28216,-13.4549],[-73.26102,-13.46773],[-73.24502,-13.46558],[-73.2339,-13.47659],[-73.22015,-13.46308],[-73.22318,-13.44978],[-73.20977,-13.43254],[-73.21188,-13.41906],[-73.20442,-13.41173],[-73.18635,-13.41906],[-73.18974,-13.42736],[-73.18612,-13.44113],[-73.17619,-13.45121],[-73.16754,-13.45228],[-73.16016,-13.44334],[-73.14215,-13.44901],[-73.13904,-13.46539],[-73.1264,-13.48646],[-73.11314,-13.48937],[-73.08543,-13.51146],[-73.0558,-13.52492],[-73.04175,-13.54116],[-73.04033,-13.5642],[-73.02731,-13.5606],[-73.01596,-13.56481],[-73.01247,-13.57707],[-72.99591,-13.60362],[-72.97777,-13.62706],[-72.95429,-13.63781],[-72.94463,-13.65213],[-72.95583,-13.66272],[-72.97774,-13.70027],[-72.99689,-13.70411],[-73.01501,-13.71329],[-73.02621,-13.70774],[-73.06053,-13.72044],[-73.06893,-13.73098],[-73.0775,-13.73241],[-73.0787,-13.74822],[-73.09178,-13.74337],[-73.10308,-13.76305],[-73.11958,-13.75344],[-73.13152,-13.76672],[-73.14232,-13.76778],[-73.1603,-13.77679],[-73.1719,-13.80364]]]}},{"type":"Feature","properties":{"ubigeo":"0303","nombre":"Antabamba"},"geometry":{"type":"Polygon","coordinates":[[[-72.89235,-14.17039],[-72.89512,-14.17829],[-72.88675,-14.19989],[-72.89112,-14.21234],[-72.90126,-14.22455],[-72.88334,-14.2355],[-72.86726,-14.25911],[-72.87287,-14.26897],[-72.86217,-14.27748],[-72.84707,-14.2743],[-72.83148,-14.27908],[-72.81149,-14.26555],[-72.80022,-14.26943],[-72.79605,-14.29229],[-72.78634,-14.29095],[-72.76108,-14.2696],[-72.76128,-14.26286],[-72.74924,-14.25965],[-72.74294,-14.26486],[-72.73447,-14.26023],[-72.72329,-14.27009],[-72.70961,-14.27556],[-72.70927,-14.30596],[-72.69542,-14.32051],[-72.70922,-14.34302],[-72.6868,-14.35599],[-72.67045,-14.36217],[-72.66489,-14.35401],[-72.64351,-14.35194],[-72.63622,-14.35623],[-72.6272,-14.3412],[-72.63729,-14.32681],[-72.63625,-14.31902],[-72.62333,-14.3073],[-72.62232,-14.28833],[-72.61643,-14.28411],[-72.61412,-14.2671],[-72.60079,-14.23851],[-72.56989,-14.25458],[-72.55442,-14.23872],[-72.53667,-14.22539],[-72.51893,-14.22235],[-72.50771,-14.20715],[-72.49308,-14.20776],[-72.47976,-14.20167],[-72.47292,-14.21368],[-72.45141,-14.22802],[-72.44344,-14.22638],[-72.43915,-14.24508],[-72.42779,-14.2683],[-72.41714,-14.27961],[-72.39423,-14.29035],[-72.3899,-14.29798],[-72.37711,-14.29917],[-72.3715,-14.28479],[-72.36385,-14.28696],[-72.35721,-14.30287],[-72.34469,-14.30604],[-72.33891,-14.32673],[-72.35348,-14.32991],[-72.36847,-14.35092],[-72.36529,-14.36559],[-72.37093,-14.3687],[-72.36651,-14.38801],[-72.36658,-14.41979],[-72.36929,-14.42761],[-72.35763,-14.43596],[-72.36392,-14.45976],[-72.38186,-14.46747],[-72.39308,-14.48185],[-72.40857,-14.48373],[-72.42746,-14.47902],[-72.4405,-14.48175],[-72.4427,-14.4946],[-72.45976,-14.50447],[-72.47317,-14.51954],[-72.49164,-14.53354],[-72.4942,-14.54563],[-72.50291,-14.55166],[-72.4847,-14.5736],[-72.48399,-14.58202],[-72.46943,-14.59118],[-72.4617,-14.60587],[-72.46489,-14.62075],[-72.46378,-14.6425],[-72.47177,-14.6614],[-72.48281,-14.66487],[-72.50566,-14.66468],[-72.51115,-14.67144],[-72.52539,-14.66713],[-72.56078,-14.67838],[-72.57725,-14.68662],[-72.58456,-14.6962],[-72.5851,-14.70786],[-72.59193,-14.71362],[-72.60216,-14.70279],[-72.59987,-14.68898],[-72.61102,-14.67613],[-72.62527,-14.67547],[-72.64482,-14.66728],[-72.65713,-14.67401],[-72.67904,-14.67878],[-72.69064,-14.68866],[-72.69763,-14.67906],[-72.71521,-14.68007],[-72.72471,-14.6759],[-72.723,-14.6573],[-72.72582,-14.64403],[-72.74158,-14.64491],[-72.76157,-14.66292],[-72.77948,-14.66071],[-72.7897,-14.65021],[-72.80593,-14.67556],[-72.82858,-14.70263],[-72.83336,-14.73628],[-72.84682,-14.75982],[-72.85193,-14.75221],[-72.857,-14.72813],[-72.86431,-14.72668],[-72.86564,-14.71068],[-72.8854,-14.70597],[-72.89059,-14.70067],[-72.91179,-14.69676],[-72.91879,-14.68516],[-72.93373,-14.69546],[-72.95531,-14.68268],[-72.97378,-14.65257],[-72.98505,-14.66031],[-72.99849,-14.66247],[-73.0067,-14.65086],[-73.00941,-14.63739],[-73.0174,-14.63071],[-73.01329,-14.61434],[-73.01427,-14.58539],[-72.99744,-14.5814],[-72.99014,-14.56402],[-72.99498,-14.55059],[-72.98434,-14.54338],[-72.99641,-14.5336],[-72.99117,-14.51962],[-72.99644,-14.51296],[-72.99398,-14.49757],[-72.99776,-14.48208],[-72.98728,-14.47247],[-72.98773,-14.45749],[-72.9805,-14.44115],[-73.00239,-14.43135],[-73.02126,-14.40913],[-73.02149,-14.39934],[-73.03806,-14.39018],[-73.03884,-14.37697],[-73.04865,-14.35287],[-73.04752,-14.34503],[-73.06733,-14.3417],[-73.07211,-14.33292],[-73.08264,-14.32878],[-73.06979,-14.30935],[-73.07076,-14.27658],[-73.04578,-14.2631],[-73.04259,-14.25232],[-73.05073,-14.24645],[-73.05735,-14.2224],[-73.07634,-14.20631],[-73.06832,-14.18637],[-73.06865,-14.16093],[-73.07908,-14.14618],[-73.05316,-14.136],[-73.04986,-14.12214],[-73.03283,-14.11625],[-73.03111,-14.10729],[-73.01974,-14.11262],[-73.00474,-14.12052],[-72.98029,-14.11834],[-72.97645,-14.12723],[-72.96289,-14.13959],[-72.95306,-14.14065],[-72.94421,-14.15107],[-72.92928,-14.13625],[-72.91368,-14.14729],[-72.9068,-14.15775],[-72.90784,-14.16707],[-72.89235,-14.17039]]]}},{"type":"Feature","properties":{"ubigeo":"0304","nombre":"Aymaraes"},"geometry":{"type":"Polygon","coordinates":[[[-73.0174,-14.63071],[-73.04329,-14.62373],[-73.0402,-14.6515],[-73.04625,-14.65869],[-73.0649,-14.66557],[-73.07843,-14.65606],[-73.09652,-14.65044],[-73.10444,-14.66787],[-73.11005,-14.66992],[-73.10649,-14.69065],[-73.12115,-14.69158],[-73.1253,-14.68116],[-73.15324,-14.67435],[-73.16162,-14.68167],[-73.17807,-14.68545],[-73.19041,-14.70577],[-73.21107,-14.70584],[-73.21827,-14.70161],[-73.22765,-14.70972],[-73.24508,-14.71238],[-73.26362,-14.70979],[-73.27995,-14.73163],[-73.28973,-14.73273],[-73.2968,-14.72375],[-73.31416,-14.71586],[-73.32833,-14.71736],[-73.35081,-14.70403],[-73.35827,-14.68339],[-73.36437,-14.68165],[-73.37087,-14.69662],[-73.3904,-14.71606],[-73.39848,-14.73608],[-73.40455,-14.7655],[-73.43713,-14.78425],[-73.45412,-14.80582],[-73.45473,-14.82101],[-73.46562,-14.84026],[-73.48503,-14.84257],[-73.49936,-14.82875],[-73.51294,-14.82643],[-73.51589,-14.81698],[-73.53422,-14.79884],[-73.54957,-14.80143],[-73.55352,-14.78936],[-73.56528,-14.77583],[-73.56238,-14.75424],[-73.56506,-14.73371],[-73.57673,-14.71169],[-73.5711,-14.68727],[-73.56212,-14.68012],[-73.51967,-14.6699],[-73.51006,-14.6501],[-73.51336,-14.6331],[-73.533,-14.58892],[-73.53338,-14.58102],[-73.51165,-14.56366],[-73.50701,-14.54431],[-73.4865,-14.53503],[-73.49328,-14.50722],[-73.49024,-14.49105],[-73.47532,-14.47573],[-73.47299,-14.44652],[-73.4602,-14.44034],[-73.45973,-14.43222],[-73.44812,-14.41764],[-73.45313,-14.40255],[-73.4367,-14.38174],[-73.42671,-14.37493],[-73.42578,-14.35517],[-73.40903,-14.33609],[-73.38219,-14.32291],[-73.37047,-14.32027],[-73.36877,-14.31074],[-73.37711,-14.29456],[-73.3702,-14.28575],[-73.37595,-14.27569],[-73.37437,-14.26577],[-73.38059,-14.25752],[-73.37957,-14.23393],[-73.3859,-14.21824],[-73.39543,-14.21251],[-73.39731,-14.18783],[-73.41537,-14.18063],[-73.41118,-14.16606],[-73.39654,-14.15943],[-73.4047,-14.14686],[-73.39985,-14.13463],[-73.41054,-14.11937],[-73.40981,-14.10734],[-73.37865,-14.09185],[-73.37717,-14.076],[-73.37065,-14.06418],[-73.37875,-14.03355],[-73.36576,-14.01703],[-73.35973,-13.99414],[-73.35428,-13.99098],[-73.35952,-13.96469],[-73.34732,-13.9483],[-73.34572,-13.93699],[-73.35454,-13.92656],[-73.33185,-13.90658],[-73.3051,-13.8973],[-73.28557,-13.89354],[-73.27723,-13.87528],[-73.27991,-13.86772],[-73.26245,-13.84957],[-73.26323,-13.84074],[-73.2529,-13.83174],[-73.24501,-13.81506],[-73.22346,-13.8283],[-73.19569,-13.81695],[-73.19583,-13.80787],[-73.1824,-13.80012],[-73.1719,-13.80364],[-73.16139,-13.8157],[-73.14327,-13.8223],[-73.12753,-13.83858],[-73.10709,-13.8659],[-73.09887,-13.86845],[-73.07374,-13.89699],[-73.05553,-13.89634],[-73.0376,-13.90528],[-73.03941,-13.92377],[-73.03496,-13.97459],[-73.02449,-13.99204],[-73.0293,-14.01178],[-73.0219,-14.02102],[-73.028,-14.04419],[-73.02235,-14.04788],[-73.02808,-14.06428],[-73.0266,-14.08783],[-73.01664,-14.09589],[-73.01974,-14.11262],[-73.03111,-14.10729],[-73.03283,-14.11625],[-73.04986,-14.12214],[-73.05316,-14.136],[-73.07908,-14.14618],[-73.06865,-14.16093],[-73.06832,-14.18637],[-73.07634,-14.20631],[-73.05735,-14.2224],[-73.05073,-14.24645],[-73.04259,-14.25232],[-73.04578,-14.2631],[-73.07076,-14.27658],[-73.06979,-14.30935],[-73.08264,-14.32878],[-73.07211,-14.33292],[-73.06733,-14.3417],[-73.04752,-14.34503],[-73.04865,-14.35287],[-73.03884,-14.37697],[-73.03806,-14.39018],[-73.02149,-14.39934],[-73.02126,-14.40913],[-73.00239,-14.43135],[-72.9805,-14.44115],[-72.98773,-14.45749],[-72.98728,-14.47247],[-72.99776,-14.48208],[-72.99398,-14.49757],[-72.99644,-14.51296],[-72.99117,-14.51962],[-72.99641,-14.5336],[-72.98434,-14.54338],[-72.99498,-14.55059],[-72.99014,-14.56402],[-72.99744,-14.5814],[-73.01427,-14.58539],[-73.01329,-14.61434],[-73.0174,-14.63071]]]}},{"type":"Feature","properties":{"ubigeo":"0305","nombre":"Cotabambas"},"geometry":{"type":"Polygon","coordinates":[[[-72.05568,-13.93485],[-72.06012,-13.96568],[-72.05815,-13.9871],[-72.05167,-14.01239],[-72.05315,-14.03153],[-72.06262,-14.0447],[-72.06342,-14.06415],[-72.0679,-14.07654],[-72.05771,-14.10721],[-72.06444,-14.11588],[-72.05667,-14.12881],[-72.06149,-14.14185],[-72.0879,-14.16322],[-72.0952,-14.17373],[-72.08905,-14.19096],[-72.07648,-14.20743],[-72.08579,-14.20906],[-72.09924,-14.22943],[-72.11568,-14.24556],[-72.13627,-14.25982],[-72.14321,-14.25617],[-72.16117,-14.26379],[-72.16996,-14.27383],[-72.17028,-14.29118],[-72.18659,-14.3048],[-72.18711,-14.31322],[-72.20558,-14.32025],[-72.20754,-14.33177],[-72.21622,-14.33409],[-72.22455,-14.34908],[-72.23952,-14.34847],[-72.24039,-14.36151],[-72.24874,-14.38614],[-72.24951,-14.40293],[-72.26978,-14.40445],[-72.28045,-14.41078],[-72.29567,-14.41188],[-72.28902,-14.42248],[-72.30569,-14.42875],[-72.3172,-14.44069],[-72.33877,-14.42833],[-72.35763,-14.43596],[-72.36929,-14.42761],[-72.36658,-14.41979],[-72.36651,-14.38801],[-72.37093,-14.3687],[-72.36529,-14.36559],[-72.36847,-14.35092],[-72.35348,-14.32991],[-72.33891,-14.32673],[-72.34469,-14.30604],[-72.35721,-14.30287],[-72.36385,-14.28696],[-72.3715,-14.28479],[-72.37711,-14.29917],[-72.3899,-14.29798],[-72.39423,-14.29035],[-72.41714,-14.27961],[-72.42779,-14.2683],[-72.43915,-14.24508],[-72.44344,-14.22638],[-72.45141,-14.22802],[-72.47292,-14.21368],[-72.47976,-14.20167],[-72.46254,-14.18314],[-72.45189,-14.18621],[-72.42101,-14.20837],[-72.39798,-14.21181],[-72.38634,-14.20668],[-72.38172,-14.16819],[-72.34984,-14.14306],[-72.36476,-14.1308],[-72.36741,-14.11833],[-72.37601,-14.11307],[-72.36856,-14.07973],[-72.37348,-14.07568],[-72.38914,-14.07824],[-72.40394,-14.07156],[-72.41137,-14.07926],[-72.42229,-14.06697],[-72.41711,-14.05428],[-72.42046,-14.02855],[-72.4458,-14.01504],[-72.44135,-14.00231],[-72.45337,-13.97218],[-72.45635,-13.93893],[-72.44999,-13.92231],[-72.45769,-13.90666],[-72.47335,-13.89474],[-72.48089,-13.87953],[-72.47859,-13.86062],[-72.47069,-13.84987],[-72.47588,-13.81377],[-72.46787,-13.79689],[-72.46038,-13.79021],[-72.44712,-13.75806],[-72.44579,-13.73444],[-72.43802,-13.70598],[-72.43722,-13.68083],[-72.43107,-13.67641],[-72.42188,-13.65061],[-72.39982,-13.64185],[-72.40175,-13.65951],[-72.36944,-13.66566],[-72.35654,-13.68034],[-72.31485,-13.69848],[-72.31234,-13.70849],[-72.29917,-13.70445],[-72.29028,-13.69006],[-72.26137,-13.68219],[-72.24478,-13.69821],[-72.23093,-13.70528],[-72.22867,-13.71406],[-72.23188,-13.72172],[-72.20637,-13.72807],[-72.18674,-13.74594],[-72.16636,-13.74742],[-72.14755,-13.77924],[-72.13533,-13.78306],[-72.11933,-13.82153],[-72.10846,-13.83178],[-72.1056,-13.8512],[-72.09326,-13.87509],[-72.09095,-13.88581],[-72.08111,-13.88948],[-72.07783,-13.90673],[-72.06201,-13.92087],[-72.05568,-13.93485]]]}},{"type":"Feature","properties":{"ubigeo":"0306","nombre":"Chincheros"},"geometry":{"type":"Polygon","coordinates":[[[-73.67371,-13.73074],[-73.68982,-13.71923],[-73.70193,-13.70528],[-73.71198,-13.70735],[-73.71349,-13.69116],[-73.7218,-13.6814],[-73.72713,-13.68432],[-73.73237,-13.66767],[-73.74362,-13.65556],[-73.76115,-13.64832],[-73.79192,-13.64096],[-73.80578,-13.61266],[-73.7958,-13.60432],[-73.80493,-13.57642],[-73.80409,-13.55901],[-73.80976,-13.53847],[-73.81424,-13.50921],[-73.81999,-13.50292],[-73.82312,-13.48434],[-73.8348,-13.47018],[-73.83855,-13.45417],[-73.82905,-13.44523],[-73.82739,-13.43374],[-73.84696,-13.39743],[-73.83891,-13.38678],[-73.82799,-13.33651],[-73.83199,-13.33066],[-73.82073,-13.3181],[-73.80705,-13.31483],[-73.80796,-13.3038],[-73.82282,-13.28505],[-73.82584,-13.27085],[-73.82321,-13.24733],[-73.81281,-13.24224],[-73.80737,-13.21387],[-73.79997,-13.21454],[-73.79936,-13.20395],[-73.77393,-13.18515],[-73.77299,-13.17623],[-73.75644,-13.17071],[-73.73755,-13.17719],[-73.73036,-13.18366],[-73.72826,-13.19803],[-73.74002,-13.21178],[-73.73086,-13.24265],[-73.73634,-13.25491],[-73.72803,-13.26781],[-73.70658,-13.26932],[-73.70019,-13.2651],[-73.69495,-13.27407],[-73.67353,-13.28484],[-73.6645,-13.28155],[-73.66003,-13.29039],[-73.64195,-13.29948],[-73.6247,-13.32141],[-73.61129,-13.3233],[-73.60854,-13.33078],[-73.59493,-13.33048],[-73.5867,-13.33934],[-73.57176,-13.34183],[-73.57017,-13.36332],[-73.54429,-13.36387],[-73.5303,-13.37348],[-73.52069,-13.3877],[-73.5111,-13.38297],[-73.49851,-13.3929],[-73.48091,-13.43137],[-73.46943,-13.42922],[-73.46148,-13.43404],[-73.44539,-13.43036],[-73.46337,-13.45926],[-73.47676,-13.47473],[-73.47006,-13.4846],[-73.48346,-13.50631],[-73.48016,-13.52059],[-73.45965,-13.54959],[-73.45922,-13.5696],[-73.45075,-13.59001],[-73.49208,-13.57733],[-73.50131,-13.58889],[-73.50048,-13.59619],[-73.51989,-13.60358],[-73.53163,-13.61644],[-73.54165,-13.60559],[-73.55125,-13.60857],[-73.5704,-13.59626],[-73.58349,-13.60762],[-73.60443,-13.60993],[-73.60698,-13.62222],[-73.59285,-13.6465],[-73.59367,-13.65654],[-73.60162,-13.66412],[-73.60561,-13.69191],[-73.61392,-13.69888],[-73.61204,-13.72048],[-73.60618,-13.72877],[-73.62896,-13.73658],[-73.67371,-13.73074]]]}},{"type":"Feature","properties":{"ubigeo":"0307","nombre":"Grau"},"geometry":{"type":"Polygon","coordinates":[[[-72.47976,-14.20167],[-72.49308,-14.20776],[-72.50771,-14.20715],[-72.51893,-14.22235],[-72.53667,-14.22539],[-72.55442,-14.23872],[-72.56989,-14.25458],[-72.60079,-14.23851],[-72.61412,-14.2671],[-72.61643,-14.28411],[-72.62232,-14.28833],[-72.62333,-14.3073],[-72.63625,-14.31902],[-72.63729,-14.32681],[-72.6272,-14.3412],[-72.63622,-14.35623],[-72.64351,-14.35194],[-72.66489,-14.35401],[-72.67045,-14.36217],[-72.6868,-14.35599],[-72.70922,-14.34302],[-72.69542,-14.32051],[-72.70927,-14.30596],[-72.70961,-14.27556],[-72.72329,-14.27009],[-72.73447,-14.26023],[-72.74294,-14.26486],[-72.74924,-14.25965],[-72.76128,-14.26286],[-72.76108,-14.2696],[-72.78634,-14.29095],[-72.79605,-14.29229],[-72.80022,-14.26943],[-72.81149,-14.26555],[-72.83148,-14.27908],[-72.84707,-14.2743],[-72.86217,-14.27748],[-72.87287,-14.26897],[-72.86726,-14.25911],[-72.88334,-14.2355],[-72.90126,-14.22455],[-72.89112,-14.21234],[-72.88675,-14.19989],[-72.89512,-14.17829],[-72.89235,-14.17039],[-72.88687,-14.16161],[-72.88701,-14.14628],[-72.87506,-14.13386],[-72.87562,-14.12287],[-72.86203,-14.1186],[-72.85565,-14.10858],[-72.85911,-14.09863],[-72.85123,-14.09407],[-72.81721,-14.09545],[-72.79852,-14.07126],[-72.79438,-14.05474],[-72.80491,-14.03538],[-72.80352,-14.01977],[-72.79113,-14.00338],[-72.78892,-13.98046],[-72.76325,-13.97897],[-72.75595,-13.96345],[-72.74528,-13.96459],[-72.73713,-13.95089],[-72.72685,-13.94732],[-72.73937,-13.92922],[-72.7358,-13.9145],[-72.71103,-13.90312],[-72.70502,-13.89435],[-72.68229,-13.88696],[-72.67472,-13.87327],[-72.64692,-13.85719],[-72.63795,-13.86223],[-72.64505,-13.83692],[-72.63787,-13.83049],[-72.64011,-13.81888],[-72.65591,-13.81119],[-72.6578,-13.8003],[-72.67558,-13.7879],[-72.67892,-13.776],[-72.66958,-13.77034],[-72.6487,-13.77202],[-72.6401,-13.76661],[-72.64227,-13.75805],[-72.61863,-13.74812],[-72.60925,-13.74896],[-72.5921,-13.73032],[-72.57356,-13.73185],[-72.57662,-13.74356],[-72.56712,-13.74314],[-72.55352,-13.75082],[-72.54258,-13.74793],[-72.52706,-13.751],[-72.50143,-13.74694],[-72.49178,-13.75061],[-72.46958,-13.77072],[-72.46038,-13.79021],[-72.46787,-13.79689],[-72.47588,-13.81377],[-72.47069,-13.84987],[-72.47859,-13.86062],[-72.48089,-13.87953],[-72.47335,-13.89474],[-72.45769,-13.90666],[-72.44999,-13.92231],[-72.45635,-13.93893],[-72.45337,-13.97218],[-72.44135,-14.00231],[-72.4458,-14.01504],[-72.42046,-14.02855],[-72.41711,-14.05428],[-72.42229,-14.06697],[-72.41137,-14.07926],[-72.40394,-14.07156],[-72.38914,-14.07824],[-72.37348,-14.07568],[-72.36856,-14.07973],[-72.37601,-14.11307],[-72.36741,-14.11833],[-72.36476,-14.1308],[-72.34984,-14.14306],[-72.38172,-14.16819],[-72.38634,-14.20668],[-72.39798,-14.21181],[-72.42101,-14.20837],[-72.45189,-14.18621],[-72.46254,-14.18314],[-72.47976,-14.20167]]]}}]}