{"type":"FeatureCollection","features":[{"type":"Feature","properties":{"ubigeo":"0401","nombre":"Arequipa"},"geometry":{"type":"Polygon","coordinates":[[[-71.42594,-16.74142],[-71.44064,-16.73039],[-71.45277,-16.73362],[-71.45457,-16.75644],[-71.46524,-16.762],[-71.49268,-16.76786],[-71.50062,-16.76662],[-71.5149,-16.75137],[-71.51286,-16.74504],[-71.53134,-16.7286],[-71.5306,-16.71324],[-71.53548,-16.70076],[-71.55465,-16.68428],[-71.57156,-16.69949],[-71.59369,-16.68658],[-71.62037,-16.68191],[-71.62873,-16.68368],[-71.63882,-16.70444],[-71.64932,-16.69495],[-71.67094,-16.70569],[-71.703,-16.69859],[-71.73443,-16.70054],[-71.74801,-16.69823],[-71.76524,-16.70824],[-71.86951,-16.78598],[-71.87073,-16.71343],[-71.90997,-16.67504],[-71.98805,-16.78533],[-71.9967,-16.79955],[-72.02174,-16.79199],[-72.03834,-16.79224],[-72.03856,-16.7845],[-72.04836,-16.77954],[-72.06691,-16.78443],[-72.0826,-16.77032],[-72.09693,-16.76757],[-72.12193,-16.77916],[-72.1319,-16.76666],[-72.12759,-16.75659],[-72.13216,-16.74409],[-72.14582,-16.74364],[-72.16136,-16.73087],[-72.16452,-16.72023],[-72.17882,-16.70804],[-72.19589,-16.7026],[-72.19565,-16.68682],[-72.20501,-16.6851],[-72.23161,-16.66573],[-72.25507,-16.66664],[-72.27382,-16.65661],[-72.28236,-16.64022],[-72.28289,-16.62141],[-72.27846,-16.60927],[-72.26202,-16.58395],[-72.24293,-16.56146],[-72.23731,-16.54702],[-72.21339,-16.5152],[-72.20901,-16.5035],[-72.19769,-16.49145],[-72.19951,-16.45872],[-72.1805,-16.40859],[-72.1605,-16.36938],[-72.14433,-16.35058],[-72.14461,-16.3407],[-72.13074,-16.31012],[-72.12019,-16.29762],[-72.08559,-16.24541],[-72.0829,-16.23042],[-72.07475,-16.22206],[-72.07348,-16.20947],[-72.08723,-16.20115],[-72.09132,-16.18932],[-72.08277,-16.18947],[-72.0566,-16.20749],[-72.02731,-16.16942],[-72.01187,-16.16116],[-71.99623,-16.13861],[-71.97417,-16.14138],[-71.96548,-16.13729],[-71.95328,-16.14495],[-71.94636,-16.14243],[-71.90827,-16.15878],[-71.9044,-16.15116],[-71.88945,-16.14612],[-71.86987,-16.13018],[-71.8648,-16.10474],[-71.84077,-16.08637],[-71.83652,-16.0694],[-71.82697,-16.05875],[-71.81829,-16.06235],[-71.81516,-16.05082],[-71.77434,-16.03319],[-71.75542,-16.03043],[-71.73796,-16.0162],[-71.73556,-16.00265],[-71.72454,-15.98906],[-71.70695,-15.98375],[-71.70668,-15.96092],[-71.71146,-15.94618],[-71.70434,-15.93371],[-71.692,-15.9334],[-71.68169,-15.94722],[-71.66113,-15.96447],[-71.64871,-15.98889],[-71.62655,-15.97917],[-71.6003,-15.98213],[-71.57761,-15.99088],[-71.56073,-15.97765],[-71.54244,-15.95238],[-71.53169,-15.94423],[-71.52917,-15.92996],[-71.50484,-15.92545],[-71.4901,-15.93216],[-71.46829,-15.92652],[-71.45097,-15.93497],[-71.44261,-15.92604],[-71.42635,-15.93127],[-71.3983,-15.92534],[-71.37051,-15.92692],[-71.3371,-15.94173],[-71.32478,-15.93988],[-71.31052,-15.95078],[-71.27668,-15.95415],[-71.26942,-15.98003],[-71.24648,-15.99974],[-71.23157,-16.00194],[-71.2081,-16.02359],[-71.20168,-16.0256],[-71.19415,-16.01522],[-71.17408,-16.00668],[-71.15263,-16.00188],[-71.14445,-15.9837],[-71.12216,-15.98462],[-71.11594,-15.98824],[-71.08533,-15.98298],[-71.08725,-15.99637],[-71.0769,-16.0042],[-71.06768,-16.00417],[-71.0553,-15.99561],[-71.04389,-15.98101],[-71.00353,-15.96832],[-70.96135,-15.9696],[-70.95702,-15.96343],[-70.93585,-15.96222],[-70.91892,-15.94808],[-70.87551,-15.94726],[-70.86671,-15.92969],[-70.84534,-15.92193],[-70.8322,-15.9491],[-70.84087,-15.95884],[-70.84195,-15.971],[-70.8202,-15.97847],[-70.82861,-15.99921],[-70.81656,-16.00276],[-70.81487,-16.01217],[-70.82012,-16.03161],[-70.80665,-16.0423],[-70.80451,-16.05513],[-70.85674,-16.05634],[-70.86449,-16.06716],[-70.86681,-16.08008],[-70.87811,-16.08144],[-70.87506,-16.09458],[-70.89376,-16.10283],[-70.88613,-16.11814],[-70.86711,-16.12848],[-70.87193,-16.14288],[-70.86783,-16.15387],[-70.87859,-16.16662],[-70.86107,-16.17475],[-70.85389,-16.20248],[-70.86653,-16.21839],[-70.86578,-16.22627],[-70.85051,-16.22798],[-70.84641,-16.23815],[-70.85388,-16.24147],[-70.872,-16.2657],[-70.87648,-16.28155],[-70.88614,-16.28527],[-70.90343,-16.27761],[-70.91579,-16.2824],[-70.93911,-16.29893],[-70.94625,-16.31384],[-70.95702,-16.3084],[-70.98629,-16.30995],[-70.98001,-16.3318],[-70.97557,-16.36224],[-70.9696,-16.37226],[-70.9754,-16.38891],[-70.96482,-16.39759],[-70.97524,-16.41216],[-70.9737,-16.42587],[-70.9649,-16.43716],[-70.96483,-16.4463],[-70.95293,-16.46099],[-70.95544,-16.47163],[-70.9672,-16.48111],[-70.98055,-16.48133],[-70.99245,-16.49587],[-71.0115,-16.49828],[-71.01833,-16.48742],[-71.03726,-16.48569],[-71.04811,-16.45508],[-71.05305,-16.46157],[-71.07265,-16.46576],[-71.07827,-16.45856],[-71.1102,-16.46579],[-71.12392,-16.46097],[-71.13952,-16.47497],[-71.15793,-16.47097],[-71.19703,-16.47166],[-71.21914,-16.46057],[-71.24564,-16.46686],[-71.24934,-16.48236],[-71.23707,-16.50212],[-71.24277,-16.52563],[-71.2448,-16.55023],[-71.25275,-16.57257],[-71.26284,-16.58491],[-71.2615,-16.60666],[-71.27318,-16.60702],[-71.27915,-16.61582],[-71.28037,-16.65764],[-71.28474,-16.66701],[-71.2839,-16.68224],[-71.29364,-16.69056],[-71.29604,-16.70743],[-71.28581,-16.71635],[-71.28909,-16.72646],[-71.31143,-16.73868],[-71.32757,-16.75226],[-71.34698,-16.74224],[-71.35329,-16.72495],[-71.36943,-16.71968],[-71.39456,-16.7312],[-71.4009,-16.72814],[-71.42594,-16.74142]],[[-71.13638,-16.34232],[-71.14385,-16.35182],[-71.17188,-16.35091],[-71.19736,-16.35691],[-71.20242,-16.37285],[-71.19138,-16.38645],[-71.17162,-16.37693],[-71.15035,-16.38492],[-71.13717,-16.3991],[-71.11539,-16.40027],[-71.10323,-16.4087],[-71.08734,-16.40222],[-71.09523,-16.39725],[-71.08813,-16.39231],[-71.09644,-16.35077],[-71.10159,-16.34142],[-71.12093,-16.32783],[-71.14607,-16.32442],[-71.14812,-16.3329],[-71.13638,-16.34232]]]}},{"type":"Feature","properties":{"ubigeo":"0402","nombre":"Camaná"},"geometry":{"type":"Polygon","coordinates":[[[-72.46635,-16.38316],[-72.46976,-16.38608],[-72.48471,-16.45109],[-72.50088,-16.47912],[-72.51196,-16.49142],[-72.53345,-16.49316],[-72.54623,-16.51282],[-72.57157,-16.51208],[-72.60469,-16.53719],[-72.58672,-16.54097],[-72.58299,-16.55948],[-72.56832,-16.56314],[-72.56497,-16.5734],[-72.54694,-16.5633],[-72.52647,-16.56581],[-72.52351,-16.57509],[-72.51516,-16.56995],[-72.49844,-16.57159],[-72.48916,-16.55739],[-72.48044,-16.56511],[-72.45506,-16.55655],[-72.45068,-16.57214],[-72.45593,-16.58767],[-72.45194,-16.59914],[-72.44215,-16.59716],[-72.43433,-16.60572],[-72.40643,-16.60402],[-72.39241,-16.61183],[-72.37352,-16.60659],[-72.36446,-16.59147],[-72.35393,-16.58933],[-72.33112,-16.59288],[-72.32632,-16.60741],[-72.31787,-16.60371],[-72.30849,-16.58315],[-72.2887,-16.58621],[-72.25423,-16.53341],[-72.23952,-16.53425],[-72.23076,-16.52696],[-72.19934,-16.48381],[-72.19951,-16.45872],[-72.19769,-16.49145],[-72.20901,-16.5035],[-72.21339,-16.5152],[-72.23731,-16.54702],[-72.24293,-16.56146],[-72.26202,-16.58395],[-72.27846,-16.60927],[-72.28289,-16.62141],[-72.28236,-16.64022],[-72.27382,-16.65661],[-72.25507,-16.66664],[-72.23161,-16.66573],[-72.20501,-16.6851],[-72.19565,-16.68682],[-72.19589,-16.7026],[-72.17882,-16.70804],[-72.16452,-16.72023],[-72.16136,-16.73087],[-72.14582,-16.74364],[-72.13216,-16.74409],[-72.12759,-16.75659],[-72.1319,-16.76666],[-72.13307,-16.77203],[-72.15295,-16.79468],[-72.20558,-16.79903],[-72.21517,-16.80787],[-72.21076,-16.8172],[-72.22384,-16.83455],[-72.17199,-16.84989],[-72.14651,-16.87549],[-72.14637,-16.88071],[-72.16396,-16.88945],[-72.17625,-16.90554],[-72.17651,-16.91666],[-72.18449,-16.92477],[-72.19569,-16.9268],[-72.19983,-16.91497],[-72.21152,-16.90245],[-72.23252,-16.90055],[-72.25049,-16.88489],[-72.2634,-16.88566],[-72.27779,-16.87372],[-72.28828,-16.87525],[-72.29633,-16.84486],[-72.29542,-16.82742],[-72.31219,-16.81346],[-72.3152,-16.80288],[-72.32582,-16.80314],[-72.33057,-16.78987],[-72.36476,-16.7606],[-72.37426,-16.76075],[-72.38706,-16.75009],[-72.39886,-16.75226],[-72.40394,-16.74093],[-72.41529,-16.73712],[-72.42431,-16.72351],[-72.45648,-16.69954],[-72.47034,-16.69772],[-72.54319,-16.67806],[-72.57243,-16.67386],[-72.59367,-16.66733],[-72.62571,-16.66199],[-72.70905,-16.65269],[-72.73415,-16.64488],[-72.7719,-16.6288],[-72.79021,-16.61578],[-72.84531,-16.56716],[-72.88512,-16.53915],[-72.91629,-16.52037],[-72.94295,-16.51549],[-72.96362,-16.51847],[-72.9742,-16.51439],[-72.98685,-16.51744],[-73.00413,-16.50703],[-73.0117,-16.51236],[-73.02645,-16.50236],[-73.05296,-16.49783],[-73.05334,-16.4894],[-73.07757,-16.47519],[-73.11023,-16.45191],[-73.11932,-16.45374],[-73.1489,-16.43855],[-73.15916,-16.41993],[-73.18726,-16.4158],[-73.20337,-16.40262],[-73.21523,-16.40016],[-73.225,-16.41277],[-73.24607,-16.40633],[-73.26039,-16.40928],[-73.26036,-16.40199],[-73.27221,-16.3982],[-73.2916,-16.40541],[-73.28561,-16.39948],[-73.2827,-16.38307],[-73.27466,-16.37112],[-73.24226,-16.35631],[-73.23594,-16.33296],[-73.21593,-16.2858],[-73.20419,-16.28522],[-73.19507,-16.27815],[-73.20162,-16.23388],[-73.19859,-16.20336],[-73.20716,-16.169],[-73.20323,-16.15299],[-73.22204,-16.11923],[-73.22384,-16.06386],[-73.2309,-16.05717],[-73.23462,-16.0362],[-73.23205,-16.02898],[-73.24029,-15.99821],[-73.22136,-15.99217],[-73.22499,-15.98497],[-73.2233,-15.96203],[-73.22988,-15.95311],[-73.22516,-15.92673],[-73.23543,-15.90793],[-73.2293,-15.88401],[-73.23325,-15.87405],[-73.20004,-15.88324],[-73.18938,-15.89622],[-73.18871,-15.9045],[-73.17404,-15.91211],[-73.16161,-15.9462],[-73.1613,-15.9596],[-73.15117,-15.97967],[-73.15598,-15.98927],[-73.16884,-15.99247],[-73.17528,-16.00687],[-73.16372,-16.01868],[-73.13951,-16.00559],[-73.1235,-16.01264],[-73.11674,-15.99668],[-73.10685,-15.9885],[-73.09003,-16.00038],[-73.08842,-16.00785],[-73.07678,-16.00973],[-73.06492,-16.01859],[-73.03117,-16.01546],[-73.01941,-16.01937],[-72.99789,-16.01932],[-72.96485,-16.03286],[-72.93958,-16.03683],[-72.9345,-16.0323],[-72.91215,-16.0302],[-72.89036,-16.04655],[-72.88039,-16.04976],[-72.86593,-16.08678],[-72.85801,-16.09686],[-72.84334,-16.12618],[-72.84635,-16.13466],[-72.84122,-16.17446],[-72.81714,-16.20291],[-72.81013,-16.22145],[-72.81011,-16.24417],[-72.80649,-16.25364],[-72.80924,-16.26982],[-72.79793,-16.3085],[-72.76288,-16.32507],[-72.75203,-16.32676],[-72.74599,-16.33962],[-72.72128,-16.35524],[-72.71036,-16.36729],[-72.69688,-16.39144],[-72.68208,-16.40155],[-72.6699,-16.42443],[-72.6503,-16.43598],[-72.64095,-16.4476],[-72.62336,-16.45701],[-72.60293,-16.45996],[-72.59363,-16.43048],[-72.57345,-16.42103],[-72.57207,-16.41226],[-72.55969,-16.39745],[-72.54622,-16.39878],[-72.53351,-16.40983],[-72.52296,-16.41009],[-72.50639,-16.39401],[-72.50212,-16.37824],[-72.48348,-16.35733],[-72.46635,-16.38316]]]}},{"type":"Feature","properties":{"ubigeo":"0403","nombre":"Caravelí"},"geometry":{"type":"Polygon","coordinates":[[[-73.4411,-15.35572],[-73.42815,-15.36139],[-73.43093,-15.37834],[-73.41744,-15.3761],[-73.39217,-15.39874],[-73.36728,-15.38755],[-73.34749,-15.39445],[-73.33628,-15.40515],[-73.31264,-15.40005],[-73.29453,-15.39233],[-73.2748,-15.39296],[-73.2617,-15.4045],[-73.24818,-15.44963],[-73.23577,-15.47157],[-73.22521,-15.48146],[-73.21999,-15.50001],[-73.20541,-15.5106],[-73.20372,-15.51897],[-73.21231,-15.54603],[-73.22634,-15.5703],[-73.21857,-15.59387],[-73.22218,-15.60294],[-73.21731,-15.64639],[-73.22421,-15.66339],[-73.23898,-15.68007],[-73.24471,-15.71187],[-73.24015,-15.71874],[-73.25543,-15.75147],[-73.25665,-15.76744],[-73.25145,-15.77771],[-73.25701,-15.79043],[-73.25556,-15.81441],[-73.26244,-15.8255],[-73.24969,-15.85684],[-73.25062,-15.86835],[-73.23325,-15.87405],[-73.2293,-15.88401],[-73.23543,-15.90793],[-73.22516,-15.92673],[-73.22988,-15.95311],[-73.2233,-15.96203],[-73.22499,-15.98497],[-73.22136,-15.99217],[-73.24029,-15.99821],[-73.23205,-16.02898],[-73.23462,-16.0362],[-73.2309,-16.05717],[-73.22384,-16.06386],[-73.22204,-16.11923],[-73.20323,-16.15299],[-73.20716,-16.169],[-73.19859,-16.20336],[-73.20162,-16.23388],[-73.19507,-16.27815],[-73.20419,-16.28522],[-73.21593,-16.2858],[-73.23594,-16.33296],[-73.24226,-16.35631],[-73.27466,-16.37112],[-73.2827,-16.38307],[-73.28561,-16.39948],[-73.2916,-16.40541],[-73.29927,-16.38292],[-73.30481,-16.37974],[-73.30707,-16.36247],[-73.3026,-16.34943],[-73.3142,-16.3387],[-73.3317,-16.32924],[-73.39097,-16.30907],[-73.40513,-16.29935],[-73.45126,-16.28131],[-73.47581,-16.27944],[-73.48197,-16.28367],[-73.49713,-16.2733],[-73.55933,-16.24449],[-73.56741,-16.24954],[-73.58861,-16.24087],[-73.60258,-16.23993],[-73.61993,-16.23009],[-73.6395,-16.23285],[-73.65866,-16.22777],[-73.66428,-16.23073],[-73.67621,-16.22356],[-73.69649,-16.23121],[-73.69937,-16.2207],[-73.72066,-16.20706],[-73.72788,-16.19525],[-73.77174,-16.175],[-73.8008,-16.16867],[-73.8345,-16.15473],[-73.85336,-16.14192],[-73.86935,-16.13554],[-73.88087,-16.11644],[-73.88939,-16.10935],[-73.92401,-16.09213],[-73.93098,-16.08508],[-73.9536,-16.07401],[-73.95943,-16.06061],[-73.97514,-16.05252],[-73.98994,-16.03901],[-73.99841,-16.04225],[-74.00748,-16.03382],[-74.01829,-16.0364],[-74.02046,-16.0258],[-74.03308,-16.01806],[-74.02483,-15.99445],[-74.0425,-15.96417],[-74.05445,-15.95452],[-74.10112,-15.93158],[-74.11962,-15.9241],[-74.1753,-15.89692],[-74.20651,-15.89075],[-74.23193,-15.87858],[-74.2416,-15.8787],[-74.25047,-15.86894],[-74.25268,-15.85423],[-74.28552,-15.8371],[-74.3103,-15.84652],[-74.3279,-15.84872],[-74.32763,-15.84218],[-74.35113,-15.84198],[-74.36317,-15.83195],[-74.3741,-15.83542],[-74.3933,-15.82931],[-74.42277,-15.81078],[-74.43929,-15.79456],[-74.44762,-15.77337],[-74.46274,-15.75543],[-74.45975,-15.7429],[-74.46283,-15.72652],[-74.47246,-15.71948],[-74.50235,-15.70677],[-74.53156,-15.70083],[-74.55378,-15.69327],[-74.61579,-15.66778],[-74.66128,-15.65284],[-74.68256,-15.64285],[-74.68784,-15.63576],[-74.74968,-15.60038],[-74.78566,-15.58393],[-74.83075,-15.56719],[-74.84425,-15.56524],[-74.84776,-15.55454],[-74.86848,-15.53568],[-74.90997,-15.51211],[-74.96723,-15.49052],[-74.97363,-15.49057],[-74.98537,-15.46986],[-75.00684,-15.46004],[-75.02608,-15.45763],[-75.03213,-15.46102],[-75.05637,-15.45463],[-75.07333,-15.44294],[-75.06111,-15.43528],[-75.04965,-15.4345],[-75.02892,-15.40428],[-75.01849,-15.38241],[-75.01656,-15.3511],[-75.00388,-15.33023],[-74.98241,-15.31683],[-74.9682,-15.29942],[-74.96442,-15.285],[-74.96364,-15.2539],[-74.9459,-15.23149],[-74.93987,-15.20601],[-74.9172,-15.18178],[-74.89985,-15.17395],[-74.88852,-15.16123],[-74.8706,-15.15123],[-74.85521,-15.15383],[-74.81592,-15.1395],[-74.79137,-15.12192],[-74.77783,-15.10768],[-74.76229,-15.09806],[-74.75258,-15.1134],[-74.73853,-15.12339],[-74.72144,-15.12465],[-74.7186,-15.13566],[-74.68945,-15.13907],[-74.67996,-15.13256],[-74.65204,-15.13913],[-74.62825,-15.1245],[-74.60597,-15.1485],[-74.58509,-15.14911],[-74.57246,-15.14094],[-74.55252,-15.13994],[-74.53397,-15.14644],[-74.51267,-15.14879],[-74.50336,-15.16168],[-74.48819,-15.1637],[-74.46576,-15.17348],[-74.45142,-15.17597],[-74.43769,-15.16781],[-74.41833,-15.16903],[-74.39872,-15.18146],[-74.3899,-15.20714],[-74.39938,-15.2174],[-74.38788,-15.25178],[-74.3997,-15.26586],[-74.39821,-15.27805],[-74.41485,-15.29542],[-74.40946,-15.30849],[-74.38897,-15.31725],[-74.37785,-15.33188],[-74.35992,-15.3327],[-74.35526,-15.3398],[-74.34582,-15.33635],[-74.33365,-15.35326],[-74.30972,-15.35894],[-74.32843,-15.39099],[-74.32558,-15.41956],[-74.31676,-15.44219],[-74.30226,-15.45147],[-74.31118,-15.46273],[-74.30012,-15.47839],[-74.27872,-15.47873],[-74.26594,-15.47471],[-74.25545,-15.48074],[-74.24118,-15.48104],[-74.23296,-15.48617],[-74.21397,-15.48573],[-74.19374,-15.49166],[-74.18502,-15.48573],[-74.16647,-15.48396],[-74.16098,-15.47765],[-74.15383,-15.45554],[-74.15126,-15.42875],[-74.13998,-15.42664],[-74.13395,-15.41661],[-74.11554,-15.41185],[-74.11308,-15.40498],[-74.09452,-15.392],[-74.08553,-15.39133],[-74.07095,-15.40401],[-74.06543,-15.40219],[-74.05373,-15.41773],[-74.04553,-15.44338],[-74.03729,-15.45608],[-74.04269,-15.46793],[-74.03876,-15.48297],[-74.04513,-15.49282],[-74.07525,-15.50345],[-74.07919,-15.51572],[-74.06728,-15.53929],[-74.07576,-15.55046],[-74.07413,-15.56009],[-74.08493,-15.59154],[-74.08164,-15.61437],[-74.08474,-15.61891],[-74.06865,-15.62989],[-74.05095,-15.62228],[-74.01939,-15.59917],[-74.00943,-15.56804],[-74.01028,-15.5594],[-73.99646,-15.55339],[-73.98823,-15.54087],[-73.97989,-15.53952],[-73.96107,-15.52392],[-73.94596,-15.4904],[-73.91251,-15.45625],[-73.8939,-15.44935],[-73.88864,-15.4391],[-73.87656,-15.43915],[-73.86827,-15.42613],[-73.87349,-15.4114],[-73.86971,-15.40025],[-73.87708,-15.38916],[-73.87128,-15.38232],[-73.87486,-15.35507],[-73.88362,-15.3383],[-73.86921,-15.33171],[-73.86611,-15.32466],[-73.83258,-15.32712],[-73.80799,-15.32427],[-73.79199,-15.34004],[-73.77645,-15.34032],[-73.77932,-15.3464],[-73.76964,-15.35704],[-73.75887,-15.38527],[-73.73062,-15.40734],[-73.70652,-15.42072],[-73.69456,-15.43478],[-73.68436,-15.43748],[-73.65161,-15.41628],[-73.62351,-15.42111],[-73.61286,-15.41923],[-73.59291,-15.40362],[-73.5574,-15.40861],[-73.52957,-15.39205],[-73.50345,-15.38303],[-73.47811,-15.37962],[-73.4411,-15.35572]]]}},{"type":"Feature","properties":{"ubigeo":"0404","nombre":"Castilla"},"geometry":{"type":"Polygon","coordinates":[[[-72.59363,-16.43048],[-72.60995,-16.39725],[-72.60902,-16.38709],[-72.6206,-16.35403],[-72.63385,-16.33705],[-72.64214,-16.31605],[-72.65554,-16.29112],[-72.65108,-16.24781],[-72.66365,-16.24758],[-72.67703,-16.23566],[-72.68741,-16.21851],[-72.6845,-16.19497],[-72.69394,-16.16399],[-72.68675,-16.13761],[-72.6872,-16.11981],[-72.69862,-16.10983],[-72.70785,-16.09176],[-72.71312,-16.05379],[-72.70159,-16.0084],[-72.69024,-15.99676],[-72.68667,-15.9841],[-72.67867,-15.98115],[-72.67364,-16.01025],[-72.6653,-16.01763],[-72.63283,-16.01589],[-72.62489,-16.01209],[-72.6013,-16.01742],[-72.59515,-16.02589],[-72.57607,-16.02755],[-72.58586,-16.00809],[-72.58543,-15.99632],[-72.60153,-15.98735],[-72.60665,-15.97157],[-72.59193,-15.9652],[-72.58714,-15.94999],[-72.59144,-15.93628],[-72.57912,-15.93753],[-72.55004,-15.92244],[-72.5445,-15.92264],[-72.51865,-15.90881],[-72.50746,-15.89086],[-72.52836,-15.86257],[-72.54256,-15.81331],[-72.55307,-15.80107],[-72.56343,-15.79826],[-72.57616,-15.78295],[-72.58932,-15.76031],[-72.59091,-15.74901],[-72.603,-15.72765],[-72.61818,-15.7197],[-72.62547,-15.70231],[-72.63406,-15.70775],[-72.63917,-15.70071],[-72.64611,-15.7099],[-72.66332,-15.7106],[-72.68024,-15.68482],[-72.68377,-15.66988],[-72.7038,-15.65536],[-72.70282,-15.6327],[-72.72352,-15.60302],[-72.71874,-15.58836],[-72.69038,-15.55836],[-72.6607,-15.54589],[-72.63642,-15.55227],[-72.62875,-15.55971],[-72.61689,-15.55593],[-72.60882,-15.55967],[-72.6009,-15.55029],[-72.58639,-15.55076],[-72.57068,-15.53865],[-72.55762,-15.5422],[-72.54361,-15.53438],[-72.52652,-15.50539],[-72.51606,-15.49662],[-72.50759,-15.47506],[-72.51477,-15.46402],[-72.51559,-15.45086],[-72.52343,-15.43892],[-72.51958,-15.40656],[-72.51167,-15.39874],[-72.46054,-15.38802],[-72.44076,-15.39783],[-72.43266,-15.37079],[-72.42714,-15.36814],[-72.43244,-15.33549],[-72.43966,-15.3105],[-72.43842,-15.30156],[-72.41959,-15.27053],[-72.40279,-15.25908],[-72.36467,-15.2419],[-72.37136,-15.23199],[-72.37693,-15.19779],[-72.35755,-15.15324],[-72.35969,-15.13883],[-72.3697,-15.13555],[-72.36982,-15.11858],[-72.3604,-15.11023],[-72.35498,-15.09736],[-72.317,-15.0944],[-72.29668,-15.06725],[-72.26547,-15.04325],[-72.25419,-14.9995],[-72.25864,-14.98672],[-72.25336,-14.94626],[-72.22728,-14.93076],[-72.22551,-14.92385],[-72.20962,-14.90937],[-72.19947,-14.9093],[-72.16563,-14.89605],[-72.1668,-14.89051],[-72.14771,-14.8814],[-72.09957,-14.89286],[-72.10666,-14.89998],[-72.10947,-14.91889],[-72.10293,-14.93587],[-72.10221,-14.95493],[-72.07972,-14.93965],[-72.04573,-14.94148],[-72.04109,-14.93021],[-72.04646,-14.90678],[-72.03396,-14.89866],[-72.03452,-14.88792],[-72.02683,-14.87602],[-72.00494,-14.88632],[-71.9759,-14.86947],[-71.96416,-14.84607],[-71.95185,-14.83733],[-71.95216,-14.86815],[-71.94318,-14.87742],[-71.93848,-14.90375],[-71.93958,-14.91979],[-71.93136,-14.92225],[-71.92049,-14.93503],[-71.9138,-14.95729],[-71.92133,-14.96834],[-71.93282,-14.96593],[-71.93886,-14.97743],[-71.95192,-14.98847],[-71.95514,-15.02817],[-71.95976,-15.04056],[-71.98238,-15.0637],[-71.97272,-15.0808],[-71.95892,-15.08278],[-71.94703,-15.11027],[-71.96976,-15.13597],[-71.95291,-15.1513],[-71.94308,-15.1529],[-71.91582,-15.16759],[-71.90141,-15.1708],[-71.90508,-15.18116],[-71.91893,-15.19609],[-71.92293,-15.22024],[-71.94598,-15.22696],[-71.94315,-15.2456],[-71.95158,-15.25102],[-71.95969,-15.26952],[-71.96511,-15.29162],[-71.96295,-15.31181],[-71.9739,-15.31551],[-71.9841,-15.33787],[-71.98545,-15.3603],[-71.98022,-15.36912],[-71.98801,-15.3949],[-71.99342,-15.39909],[-71.99397,-15.44058],[-72.00102,-15.46191],[-71.99715,-15.4741],[-71.99908,-15.49383],[-71.99512,-15.49517],[-71.99729,-15.51579],[-72.00395,-15.52845],[-71.99849,-15.5448],[-71.99055,-15.54906],[-71.9949,-15.5683],[-72.0034,-15.58188],[-72.01914,-15.57855],[-72.03319,-15.58044],[-72.04005,-15.59429],[-72.06462,-15.59678],[-72.08238,-15.608],[-72.10131,-15.60343],[-72.11498,-15.61031],[-72.13808,-15.62907],[-72.1395,-15.6344],[-72.16315,-15.65971],[-72.1857,-15.66798],[-72.20907,-15.68151],[-72.22529,-15.69919],[-72.24469,-15.7295],[-72.24377,-15.73863],[-72.25421,-15.74935],[-72.27619,-15.78339],[-72.27571,-15.80243],[-72.29318,-15.79404],[-72.3038,-15.80155],[-72.31128,-15.81538],[-72.30136,-15.81981],[-72.29619,-15.83081],[-72.29963,-15.85053],[-72.29784,-15.87262],[-72.28241,-15.88385],[-72.28757,-15.88791],[-72.2909,-15.91138],[-72.29653,-15.92104],[-72.26968,-15.94141],[-72.24127,-15.94944],[-72.22536,-15.96147],[-72.22839,-15.97215],[-72.23914,-15.97949],[-72.24405,-15.99707],[-72.25165,-16.00759],[-72.23672,-16.01936],[-72.22918,-16.03154],[-72.24314,-16.05312],[-72.25485,-16.05875],[-72.2581,-16.07794],[-72.25285,-16.09429],[-72.25981,-16.10787],[-72.26511,-16.12956],[-72.2743,-16.13881],[-72.3134,-16.13573],[-72.33758,-16.14928],[-72.36724,-16.16117],[-72.35764,-16.17034],[-72.35862,-16.20161],[-72.36926,-16.2115],[-72.36724,-16.21966],[-72.36903,-16.25611],[-72.37502,-16.28212],[-72.3677,-16.2916],[-72.37965,-16.28894],[-72.39406,-16.29769],[-72.40126,-16.31236],[-72.4256,-16.31302],[-72.43723,-16.31955],[-72.4425,-16.33142],[-72.44379,-16.36548],[-72.46635,-16.38316],[-72.48348,-16.35733],[-72.50212,-16.37824],[-72.50639,-16.39401],[-72.52296,-16.41009],[-72.53351,-16.40983],[-72.54622,-16.39878],[-72.55969,-16.39745],[-72.57207,-16.41226],[-72.57345,-16.42103],[-72.59363,-16.43048]]]}},{"type":"Feature","properties":{"ubigeo":"0405","nombre":"Caylloma"},"geometry":{"type":"Polygon","coordinates":[[[-70.89054,-15.85125],[-70.89537,-15.85991],[-70.89382,-15.88691],[-70.88591,-15.89346],[-70.87497,-15.88763],[-70.86578,-15.88939],[-70.86049,-15.90288],[-70.84534,-15.92193],[-70.86671,-15.92969],[-70.87551,-15.94726],[-70.91892,-15.94808],[-70.93585,-15.96222],[-70.95702,-15.96343],[-70.96135,-15.9696],[-71.00353,-15.96832],[-71.04389,-15.98101],[-71.0553,-15.99561],[-71.06768,-16.00417],[-71.0769,-16.0042],[-71.08725,-15.99637],[-71.08533,-15.98298],[-71.11594,-15.98824],[-71.12216,-15.98462],[-71.14445,-15.9837],[-71.15263,-16.00188],[-71.17408,-16.00668],[-71.19415,-16.01522],[-71.20168,-16.0256],[-71.2081,-16.02359],[-71.23157,-16.00194],[-71.24648,-15.99974],[-71.26942,-15.98003],[-71.27668,-15.95415],[-71.31052,-15.95078],[-71.32478,-15.93988],[-71.3371,-15.94173],[-71.37051,-15.92692],[-71.3983,-15.92534],[-71.42635,-15.93127],[-71.44261,-15.92604],[-71.45097,-15.93497],[-71.46829,-15.92652],[-71.4901,-15.93216],[-71.50484,-15.92545],[-71.52917,-15.92996],[-71.53169,-15.94423],[-71.54244,-15.95238],[-71.56073,-15.97765],[-71.57761,-15.99088],[-71.6003,-15.98213],[-71.62655,-15.97917],[-71.64871,-15.98889],[-71.66113,-15.96447],[-71.68169,-15.94722],[-71.692,-15.9334],[-71.70434,-15.93371],[-71.71146,-15.94618],[-71.70668,-15.96092],[-71.70695,-15.98375],[-71.72454,-15.98906],[-71.73556,-16.00265],[-71.73796,-16.0162],[-71.75542,-16.03043],[-71.77434,-16.03319],[-71.81516,-16.05082],[-71.81829,-16.06235],[-71.82697,-16.05875],[-71.83652,-16.0694],[-71.84077,-16.08637],[-71.8648,-16.10474],[-71.86987,-16.13018],[-71.88945,-16.14612],[-71.9044,-16.15116],[-71.90827,-16.15878],[-71.94636,-16.14243],[-71.95328,-16.14495],[-71.96548,-16.13729],[-71.97417,-16.14138],[-71.99623,-16.13861],[-72.01187,-16.16116],[-72.02731,-16.16942],[-72.0566,-16.20749],[-72.08277,-16.18947],[-72.09132,-16.18932],[-72.08723,-16.20115],[-72.07348,-16.20947],[-72.07475,-16.22206],[-72.0829,-16.23042],[-72.08559,-16.24541],[-72.12019,-16.29762],[-72.13074,-16.31012],[-72.14461,-16.3407],[-72.14433,-16.35058],[-72.1605,-16.36938],[-72.1805,-16.40859],[-72.19951,-16.45872],[-72.19934,-16.48381],[-72.23076,-16.52696],[-72.23952,-16.53425],[-72.25423,-16.53341],[-72.2887,-16.58621],[-72.30849,-16.58315],[-72.31787,-16.60371],[-72.32632,-16.60741],[-72.33112,-16.59288],[-72.35393,-16.58933],[-72.36446,-16.59147],[-72.37352,-16.60659],[-72.39241,-16.61183],[-72.40643,-16.60402],[-72.43433,-16.60572],[-72.44215,-16.59716],[-72.45194,-16.59914],[-72.45593,-16.58767],[-72.45068,-16.57214],[-72.45506,-16.55655],[-72.48044,-16.56511],[-72.48916,-16.55739],[-72.49844,-16.57159],[-72.51516,-16.56995],[-72.52351,-16.57509],[-72.52647,-16.56581],[-72.54694,-16.5633],[-72.56497,-16.5734],[-72.56832,-16.56314],[-72.58299,-16.55948],[-72.58672,-16.54097],[-72.60469,-16.53719],[-72.57157,-16.51208],[-72.54623,-16.51282],[-72.53345,-16.49316],[-72.51196,-16.49142],[-72.50088,-16.47912],[-72.48471,-16.45109],[-72.46976,-16.38608],[-72.46635,-16.38316],[-72.44379,-16.36548],[-72.4425,-16.33142],[-72.43723,-16.31955],[-72.4256,-16.31302],[-72.40126,-16.31236],[-72.39406,-16.29769],[-72.37965,-16.28894],[-72.3677,-16.2916],[-72.37502,-16.28212],[-72.36903,-16.25611],[-72.36724,-16.21966],[-72.36926,-16.2115],[-72.35862,-16.20161],[-72.35764,-16.17034],[-72.36724,-16.16117],[-72.33758,-16.14928],[-72.3134,-16.13573],[-72.2743,-16.13881],[-72.26511,-16.12956],[-72.25981,-16.10787],[-72.25285,-16.09429],[-72.2581,-16.07794],[-72.25485,-16.05875],[-72.24314,-16.05312],[-72.22918,-16.03154],[-72.23672,-16.01936],[-72.25165,-16.00759],[-72.24405,-15.99707],[-72.23914,-15.97949],[-72.22839,-15.97215],[-72.22536,-15.96147],[-72.24127,-15.94944],[-72.26968,-15.94141],[-72.29653,-15.92104],[-72.2909,-15.91138],[-72.28757,-15.88791],[-72.28241,-15.88385],[-72.29784,-15.87262],[-72.29963,-15.85053],[-72.29619,-15.83081],[-72.30136,-15.81981],[-72.31128,-15.81538],[-72.3038,-15.80155],[-72.29318,-15.79404],[-72.27571,-15.80243],[-72.27619,-15.78339],[-72.25421,-15.74935],[-72.24377,-15.73863],[-72.24469,-15.7295],[-72.22529,-15.69919],[-72.20907,-15.68151],[-72.1857,-15.66798],[-72.16315,-15.65971],[-72.1395,-15.6344],[-72.13808,-15.62907],[-72.11498,-15.61031],[-72.10131,-15.60343],[-72.08238,-15.608],[-72.06462,-15.59678],[-72.04005,-15.59429],[-72.03319,-15.58044],[-72.01914,-15.57855],[-72.0034,-15.58188],[-71.9949,-15.5683],[-71.99055,-15.54906],[-71.99849,-15.5448],[-72.00395,-15.52845],[-71.99729,-15.51579],[-71.99512,-15.49517],[-71.99908,-15.49383],[-71.99715,-15.4741],[-72.00102,-15.46191],[-71.99397,-15.44058],[-71.99342,-15.39909],[-71.98801,-15.3949],[-71.98022,-15.36912],[-71.98545,-15.3603],[-71.9841,-15.33787],[-71.9739,-15.31551],[-71.96295,-15.31181],[-71.96511,-15.29162],[-71.95969,-15.26952],[-71.95158,-15.25102],[-71.94315,-15.2456],[-71.94598,-15.22696],[-71.92293,-15.22024],[-71.91893,-15.19609],[-71.90508,-15.18116],[-71.90141,-15.1708],[-71.91582,-15.16759],[-71.94308,-15.1529],[-71.95291,-15.1513],[-71.96976,-15.13597],[-71.94703,-15.11027],[-71.95892,-15.08278],[-71.97272,-15.0808],[-71.98238,-15.0637],[-71.95976,-15.04056],[-71.95514,-15.02817],[-71.95192,-14.98847],[-71.93886,-14.97743],[-71.93282,-14.96593],[-71.92133,-14.96834],[-71.9138,-14.95729],[-71.92049,-14.93503],[-71.93136,-14.92225],[-71.93958,-14.91979],[-71.93848,-14.90375],[-71.94318,-14.87742],[-71.95216,-14.86815],[-71.95185,-14.83733],[-71.93997,-14.82281],[-71.91748,-14.83142],[-71.90652,-14.82626],[-71.90944,-14.81084],[-71.90255,-14.79676],[-71.8939,-14.7896],[-71.87667,-14.80044],[-71.87261,-14.82398],[-71.86429,-14.84551],[-71.85467,-14.85766],[-71.86342,-14.87336],[-71.85209,-14.88809],[-71.82892,-14.88798],[-71.8276,-14.90606],[-71.81668,-14.90734],[-71.79762,-14.89598],[-71.78946,-14.90707],[-71.76623,-14.92805],[-71.74596,-14.93987],[-71.77024,-14.98448],[-71.76347,-14.9948],[-71.76746,-15.01052],[-71.81136,-15.02357],[-71.82293,-15.03499],[-71.84932,-15.04509],[-71.83763,-15.07484],[-71.81548,-15.07822],[-71.80296,-15.06744],[-71.7863,-15.06955],[-71.77254,-15.08244],[-71.76549,-15.07868],[-71.75637,-15.08465],[-71.74112,-15.07994],[-71.71558,-15.08816],[-71.66795,-15.0919],[-71.66372,-15.10858],[-71.64903,-15.12067],[-71.63602,-15.13914],[-71.61761,-15.14606],[-71.60291,-15.13918],[-71.60149,-15.13264],[-71.58914,-15.12888],[-71.58383,-15.096],[-71.57778,-15.08787],[-71.57063,-15.06121],[-71.54649,-15.06849],[-71.5396,-15.07429],[-71.51171,-15.07945],[-71.48587,-15.0591],[-71.4846,-15.03933],[-71.50367,-15.02733],[-71.51017,-15.00463],[-71.50705,-14.97628],[-71.46504,-14.98407],[-71.44826,-14.97943],[-71.44138,-14.99668],[-71.42673,-15.00212],[-71.41737,-15.03373],[-71.39687,-15.04524],[-71.38751,-15.06126],[-71.37974,-15.06455],[-71.37268,-15.07911],[-71.36185,-15.07914],[-71.35425,-15.0923],[-71.32915,-15.10038],[-71.32491,-15.11689],[-71.31563,-15.12022],[-71.29756,-15.10862],[-71.28728,-15.09719],[-71.26023,-15.07691],[-71.26692,-15.06591],[-71.25365,-15.05762],[-71.24191,-15.0578],[-71.22729,-15.06946],[-71.21539,-15.04889],[-71.20769,-15.05049],[-71.20684,-15.07189],[-71.19536,-15.09019],[-71.18258,-15.08892],[-71.1633,-15.09972],[-71.16165,-15.1093],[-71.14358,-15.12056],[-71.14381,-15.12898],[-71.15806,-15.14729],[-71.16835,-15.14904],[-71.18446,-15.17021],[-71.17438,-15.17643],[-71.16052,-15.19829],[-71.16033,-15.20777],[-71.17196,-15.21656],[-71.18317,-15.23354],[-71.19178,-15.23325],[-71.20184,-15.24545],[-71.19691,-15.2526],[-71.20068,-15.26187],[-71.19016,-15.27439],[-71.18051,-15.27516],[-71.1654,-15.28888],[-71.1629,-15.30891],[-71.16624,-15.32087],[-71.16267,-15.33248],[-71.15381,-15.34085],[-71.15034,-15.36249],[-71.16578,-15.37395],[-71.17158,-15.38849],[-71.16904,-15.39809],[-71.17433,-15.42446],[-71.15327,-15.43983],[-71.13872,-15.43789],[-71.12943,-15.42817],[-71.11926,-15.42758],[-71.10179,-15.45483],[-71.08829,-15.45829],[-71.07175,-15.44927],[-71.07545,-15.4383],[-71.06213,-15.43396],[-71.04408,-15.41812],[-71.03897,-15.40517],[-71.02712,-15.43204],[-71.00591,-15.44168],[-70.99396,-15.45484],[-70.99447,-15.46988],[-71.01517,-15.48917],[-71.01773,-15.50288],[-71.00803,-15.51924],[-71.01795,-15.52785],[-71.00719,-15.54295],[-71.00734,-15.56289],[-70.98303,-15.59704],[-70.96128,-15.60621],[-70.924,-15.633],[-70.91798,-15.6438],[-70.91587,-15.66389],[-70.91756,-15.68738],[-70.90919,-15.70378],[-70.90013,-15.71215],[-70.90391,-15.73535],[-70.92331,-15.74701],[-70.93322,-15.77067],[-70.94227,-15.77455],[-70.93614,-15.78484],[-70.91982,-15.79998],[-70.91984,-15.80558],[-70.89523,-15.84778],[-70.89054,-15.85125]]]}},{"type":"Feature","properties":{"ubigeo":"0406","nombre":"Condesuyos"},"geometry":{"type":"Polygon","coordinates":[[[-71.95185,-14.83733],[-71.96416,-14.84607],[-71.9759,-14.86947],[-72.00494,-14.88632],[-72.02683,-14.87602],[-72.03452,-14.88792],[-72.03396,-14.89866],[-72.04646,-14.90678],[-72.04109,-14.93021],[-72.04573,-14.94148],[-72.07972,-14.93965],[-72.10221,-14.95493],[-72.10293,-14.93587],[-72.10947,-14.91889],[-72.10666,-14.89998],[-72.09957,-14.89286],[-72.14771,-14.8814],[-72.1668,-14.89051],[-72.16563,-14.89605],[-72.19947,-14.9093],[-72.20962,-14.90937],[-72.22551,-14.92385],[-72.22728,-14.93076],[-72.25336,-14.94626],[-72.25864,-14.98672],[-72.25419,-14.9995],[-72.26547,-15.04325],[-72.29668,-15.06725],[-72.317,-15.0944],[-72.35498,-15.09736],[-72.3604,-15.11023],[-72.36982,-15.11858],[-72.3697,-15.13555],[-72.35969,-15.13883],[-72.35755,-15.15324],[-72.37693,-15.19779],[-72.37136,-15.23199],[-72.36467,-15.2419],[-72.40279,-15.25908],[-72.41959,-15.27053],[-72.43842,-15.30156],[-72.43966,-15.3105],[-72.43244,-15.33549],[-72.42714,-15.36814],[-72.43266,-15.37079],[-72.44076,-15.39783],[-72.46054,-15.38802],[-72.51167,-15.39874],[-72.51958,-15.40656],[-72.52343,-15.43892],[-72.51559,-15.45086],[-72.51477,-15.46402],[-72.50759,-15.47506],[-72.51606,-15.49662],[-72.52652,-15.50539],[-72.54361,-15.53438],[-72.55762,-15.5422],[-72.57068,-15.53865],[-72.58639,-15.55076],[-72.6009,-15.55029],[-72.60882,-15.55967],[-72.61689,-15.55593],[-72.62875,-15.55971],[-72.63642,-15.55227],[-72.6607,-15.54589],[-72.69038,-15.55836],[-72.71874,-15.58836],[-72.72352,-15.60302],[-72.70282,-15.6327],[-72.7038,-15.65536],[-72.68377,-15.66988],[-72.68024,-15.68482],[-72.66332,-15.7106],[-72.64611,-15.7099],[-72.63917,-15.70071],[-72.63406,-15.70775],[-72.62547,-15.70231],[-72.61818,-15.7197],[-72.603,-15.72765],[-72.59091,-15.74901],[-72.58932,-15.76031],[-72.57616,-15.78295],[-72.56343,-15.79826],[-72.55307,-15.80107],[-72.54256,-15.81331],[-72.52836,-15.86257],[-72.50746,-15.89086],[-72.51865,-15.90881],[-72.5445,-15.92264],[-72.55004,-15.92244],[-72.57912,-15.93753],[-72.59144,-15.93628],[-72.58714,-15.94999],[-72.59193,-15.9652],[-72.60665,-15.97157],[-72.60153,-15.98735],[-72.58543,-15.99632],[-72.58586,-16.00809],[-72.57607,-16.02755],[-72.59515,-16.02589],[-72.6013,-16.01742],[-72.62489,-16.01209],[-72.63283,-16.01589],[-72.6653,-16.01763],[-72.67364,-16.01025],[-72.67867,-15.98115],[-72.68667,-15.9841],[-72.69024,-15.99676],[-72.70159,-16.0084],[-72.71312,-16.05379],[-72.70785,-16.09176],[-72.69862,-16.10983],[-72.6872,-16.11981],[-72.68675,-16.13761],[-72.69394,-16.16399],[-72.6845,-16.19497],[-72.68741,-16.21851],[-72.67703,-16.23566],[-72.66365,-16.24758],[-72.65108,-16.24781],[-72.65554,-16.29112],[-72.64214,-16.31605],[-72.63385,-16.33705],[-72.6206,-16.35403],[-72.60902,-16.38709],[-72.60995,-16.39725],[-72.59363,-16.43048],[-72.60293,-16.45996],[-72.62336,-16.45701],[-72.64095,-16.4476],[-72.6503,-16.43598],[-72.6699,-16.42443],[-72.68208,-16.40155],[-72.69688,-16.39144],[-72.71036,-16.36729],[-72.72128,-16.35524],[-72.74599,-16.33962],[-72.75203,-16.32676],[-72.76288,-16.32507],[-72.79793,-16.3085],[-72.80924,-16.26982],[-72.80649,-16.25364],[-72.81011,-16.24417],[-72.81013,-16.22145],[-72.81714,-16.20291],[-72.84122,-16.17446],[-72.84635,-16.13466],[-72.84334,-16.12618],[-72.85801,-16.09686],[-72.86593,-16.08678],[-72.88039,-16.04976],[-72.89036,-16.04655],[-72.91215,-16.0302],[-72.9345,-16.0323],[-72.93958,-16.03683],[-72.96485,-16.03286],[-72.99789,-16.01932],[-73.01941,-16.01937],[-73.03117,-16.01546],[-73.06492,-16.01859],[-73.07678,-16.00973],[-73.08842,-16.00785],[-73.09003,-16.00038],[-73.10685,-15.9885],[-73.11674,-15.99668],[-73.1235,-16.01264],[-73.13951,-16.00559],[-73.16372,-16.01868],[-73.17528,-16.00687],[-73.16884,-15.99247],[-73.15598,-15.98927],[-73.15117,-15.97967],[-73.1613,-15.9596],[-73.16161,-15.9462],[-73.17404,-15.91211],[-73.18871,-15.9045],[-73.18938,-15.89622],[-73.20004,-15.88324],[-73.23325,-15.87405],[-73.25062,-15.86835],[-73.24969,-15.85684],[-73.26244,-15.8255],[-73.25556,-15.81441],[-73.25701,-15.79043],[-73.25145,-15.77771],[-73.25665,-15.76744],[-73.25543,-15.75147],[-73.24015,-15.71874],[-73.24471,-15.71187],[-73.23898,-15.68007],[-73.22421,-15.66339],[-73.21731,-15.64639],[-73.22218,-15.60294],[-73.21857,-15.59387],[-73.22634,-15.5703],[-73.21231,-15.54603],[-73.20372,-15.51897],[-73.20541,-15.5106],[-73.18884,-15.52716],[-73.16604,-15.5388],[-73.16125,-15.54587],[-73.12858,-15.56738],[-73.11696,-15.572],[-73.10504,-15.56289],[-73.08298,-15.56149],[-73.07568,-15.55006],[-73.05985,-15.54304],[-73.03496,-15.51878],[-73.005,-15.50404],[-72.9975,-15.50343],[-72.98111,-15.47754],[-72.98519,-15.4602],[-72.97602,-15.43128],[-72.97575,-15.41353],[-72.96168,-15.39596],[-72.9454,-15.39937],[-72.93378,-15.39448],[-72.90533,-15.40209],[-72.89317,-15.41001],[-72.88998,-15.40349],[-72.87507,-15.40609],[-72.86102,-15.39598],[-72.85625,-15.37588],[-72.84562,-15.3638],[-72.8372,-15.31788],[-72.81137,-15.30355],[-72.81214,-15.29686],[-72.78848,-15.2742],[-72.78977,-15.26188],[-72.78278,-15.24419],[-72.73963,-15.25317],[-72.70662,-15.24422],[-72.68294,-15.24233],[-72.66119,-15.23337],[-72.64627,-15.2395],[-72.63212,-15.22546],[-72.6198,-15.22046],[-72.59825,-15.22261],[-72.58932,-15.20853],[-72.57189,-15.20027],[-72.54189,-15.20434],[-72.52936,-15.19916],[-72.51884,-15.1835],[-72.49716,-15.16927],[-72.50581,-15.15308],[-72.49753,-15.14558],[-72.49895,-15.13419],[-72.49236,-15.12937],[-72.4875,-15.11114],[-72.48857,-15.09845],[-72.49867,-15.07942],[-72.51517,-15.07287],[-72.52692,-15.05862],[-72.51999,-15.0487],[-72.50673,-15.04907],[-72.49125,-15.04006],[-72.46326,-15.02904],[-72.46184,-15.02279],[-72.47235,-15.01653],[-72.46712,-15.00988],[-72.454,-15.00748],[-72.43787,-14.99822],[-72.41032,-14.9933],[-72.40303,-14.98374],[-72.39916,-14.95748],[-72.3707,-14.95648],[-72.36665,-14.94765],[-72.33247,-14.93212],[-72.32307,-14.93092],[-72.30547,-14.90765],[-72.303,-14.88652],[-72.30889,-14.88],[-72.30698,-14.85556],[-72.31544,-14.83386],[-72.29192,-14.81837],[-72.26465,-14.81112],[-72.25229,-14.80366],[-72.23911,-14.81224],[-72.20279,-14.79787],[-72.20237,-14.78837],[-72.19057,-14.77883],[-72.16525,-14.78054],[-72.15967,-14.78634],[-72.15401,-14.77713],[-72.1447,-14.77771],[-72.13168,-14.7894],[-72.13809,-14.8133],[-72.12869,-14.8306],[-72.10766,-14.84724],[-72.09025,-14.8568],[-72.07687,-14.88347],[-72.06309,-14.88788],[-72.04639,-14.88711],[-72.04038,-14.83969],[-72.02529,-14.82963],[-72.02526,-14.82346],[-72.04054,-14.80976],[-72.0345,-14.79294],[-72.04096,-14.77877],[-72.03709,-14.76966],[-72.04779,-14.73877],[-72.04195,-14.72015],[-72.04498,-14.71648],[-72.04186,-14.69437],[-72.03615,-14.68178],[-72.02535,-14.6741],[-72.01583,-14.65839],[-72.01467,-14.64837],[-71.98791,-14.63295],[-71.97621,-14.64591],[-71.97619,-14.65405],[-71.95844,-14.67108],[-71.95116,-14.6725],[-71.94122,-14.68532],[-71.93066,-14.68809],[-71.95179,-14.70431],[-71.94597,-14.71082],[-71.95781,-14.72602],[-71.95847,-14.73311],[-71.94317,-14.74529],[-71.93058,-14.76114],[-71.92899,-14.78496],[-71.91442,-14.79207],[-71.8939,-14.7896],[-71.90255,-14.79676],[-71.90944,-14.81084],[-71.90652,-14.82626],[-71.91748,-14.83142],[-71.93997,-14.82281],[-71.95185,-14.83733]]]}},{"type":"Feature","properties":{"ubigeo":"0407","nombre":"Islay"},"geometry":{"type":"Polygon","coordinates":[[[-71.39092,-16.98049],[-71.39512,-16.98497],[-71.38461,-17.02111],[-71.36491,-17.01446],[-71.3596,-17.02353],[-71.33942,-17.02176],[-71.31897,-17.04421],[-71.32581,-17.0564],[-71.31589,-17.06528],[-71.31561,-17.07861],[-71.30225,-17.09385],[-71.31628,-17.11611],[-71.31633,-17.12474],[-71.32698,-17.13649],[-71.35139,-17.14741],[-71.38086,-17.18571],[-71.41087,-17.21259],[-71.4217,-17.23463],[-71.44096,-17.25172],[-71.46686,-17.25548],[-71.4908,-17.28501],[-71.50326,-17.2782],[-71.50932,-17.26861],[-71.52407,-17.26533],[-71.52807,-17.27125],[-71.53413,-17.25553],[-71.54474,-17.25909],[-71.55717,-17.25613],[-71.56402,-17.26157],[-71.56992,-17.25444],[-71.60828,-17.24277],[-71.63142,-17.23273],[-71.69037,-17.21199],[-71.7289,-17.20255],[-71.77607,-17.19473],[-71.81222,-17.18431],[-71.83356,-17.1749],[-71.85773,-17.15887],[-71.88989,-17.128],[-71.92265,-17.08751],[-71.94712,-17.06847],[-72.01027,-17.03356],[-72.03438,-17.01761],[-72.05618,-17.0183],[-72.07357,-17.02236],[-72.08789,-17.01267],[-72.11192,-17.01588],[-72.11273,-17.00584],[-72.10389,-16.99735],[-72.12348,-16.97618],[-72.11955,-16.9697],[-72.14893,-16.96204],[-72.14569,-16.95678],[-72.16233,-16.95123],[-72.1659,-16.9386],[-72.18456,-16.93556],[-72.18449,-16.92477],[-72.17651,-16.91666],[-72.17625,-16.90554],[-72.16396,-16.88945],[-72.14637,-16.88071],[-72.14651,-16.87549],[-72.17199,-16.84989],[-72.22384,-16.83455],[-72.21076,-16.8172],[-72.21517,-16.80787],[-72.20558,-16.79903],[-72.15295,-16.79468],[-72.13307,-16.77203],[-72.1319,-16.76666],[-72.12193,-16.77916],[-72.09693,-16.76757],[-72.0826,-16.77032],[-72.06691,-16.78443],[-72.04836,-16.77954],[-72.03856,-16.7845],[-72.03834,-16.79224],[-72.02174,-16.79199],[-71.9967,-16.79955],[-71.98805,-16.78533],[-71.90997,-16.67504],[-71.87073,-16.71343],[-71.86951,-16.78598],[-71.76524,-16.70824],[-71.74801,-16.69823],[-71.73443,-16.70054],[-71.703,-16.69859],[-71.67094,-16.70569],[-71.64932,-16.69495],[-71.63882,-16.70444],[-71.62873,-16.68368],[-71.62037,-16.68191],[-71.59369,-16.68658],[-71.57156,-16.69949],[-71.55465,-16.68428],[-71.53548,-16.70076],[-71.5306,-16.71324],[-71.53134,-16.7286],[-71.51286,-16.74504],[-71.5149,-16.75137],[-71.50062,-16.76662],[-71.49268,-16.76786],[-71.46524,-16.762],[-71.45457,-16.75644],[-71.45277,-16.73362],[-71.44064,-16.73039],[-71.42594,-16.74142],[-71.42969,-16.75134],[-71.42939,-16.77473],[-71.43646,-16.79563],[-71.44371,-16.80468],[-71.44045,-16.84147],[-71.44085,-16.86128],[-71.43505,-16.8793],[-71.42214,-16.8964],[-71.42417,-16.91976],[-71.44135,-16.93242],[-71.45597,-16.93419],[-71.46594,-16.95057],[-71.45954,-16.96082],[-71.44489,-16.95648],[-71.43436,-16.96029],[-71.4221,-16.95508],[-71.40579,-16.95584],[-71.4013,-16.96985],[-71.39092,-16.98049]]]}},{"type":"Feature","properties":{"ubigeo":"0408","nombre":"La Uniòn"},"geometry":{"type":"Polygon","coordinates":[[[-72.31544,-14.83386],[-72.30698,-14.85556],[-72.30889,-14.88],[-72.303,-14.88652],[-72.30547,-14.90765],[-72.32307,-14.93092],[-72.33247,-14.93212],[-72.36665,-14.94765],[-72.3707,-14.95648],[-72.39916,-14.95748],[-72.40303,-14.98374],[-72.41032,-14.9933],[-72.43787,-14.99822],[-72.454,-15.00748],[-72.46712,-15.00988],[-72.47235,-15.01653],[-72.46184,-15.02279],[-72.46326,-15.02904],[-72.49125,-15.04006],[-72.50673,-15.04907],[-72.51999,-15.0487],[-72.52692,-15.05862],[-72.51517,-15.07287],[-72.49867,-15.07942],[-72.48857,-15.09845],[-72.4875,-15.11114],[-72.49236,-15.12937],[-72.49895,-15.13419],[-72.49753,-15.14558],[-72.50581,-15.15308],[-72.49716,-15.16927],[-72.51884,-15.1835],[-72.52936,-15.19916],[-72.54189,-15.20434],[-72.57189,-15.20027],[-72.58932,-15.20853],[-72.59825,-15.22261],[-72.6198,-15.22046],[-72.63212,-15.22546],[-72.64627,-15.2395],[-72.66119,-15.23337],[-72.68294,-15.24233],[-72.70662,-15.24422],[-72.73963,-15.25317],[-72.78278,-15.24419],[-72.78977,-15.26188],[-72.78848,-15.2742],[-72.81214,-15.29686],[-72.81137,-15.30355],[-72.8372,-15.31788],[-72.84562,-15.3638],[-72.85625,-15.37588],[-72.86102,-15.39598],[-72.87507,-15.40609],[-72.88998,-15.40349],[-72.89317,-15.41001],[-72.90533,-15.40209],[-72.93378,-15.39448],[-72.9454,-15.39937],[-72.96168,-15.39596],[-72.97575,-15.41353],[-72.97602,-15.43128],[-72.98519,-15.4602],[-72.98111,-15.47754],[-72.9975,-15.50343],[-73.005,-15.50404],[-73.03496,-15.51878],[-73.05985,-15.54304],[-73.07568,-15.55006],[-73.08298,-15.56149],[-73.10504,-15.56289],[-73.11696,-15.572],[-73.12858,-15.56738],[-73.16125,-15.54587],[-73.16604,-15.5388],[-73.18884,-15.52716],[-73.20541,-15.5106],[-73.21999,-15.50001],[-73.22521,-15.48146],[-73.23577,-15.47157],[-73.24818,-15.44963],[-73.2617,-15.4045],[-73.2748,-15.39296],[-73.29062,-15.37132],[-73.29364,-15.36],[-73.2902,-15.33598],[-73.27773,-15.31818],[-73.28492,-15.29494],[-73.26274,-15.28638],[-73.24593,-15.28609],[-73.22157,-15.29797],[-73.20661,-15.29404],[-73.18518,-15.30582],[-73.17455,-15.30661],[-73.15295,-15.28306],[-73.15069,-15.26133],[-73.13955,-15.25593],[-73.13611,-15.24411],[-73.1272,-15.23859],[-73.11684,-15.22285],[-73.11075,-15.18611],[-73.09941,-15.18094],[-73.06051,-15.14431],[-73.04875,-15.14178],[-73.04756,-15.13435],[-73.02276,-15.13189],[-73.01921,-15.12216],[-73.02453,-15.09176],[-73.01598,-15.07599],[-73.00619,-15.06829],[-73.00438,-15.05786],[-73.00535,-15.00932],[-72.99885,-14.99372],[-72.98296,-14.98371],[-72.98666,-14.9561],[-72.9952,-14.94297],[-73.02135,-14.9155],[-73.03146,-14.90005],[-73.01421,-14.85571],[-73.00478,-14.84166],[-73.00278,-14.81499],[-72.99323,-14.80412],[-72.97932,-14.80613],[-72.96307,-14.79317],[-72.9548,-14.77746],[-72.94273,-14.76541],[-72.92058,-14.75793],[-72.91062,-14.76949],[-72.88234,-14.77143],[-72.87161,-14.76142],[-72.85892,-14.76382],[-72.84682,-14.75982],[-72.83336,-14.73628],[-72.82858,-14.70263],[-72.80593,-14.67556],[-72.7897,-14.65021],[-72.77948,-14.66071],[-72.76157,-14.66292],[-72.74158,-14.64491],[-72.72582,-14.64403],[-72.723,-14.6573],[-72.72471,-14.6759],[-72.71521,-14.68007],[-72.69763,-14.67906],[-72.69064,-14.68866],[-72.67904,-14.67878],[-72.65713,-14.67401],[-72.64482,-14.66728],[-72.62527,-14.67547],[-72.61102,-14.67613],[-72.59987,-14.68898],[-72.60216,-14.70279],[-72.59193,-14.71362],[-72.5851,-14.70786],[-72.58456,-14.6962],[-72.57725,-14.68662],[-72.56078,-14.67838],[-72.52539,-14.66713],[-72.51115,-14.67144],[-72.50566,-14.66468],[-72.48281,-14.66487],[-72.47177,-14.6614],[-72.46026,-14.67622],[-72.47194,-14.70579],[-72.48613,-14.71254],[-72.48846,-14.72346],[-72.48264,-14.73041],[-72.48697,-14.74063],[-72.47957,-14.75486],[-72.46864,-14.76402],[-72.46918,-14.78699],[-72.4509,-14.78411],[-72.43538,-14.78991],[-72.41811,-14.81067],[-72.41863,-14.82024],[-72.40648,-14.82709],[-72.39568,-14.82501],[-72.3625,-14.82878],[-72.35014,-14.82779],[-72.31544,-14.83386]]]}}]}