{"type":"FeatureCollection","features":[{"type":"Feature","properties":{"ubigeo":"0501","nombre":"Huamanga"},"geometry":{"type":"Polygon","coordinates":[[[-73.8348,-13.47018],[-73.86503,-13.46523],[-73.88369,-13.47604],[-73.88796,-13.48398],[-73.90117,-13.4825],[-73.92175,-13.49728],[-73.95215,-13.50095],[-73.97753,-13.49518],[-73.97649,-13.4864],[-73.99275,-13.47721],[-73.98403,-13.46137],[-73.99442,-13.45525],[-73.99251,-13.44133],[-74.01309,-13.44266],[-74.02165,-13.43959],[-74.03586,-13.44416],[-74.04482,-13.4409],[-74.04752,-13.41679],[-74.05987,-13.40956],[-74.07275,-13.42034],[-74.07058,-13.43408],[-74.08047,-13.45058],[-74.07769,-13.46643],[-74.06598,-13.48172],[-74.0679,-13.50665],[-74.0509,-13.5346],[-74.05563,-13.53574],[-74.07251,-13.53832],[-74.07845,-13.53268],[-74.09949,-13.53623],[-74.12591,-13.52879],[-74.13878,-13.5133],[-74.15099,-13.51094],[-74.16013,-13.49701],[-74.16581,-13.46865],[-74.17209,-13.45374],[-74.19362,-13.4338],[-74.19943,-13.41083],[-74.19643,-13.40305],[-74.20619,-13.40423],[-74.21291,-13.41375],[-74.22669,-13.41672],[-74.2375,-13.41379],[-74.24724,-13.42034],[-74.25911,-13.41528],[-74.26213,-13.39635],[-74.27329,-13.39222],[-74.27936,-13.40831],[-74.31657,-13.42635],[-74.33028,-13.42478],[-74.33601,-13.43875],[-74.35354,-13.44053],[-74.36717,-13.43606],[-74.37838,-13.41904],[-74.38273,-13.43188],[-74.3946,-13.44479],[-74.40176,-13.43437],[-74.41745,-13.44647],[-74.43176,-13.44912],[-74.46662,-13.44928],[-74.47575,-13.45314],[-74.48693,-13.4442],[-74.50632,-13.43648],[-74.52709,-13.42355],[-74.53158,-13.4034],[-74.55485,-13.38969],[-74.57168,-13.38712],[-74.57041,-13.3753],[-74.57649,-13.36625],[-74.56684,-13.34178],[-74.60083,-13.33216],[-74.62565,-13.33708],[-74.63283,-13.34478],[-74.66763,-13.32662],[-74.67709,-13.29443],[-74.68606,-13.28637],[-74.6635,-13.27148],[-74.64465,-13.27414],[-74.62219,-13.24398],[-74.60069,-13.22739],[-74.59563,-13.21285],[-74.58698,-13.2113],[-74.58034,-13.19453],[-74.57098,-13.18467],[-74.55953,-13.18513],[-74.54447,-13.19939],[-74.52561,-13.18959],[-74.51706,-13.19669],[-74.49417,-13.1866],[-74.48199,-13.19252],[-74.46795,-13.18772],[-74.45844,-13.19004],[-74.44928,-13.17863],[-74.42043,-13.15954],[-74.41031,-13.16028],[-74.39775,-13.16872],[-74.39834,-13.16036],[-74.38979,-13.15308],[-74.38872,-13.12966],[-74.41087,-13.1197],[-74.41111,-13.07887],[-74.40088,-13.05441],[-74.38998,-13.04294],[-74.37991,-13.02449],[-74.36804,-13.02117],[-74.34588,-13.02584],[-74.33133,-13.04321],[-74.31035,-13.05961],[-74.28872,-13.06595],[-74.27631,-13.07367],[-74.27157,-13.06863],[-74.27623,-13.03653],[-74.27165,-13.03185],[-74.28026,-13.002],[-74.24223,-13.02805],[-74.21379,-13.03442],[-74.18888,-13.05082],[-74.16435,-13.04315],[-74.16088,-13.03754],[-74.13616,-13.02142],[-74.12775,-13.0093],[-74.11869,-13.0066],[-74.10631,-13.00507],[-74.09104,-12.99067],[-74.07702,-12.98639],[-74.06849,-13.00472],[-74.066,-13.03179],[-74.052,-13.04014],[-74.06128,-13.05713],[-74.04991,-13.06613],[-74.04647,-13.08596],[-74.03728,-13.09739],[-74.02682,-13.09241],[-74.0162,-13.1095],[-74.01735,-13.11818],[-73.99341,-13.14814],[-73.99392,-13.16188],[-73.97744,-13.1731],[-73.97031,-13.17341],[-73.9614,-13.18726],[-73.9638,-13.20695],[-73.94594,-13.2291],[-73.94773,-13.24111],[-73.94486,-13.26657],[-73.93054,-13.2834],[-73.91707,-13.27766],[-73.89688,-13.27897],[-73.88679,-13.27538],[-73.87026,-13.26157],[-73.84651,-13.25904],[-73.84854,-13.2748],[-73.86581,-13.28957],[-73.86815,-13.30384],[-73.85811,-13.30935],[-73.82988,-13.30374],[-73.81408,-13.30752],[-73.80705,-13.31483],[-73.82073,-13.3181],[-73.83199,-13.33066],[-73.82799,-13.33651],[-73.83891,-13.38678],[-73.84696,-13.39743],[-73.82739,-13.43374],[-73.82905,-13.44523],[-73.83855,-13.45417],[-73.8348,-13.47018]]]}},{"type":"Feature","properties":{"ubigeo":"0502","nombre":"Cangallo"},"geometry":{"type":"Polygon","coordinates":[[[-74.05563,-13.53574],[-74.05595,-13.55498],[-74.06373,-13.57448],[-74.05632,-13.58529],[-74.05957,-13.5934],[-74.03932,-13.60484],[-74.03584,-13.61517],[-74.03908,-13.63168],[-74.04651,-13.63592],[-74.05435,-13.66892],[-74.05007,-13.68265],[-74.07603,-13.67884],[-74.10002,-13.66962],[-74.09768,-13.66212],[-74.13948,-13.63294],[-74.15442,-13.63976],[-74.16792,-13.636],[-74.18226,-13.63991],[-74.1964,-13.63858],[-74.22264,-13.62839],[-74.24368,-13.62845],[-74.27521,-13.6345],[-74.30133,-13.63272],[-74.3192,-13.62653],[-74.36839,-13.6028],[-74.40122,-13.5927],[-74.41602,-13.59596],[-74.44375,-13.58553],[-74.47029,-13.59326],[-74.51764,-13.60301],[-74.52047,-13.6155],[-74.54382,-13.59929],[-74.57092,-13.58507],[-74.59913,-13.57796],[-74.62717,-13.55675],[-74.63937,-13.55544],[-74.66299,-13.56038],[-74.67682,-13.57464],[-74.70949,-13.58516],[-74.73908,-13.58028],[-74.75121,-13.5887],[-74.76665,-13.58019],[-74.78242,-13.57851],[-74.79957,-13.54747],[-74.81583,-13.53537],[-74.82956,-13.5343],[-74.84041,-13.51984],[-74.84008,-13.51162],[-74.86218,-13.48179],[-74.9021,-13.46644],[-74.89977,-13.45229],[-74.90358,-13.42946],[-74.89266,-13.41446],[-74.89772,-13.39531],[-74.8877,-13.38002],[-74.8788,-13.37487],[-74.86875,-13.3599],[-74.84671,-13.35328],[-74.81211,-13.35754],[-74.76386,-13.34139],[-74.76232,-13.32694],[-74.75226,-13.32824],[-74.73675,-13.34483],[-74.73855,-13.35285],[-74.72831,-13.36219],[-74.69946,-13.36351],[-74.68782,-13.3528],[-74.67817,-13.35066],[-74.66243,-13.35508],[-74.63283,-13.34478],[-74.62565,-13.33708],[-74.60083,-13.33216],[-74.56684,-13.34178],[-74.57649,-13.36625],[-74.57041,-13.3753],[-74.57168,-13.38712],[-74.55485,-13.38969],[-74.53158,-13.4034],[-74.52709,-13.42355],[-74.50632,-13.43648],[-74.48693,-13.4442],[-74.47575,-13.45314],[-74.46662,-13.44928],[-74.43176,-13.44912],[-74.41745,-13.44647],[-74.40176,-13.43437],[-74.3946,-13.44479],[-74.38273,-13.43188],[-74.37838,-13.41904],[-74.36717,-13.43606],[-74.35354,-13.44053],[-74.33601,-13.43875],[-74.33028,-13.42478],[-74.31657,-13.42635],[-74.27936,-13.40831],[-74.27329,-13.39222],[-74.26213,-13.39635],[-74.25911,-13.41528],[-74.24724,-13.42034],[-74.2375,-13.41379],[-74.22669,-13.41672],[-74.21291,-13.41375],[-74.20619,-13.40423],[-74.19643,-13.40305],[-74.19943,-13.41083],[-74.19362,-13.4338],[-74.17209,-13.45374],[-74.16581,-13.46865],[-74.16013,-13.49701],[-74.15099,-13.51094],[-74.13878,-13.5133],[-74.12591,-13.52879],[-74.09949,-13.53623],[-74.07845,-13.53268],[-74.07251,-13.53832],[-74.05563,-13.53574]]]}},{"type":"Feature","properties":{"ubigeo":"0503","nombre":"Huanca Sancos"},"geometry":{"type":"Polygon","coordinates":[[[-74.77253,-14.09032],[-74.75871,-14.0786],[-74.76569,-14.07183],[-74.7686,-14.04458],[-74.77399,-14.04466],[-74.78388,-14.01695],[-74.77908,-13.99628],[-74.78502,-13.99158],[-74.7791,-13.98237],[-74.76795,-13.97855],[-74.77501,-13.96225],[-74.77643,-13.94853],[-74.78592,-13.92879],[-74.77701,-13.8975],[-74.78521,-13.89195],[-74.78285,-13.87915],[-74.76739,-13.86659],[-74.76228,-13.8514],[-74.76036,-13.83149],[-74.77508,-13.8038],[-74.77892,-13.78461],[-74.76233,-13.78055],[-74.76653,-13.77223],[-74.75648,-13.76323],[-74.7406,-13.75965],[-74.70728,-13.74526],[-74.68455,-13.74314],[-74.67338,-13.74746],[-74.63546,-13.74024],[-74.63353,-13.73214],[-74.61668,-13.71026],[-74.62023,-13.69643],[-74.58923,-13.69852],[-74.57192,-13.71551],[-74.54737,-13.71823],[-74.53556,-13.70935],[-74.52608,-13.71534],[-74.52406,-13.73225],[-74.51711,-13.73731],[-74.49713,-13.7412],[-74.4912,-13.7588],[-74.47846,-13.76109],[-74.46604,-13.77276],[-74.45385,-13.77598],[-74.44081,-13.78972],[-74.42587,-13.79756],[-74.41764,-13.78818],[-74.39244,-13.7804],[-74.36249,-13.7594],[-74.37152,-13.74454],[-74.36452,-13.73652],[-74.3503,-13.74503],[-74.34042,-13.75831],[-74.32268,-13.76284],[-74.32491,-13.75134],[-74.31588,-13.73429],[-74.30668,-13.75213],[-74.29805,-13.75602],[-74.26306,-13.76132],[-74.25406,-13.75899],[-74.24091,-13.78345],[-74.23148,-13.78783],[-74.22737,-13.80616],[-74.21641,-13.80451],[-74.20456,-13.81299],[-74.18902,-13.81386],[-74.17436,-13.83097],[-74.15976,-13.84137],[-74.15836,-13.86798],[-74.14564,-13.87652],[-74.14246,-13.88546],[-74.11214,-13.89845],[-74.10662,-13.91446],[-74.10934,-13.92639],[-74.10098,-13.95254],[-74.11894,-13.98933],[-74.10242,-13.99133],[-74.09929,-14.00874],[-74.10704,-14.02268],[-74.11604,-14.02887],[-74.17443,-14.10471],[-74.1891,-14.10343],[-74.20798,-14.1269],[-74.26138,-14.13488],[-74.27051,-14.1313],[-74.2914,-14.13249],[-74.30532,-14.12612],[-74.32945,-14.12863],[-74.33614,-14.14811],[-74.3548,-14.15127],[-74.36766,-14.15864],[-74.39232,-14.16705],[-74.40279,-14.16017],[-74.43128,-14.1493],[-74.47215,-14.15285],[-74.4961,-14.14631],[-74.52757,-14.14608],[-74.54129,-14.16406],[-74.57064,-14.14966],[-74.57265,-14.13532],[-74.58696,-14.14017],[-74.59488,-14.13306],[-74.6232,-14.13714],[-74.63567,-14.11832],[-74.63429,-14.1089],[-74.62589,-14.10602],[-74.62085,-14.09257],[-74.62708,-14.08934],[-74.64055,-14.09445],[-74.67379,-14.07896],[-74.6767,-14.06854],[-74.69835,-14.07862],[-74.69799,-14.09409],[-74.70728,-14.10012],[-74.71716,-14.09692],[-74.7189,-14.11152],[-74.72572,-14.11704],[-74.75027,-14.12335],[-74.76087,-14.12044],[-74.77253,-14.09032]]]}},{"type":"Feature","properties":{"ubigeo":"0504","nombre":"Huanta"},"geometry":{"type":"Polygon","coordinates":[[[-73.97226,-12.29465],[-73.974,-12.30576],[-73.96607,-12.33802],[-73.97007,-12.34781],[-73.94574,-12.35244],[-73.94091,-12.36557],[-73.92682,-12.37967],[-73.90529,-12.3933],[-73.89993,-12.40296],[-73.88679,-12.4054],[-73.86859,-12.46396],[-73.85471,-12.48752],[-73.85222,-12.49999],[-73.85536,-12.5299],[-73.84581,-12.53913],[-73.83093,-12.53078],[-73.83361,-12.55464],[-73.83266,-12.5751],[-73.84427,-12.58811],[-73.84809,-12.60508],[-73.85945,-12.62221],[-73.8538,-12.64547],[-73.86637,-12.65329],[-73.86724,-12.66966],[-73.88811,-12.71105],[-73.91366,-12.72164],[-73.93478,-12.72178],[-73.96934,-12.73553],[-73.97833,-12.74811],[-73.98809,-12.74987],[-73.99652,-12.77416],[-73.98768,-12.79663],[-73.99874,-12.82868],[-73.99623,-12.83916],[-74.00386,-12.84379],[-74.01483,-12.83941],[-74.04104,-12.85718],[-74.04523,-12.86576],[-74.07063,-12.87519],[-74.0815,-12.86064],[-74.09712,-12.86658],[-74.10808,-12.85203],[-74.12699,-12.85436],[-74.14837,-12.87178],[-74.14307,-12.88725],[-74.13528,-12.88946],[-74.12887,-12.90647],[-74.13176,-12.91157],[-74.11746,-12.92614],[-74.11675,-12.9387],[-74.10649,-12.95036],[-74.11212,-12.95897],[-74.10571,-12.97079],[-74.10481,-12.98468],[-74.11671,-12.99113],[-74.11869,-13.0066],[-74.12775,-13.0093],[-74.13616,-13.02142],[-74.16088,-13.03754],[-74.16435,-13.04315],[-74.18888,-13.05082],[-74.21379,-13.03442],[-74.24223,-13.02805],[-74.28026,-13.002],[-74.29207,-12.98722],[-74.29921,-12.95861],[-74.29655,-12.93501],[-74.30358,-12.92973],[-74.32767,-12.92839],[-74.33006,-12.91542],[-74.32027,-12.89638],[-74.31945,-12.88728],[-74.33325,-12.85175],[-74.32963,-12.83615],[-74.32362,-12.83251],[-74.31333,-12.83494],[-74.30571,-12.82745],[-74.297,-12.83142],[-74.2924,-12.82476],[-74.2984,-12.80655],[-74.29499,-12.79888],[-74.28554,-12.79972],[-74.28611,-12.77462],[-74.29328,-12.76645],[-74.2892,-12.75801],[-74.30809,-12.73965],[-74.31778,-12.73809],[-74.32523,-12.74485],[-74.34036,-12.73283],[-74.34908,-12.71822],[-74.33974,-12.68914],[-74.32753,-12.68127],[-74.33178,-12.64502],[-74.34082,-12.63446],[-74.33844,-12.61714],[-74.32835,-12.61526],[-74.32975,-12.60542],[-74.36329,-12.59427],[-74.36719,-12.5751],[-74.38353,-12.57083],[-74.38427,-12.54485],[-74.39962,-12.52548],[-74.39841,-12.50455],[-74.41512,-12.49066],[-74.40158,-12.46748],[-74.40925,-12.45192],[-74.42245,-12.44521],[-74.44629,-12.448],[-74.47509,-12.44377],[-74.50354,-12.44981],[-74.52205,-12.43613],[-74.51695,-12.42895],[-74.52195,-12.40867],[-74.53447,-12.41039],[-74.53912,-12.39315],[-74.54818,-12.38402],[-74.54843,-12.37514],[-74.56462,-12.36091],[-74.57599,-12.37317],[-74.57564,-12.34598],[-74.58118,-12.33267],[-74.57223,-12.30978],[-74.55212,-12.28734],[-74.50629,-12.31218],[-74.49568,-12.28626],[-74.47637,-12.27277],[-74.45614,-12.27008],[-74.44153,-12.27213],[-74.43658,-12.2853],[-74.424,-12.28951],[-74.4164,-12.30477],[-74.40798,-12.29207],[-74.3861,-12.27362],[-74.39368,-12.25247],[-74.37627,-12.23013],[-74.37715,-12.21459],[-74.38886,-12.19267],[-74.3821,-12.17861],[-74.36375,-12.17568],[-74.3493,-12.16788],[-74.34595,-12.17374],[-74.35149,-12.1764],[-74.34424,-12.19533],[-74.33419,-12.19446],[-74.33067,-12.21208],[-74.33652,-12.21493],[-74.32187,-12.22978],[-74.31267,-12.22451],[-74.29726,-12.22604],[-74.28407,-12.24064],[-74.27052,-12.23914],[-74.25815,-12.2559],[-74.24903,-12.2575],[-74.24711,-12.26821],[-74.23305,-12.26746],[-74.21804,-12.27808],[-74.21545,-12.30339],[-74.20695,-12.29828],[-74.18674,-12.30435],[-74.18762,-12.31438],[-74.17968,-12.31742],[-74.16525,-12.31317],[-74.15932,-12.32114],[-74.14733,-12.32438],[-74.13116,-12.31461],[-74.12918,-12.33208],[-74.12144,-12.3336],[-74.10137,-12.30401],[-74.09836,-12.28491],[-74.07674,-12.2819],[-74.05744,-12.27505],[-74.04022,-12.26147],[-74.01896,-12.27841],[-74.00198,-12.28403],[-73.98638,-12.26832],[-73.98322,-12.24712],[-73.97108,-12.27341],[-73.97172,-12.28962],[-73.97226,-12.29465]]]}},{"type":"Feature","properties":{"ubigeo":"0505","nombre":"La Mar"},"geometry":{"type":"Polygon","coordinates":[[[-73.44539,-13.43036],[-73.46148,-13.43404],[-73.46943,-13.42922],[-73.48091,-13.43137],[-73.49851,-13.3929],[-73.5111,-13.38297],[-73.52069,-13.3877],[-73.5303,-13.37348],[-73.54429,-13.36387],[-73.57017,-13.36332],[-73.57176,-13.34183],[-73.5867,-13.33934],[-73.59493,-13.33048],[-73.60854,-13.33078],[-73.61129,-13.3233],[-73.6247,-13.32141],[-73.64195,-13.29948],[-73.66003,-13.29039],[-73.6645,-13.28155],[-73.67353,-13.28484],[-73.69495,-13.27407],[-73.70019,-13.2651],[-73.70658,-13.26932],[-73.72803,-13.26781],[-73.73634,-13.25491],[-73.73086,-13.24265],[-73.74002,-13.21178],[-73.72826,-13.19803],[-73.73036,-13.18366],[-73.73755,-13.17719],[-73.75644,-13.17071],[-73.77299,-13.17623],[-73.77393,-13.18515],[-73.79936,-13.20395],[-73.79997,-13.21454],[-73.80737,-13.21387],[-73.81281,-13.24224],[-73.82321,-13.24733],[-73.82584,-13.27085],[-73.82282,-13.28505],[-73.80796,-13.3038],[-73.80705,-13.31483],[-73.81408,-13.30752],[-73.82988,-13.30374],[-73.85811,-13.30935],[-73.86815,-13.30384],[-73.86581,-13.28957],[-73.84854,-13.2748],[-73.84651,-13.25904],[-73.87026,-13.26157],[-73.88679,-13.27538],[-73.89688,-13.27897],[-73.91707,-13.27766],[-73.93054,-13.2834],[-73.94486,-13.26657],[-73.94773,-13.24111],[-73.94594,-13.2291],[-73.9638,-13.20695],[-73.9614,-13.18726],[-73.97031,-13.17341],[-73.97744,-13.1731],[-73.99392,-13.16188],[-73.99341,-13.14814],[-74.01735,-13.11818],[-74.0162,-13.1095],[-74.02682,-13.09241],[-74.03728,-13.09739],[-74.04647,-13.08596],[-74.04991,-13.06613],[-74.06128,-13.05713],[-74.052,-13.04014],[-74.066,-13.03179],[-74.06849,-13.00472],[-74.07702,-12.98639],[-74.09104,-12.99067],[-74.10631,-13.00507],[-74.11869,-13.0066],[-74.11671,-12.99113],[-74.10481,-12.98468],[-74.10571,-12.97079],[-74.11212,-12.95897],[-74.10649,-12.95036],[-74.11675,-12.9387],[-74.11746,-12.92614],[-74.13176,-12.91157],[-74.12887,-12.90647],[-74.13528,-12.88946],[-74.14307,-12.88725],[-74.14837,-12.87178],[-74.12699,-12.85436],[-74.10808,-12.85203],[-74.09712,-12.86658],[-74.0815,-12.86064],[-74.07063,-12.87519],[-74.04523,-12.86576],[-74.04104,-12.85718],[-74.01483,-12.83941],[-74.00386,-12.84379],[-73.99623,-12.83916],[-73.99874,-12.82868],[-73.98768,-12.79663],[-73.99652,-12.77416],[-73.98809,-12.74987],[-73.97833,-12.74811],[-73.96934,-12.73553],[-73.93478,-12.72178],[-73.91366,-12.72164],[-73.88811,-12.71105],[-73.86724,-12.66966],[-73.86637,-12.65329],[-73.8538,-12.64547],[-73.85945,-12.62221],[-73.84809,-12.60508],[-73.84427,-12.58811],[-73.83266,-12.5751],[-73.83361,-12.55464],[-73.83093,-12.53078],[-73.81285,-12.55702],[-73.80453,-12.57761],[-73.80117,-12.61302],[-73.78582,-12.62344],[-73.76456,-12.64784],[-73.74342,-12.65153],[-73.73597,-12.63915],[-73.72555,-12.63665],[-73.71749,-12.65854],[-73.69833,-12.67213],[-73.69675,-12.68443],[-73.68246,-12.68781],[-73.67987,-12.69551],[-73.65584,-12.72504],[-73.66057,-12.73263],[-73.64478,-12.74485],[-73.62567,-12.76499],[-73.62618,-12.78868],[-73.61545,-12.80802],[-73.60384,-12.81087],[-73.59002,-12.82417],[-73.59081,-12.84429],[-73.57914,-12.86065],[-73.56065,-12.86887],[-73.52368,-12.89948],[-73.52243,-12.90754],[-73.5335,-12.92442],[-73.52227,-12.93894],[-73.50105,-12.93048],[-73.49593,-12.93346],[-73.5009,-12.94657],[-73.51068,-12.95543],[-73.50804,-12.9719],[-73.53003,-12.98527],[-73.52166,-12.99069],[-73.51701,-13.00712],[-73.49968,-13.01019],[-73.48866,-12.99941],[-73.47735,-13.00056],[-73.48088,-13.03885],[-73.49076,-13.04371],[-73.48913,-13.06779],[-73.48087,-13.05643],[-73.46539,-13.06731],[-73.46193,-13.07998],[-73.44884,-13.08028],[-73.45585,-13.0913],[-73.44447,-13.10211],[-73.45372,-13.12269],[-73.43914,-13.12827],[-73.43185,-13.1394],[-73.42191,-13.13239],[-73.41582,-13.15288],[-73.40752,-13.16291],[-73.40945,-13.17368],[-73.40269,-13.18069],[-73.40578,-13.19148],[-73.41441,-13.19455],[-73.40983,-13.21133],[-73.39861,-13.21084],[-73.38232,-13.22487],[-73.38108,-13.24027],[-73.3712,-13.24548],[-73.36435,-13.26943],[-73.35314,-13.2699],[-73.34621,-13.27844],[-73.34985,-13.29285],[-73.34075,-13.31191],[-73.32966,-13.30862],[-73.31959,-13.3226],[-73.3114,-13.32589],[-73.31242,-13.33659],[-73.30454,-13.34883],[-73.28958,-13.35499],[-73.28735,-13.37194],[-73.27791,-13.37242],[-73.25985,-13.38454],[-73.25813,-13.39513],[-73.23611,-13.41114],[-73.22768,-13.41078],[-73.21188,-13.41906],[-73.20977,-13.43254],[-73.22318,-13.44978],[-73.22015,-13.46308],[-73.2339,-13.47659],[-73.24502,-13.46558],[-73.26102,-13.46773],[-73.28216,-13.4549],[-73.29093,-13.45619],[-73.3132,-13.44718],[-73.31708,-13.45383],[-73.33179,-13.45638],[-73.33298,-13.4444],[-73.34716,-13.43483],[-73.36599,-13.43676],[-73.36964,-13.44225],[-73.38664,-13.43986],[-73.40332,-13.44475],[-73.40958,-13.43673],[-73.42892,-13.43787],[-73.43608,-13.42996],[-73.44539,-13.43036]]]}},{"type":"Feature","properties":{"ubigeo":"0506","nombre":"Lucanas"},"geometry":{"type":"Polygon","coordinates":[[[-73.58175,-14.41613],[-73.57389,-14.43197],[-73.57473,-14.44329],[-73.56899,-14.45933],[-73.5514,-14.465],[-73.55456,-14.4807],[-73.53506,-14.49154],[-73.53246,-14.50724],[-73.56379,-14.52068],[-73.58722,-14.54895],[-73.60499,-14.54165],[-73.63469,-14.5909],[-73.66293,-14.60983],[-73.67168,-14.61971],[-73.71641,-14.64124],[-73.75497,-14.63605],[-73.75613,-14.64812],[-73.76335,-14.65079],[-73.78056,-14.63842],[-73.79344,-14.64587],[-73.81031,-14.63849],[-73.82243,-14.64624],[-73.82704,-14.65889],[-73.82108,-14.67784],[-73.8294,-14.6865],[-73.83612,-14.70469],[-73.83565,-14.71722],[-73.82572,-14.72592],[-73.86066,-14.76742],[-73.87057,-14.76715],[-73.87338,-14.77887],[-73.87131,-14.80138],[-73.89366,-14.81104],[-73.9003,-14.84349],[-73.89756,-14.85708],[-73.8785,-14.87727],[-73.87748,-14.89464],[-73.85965,-14.90147],[-73.85291,-14.91676],[-73.84246,-14.92114],[-73.84179,-14.93792],[-73.83558,-14.95889],[-73.81343,-14.97721],[-73.81797,-14.99285],[-73.80847,-15.01974],[-73.80896,-15.03754],[-73.80145,-15.04406],[-73.79548,-15.07228],[-73.80173,-15.08568],[-73.81555,-15.08793],[-73.83055,-15.10481],[-73.83231,-15.12045],[-73.84129,-15.13334],[-73.86832,-15.13477],[-73.8859,-15.12772],[-73.92452,-15.13131],[-73.95111,-15.14395],[-73.96824,-15.14605],[-74.0146,-15.17531],[-74.03149,-15.1952],[-74.04138,-15.20006],[-74.06499,-15.22594],[-74.09061,-15.23524],[-74.11212,-15.23945],[-74.15644,-15.23003],[-74.17998,-15.22334],[-74.19586,-15.23676],[-74.21409,-15.23347],[-74.22417,-15.23605],[-74.21631,-15.2661],[-74.20505,-15.28539],[-74.20804,-15.29207],[-74.19147,-15.31587],[-74.20115,-15.32105],[-74.2129,-15.3526],[-74.22525,-15.36811],[-74.23949,-15.37883],[-74.25638,-15.4021],[-74.25312,-15.41871],[-74.2443,-15.43853],[-74.24118,-15.48104],[-74.25545,-15.48074],[-74.26594,-15.47471],[-74.27872,-15.47873],[-74.30012,-15.47839],[-74.31118,-15.46273],[-74.30226,-15.45147],[-74.31676,-15.44219],[-74.32558,-15.41956],[-74.32843,-15.39099],[-74.30972,-15.35894],[-74.33365,-15.35326],[-74.34582,-15.33635],[-74.35526,-15.3398],[-74.35992,-15.3327],[-74.37785,-15.33188],[-74.38897,-15.31725],[-74.40946,-15.30849],[-74.41485,-15.29542],[-74.39821,-15.27805],[-74.3997,-15.26586],[-74.38788,-15.25178],[-74.39938,-15.2174],[-74.3899,-15.20714],[-74.39872,-15.18146],[-74.41833,-15.16903],[-74.43769,-15.16781],[-74.45142,-15.17597],[-74.46576,-15.17348],[-74.48819,-15.1637],[-74.50336,-15.16168],[-74.51267,-15.14879],[-74.53397,-15.14644],[-74.55252,-15.13994],[-74.57246,-15.14094],[-74.58509,-15.14911],[-74.60597,-15.1485],[-74.62825,-15.1245],[-74.65204,-15.13913],[-74.67996,-15.13256],[-74.68945,-15.13907],[-74.7186,-15.13566],[-74.72144,-15.12465],[-74.73853,-15.12339],[-74.75258,-15.1134],[-74.76229,-15.09806],[-74.75748,-15.09258],[-74.72961,-15.0854],[-74.70453,-15.07104],[-74.69756,-15.06278],[-74.67097,-15.05497],[-74.66427,-15.0447],[-74.66719,-15.02803],[-74.66449,-15.00273],[-74.64773,-14.98198],[-74.66417,-14.96352],[-74.66554,-14.9557],[-74.68548,-14.92947],[-74.66345,-14.90793],[-74.66392,-14.89234],[-74.68107,-14.87308],[-74.67582,-14.86207],[-74.68982,-14.84818],[-74.69384,-14.83816],[-74.72019,-14.83663],[-74.73009,-14.84284],[-74.7506,-14.84225],[-74.7515,-14.82755],[-74.71598,-14.81941],[-74.72029,-14.81246],[-74.74646,-14.81362],[-74.75694,-14.79505],[-74.76462,-14.7902],[-74.7561,-14.7836],[-74.75601,-14.77113],[-74.73853,-14.75373],[-74.73548,-14.73199],[-74.71587,-14.70952],[-74.73185,-14.71439],[-74.74358,-14.72601],[-74.77642,-14.72893],[-74.8027,-14.75215],[-74.8274,-14.73403],[-74.83001,-14.72005],[-74.84574,-14.70798],[-74.83792,-14.69634],[-74.84593,-14.68938],[-74.84658,-14.66615],[-74.82863,-14.65622],[-74.81045,-14.63161],[-74.78817,-14.61556],[-74.85277,-14.61181],[-74.87845,-14.58752],[-74.88396,-14.57622],[-74.87534,-14.55527],[-74.88425,-14.54548],[-74.90368,-14.54781],[-74.91339,-14.56562],[-74.94721,-14.58189],[-74.95892,-14.60645],[-74.97802,-14.60237],[-74.99679,-14.61181],[-75.01003,-14.60616],[-75.03416,-14.61129],[-75.05199,-14.62672],[-75.0599,-14.62262],[-75.06586,-14.57448],[-75.08009,-14.56901],[-75.08067,-14.55118],[-75.06764,-14.53844],[-75.0691,-14.52693],[-75.08586,-14.53108],[-75.09153,-14.52118],[-75.09074,-14.49544],[-75.09814,-14.4851],[-75.06846,-14.45836],[-75.07019,-14.44916],[-75.05299,-14.43115],[-75.06293,-14.42686],[-75.08897,-14.42641],[-75.10712,-14.43355],[-75.1214,-14.42752],[-75.11914,-14.42113],[-75.13983,-14.41591],[-75.13208,-14.39972],[-75.10509,-14.35878],[-75.1081,-14.34794],[-75.09393,-14.31242],[-75.08138,-14.29714],[-75.06336,-14.29543],[-75.03998,-14.27788],[-75.0322,-14.26568],[-75.03951,-14.25417],[-75.05512,-14.25521],[-75.0721,-14.24593],[-75.07367,-14.23561],[-75.08724,-14.23182],[-75.09079,-14.21518],[-75.08577,-14.20961],[-75.07837,-14.18638],[-75.07638,-14.16591],[-75.05905,-14.12962],[-75.05461,-14.11523],[-75.03786,-14.0993],[-75.02913,-14.07195],[-75.0145,-14.06915],[-74.98901,-14.07498],[-74.97414,-14.07479],[-74.9451,-14.09356],[-74.9335,-14.09188],[-74.92647,-14.0987],[-74.90789,-14.09215],[-74.89536,-14.10318],[-74.87811,-14.07625],[-74.86079,-14.06719],[-74.85274,-14.07621],[-74.84138,-14.0734],[-74.82519,-14.09228],[-74.81007,-14.08699],[-74.77253,-14.09032],[-74.76087,-14.12044],[-74.75027,-14.12335],[-74.72572,-14.11704],[-74.7189,-14.11152],[-74.71716,-14.09692],[-74.70728,-14.10012],[-74.69799,-14.09409],[-74.69835,-14.07862],[-74.6767,-14.06854],[-74.67379,-14.07896],[-74.64055,-14.09445],[-74.62708,-14.08934],[-74.62085,-14.09257],[-74.62589,-14.10602],[-74.63429,-14.1089],[-74.63567,-14.11832],[-74.6232,-14.13714],[-74.59488,-14.13306],[-74.58696,-14.14017],[-74.57265,-14.13532],[-74.57064,-14.14966],[-74.54129,-14.16406],[-74.52757,-14.14608],[-74.4961,-14.14631],[-74.47215,-14.15285],[-74.43128,-14.1493],[-74.40279,-14.16017],[-74.39232,-14.16705],[-74.36766,-14.15864],[-74.3548,-14.15127],[-74.33614,-14.14811],[-74.32945,-14.12863],[-74.30532,-14.12612],[-74.2914,-14.13249],[-74.27051,-14.1313],[-74.26138,-14.13488],[-74.20798,-14.1269],[-74.1891,-14.10343],[-74.17443,-14.10471],[-74.11604,-14.02887],[-74.10001,-14.02839],[-74.0907,-14.0192],[-74.06792,-14.02807],[-74.06317,-14.03977],[-74.07185,-14.0465],[-74.07393,-14.0755],[-74.08546,-14.08881],[-74.08123,-14.11268],[-74.07057,-14.11662],[-74.03917,-14.0985],[-74.02963,-14.11238],[-74.02552,-14.12798],[-74.01404,-14.13452],[-73.99916,-14.15919],[-73.98304,-14.16998],[-73.95003,-14.18573],[-73.9425,-14.19884],[-73.90714,-14.19174],[-73.87925,-14.2167],[-73.89566,-14.23463],[-73.8928,-14.24831],[-73.89658,-14.26283],[-73.89004,-14.26761],[-73.87861,-14.28871],[-73.87193,-14.28826],[-73.86108,-14.27667],[-73.85018,-14.28125],[-73.84466,-14.27656],[-73.82132,-14.28621],[-73.81499,-14.29362],[-73.79883,-14.29394],[-73.79006,-14.31638],[-73.77344,-14.32225],[-73.76249,-14.3317],[-73.73826,-14.33816],[-73.7067,-14.32416],[-73.69042,-14.32635],[-73.67688,-14.34632],[-73.66721,-14.34869],[-73.6541,-14.36162],[-73.65525,-14.37304],[-73.6245,-14.37532],[-73.61502,-14.37029],[-73.61321,-14.37916],[-73.60371,-14.3838],[-73.60979,-14.39791],[-73.59577,-14.40646],[-73.58609,-14.40707],[-73.58175,-14.41613]]]}},{"type":"Feature","properties":{"ubigeo":"0507","nombre":"Parinacochas"},"geometry":{"type":"Polygon","coordinates":[[[-73.0174,-14.63071],[-73.00941,-14.63739],[-73.0067,-14.65086],[-72.99849,-14.66247],[-72.98505,-14.66031],[-72.97378,-14.65257],[-72.95531,-14.68268],[-72.93373,-14.69546],[-72.91879,-14.68516],[-72.91179,-14.69676],[-72.89059,-14.70067],[-72.8854,-14.70597],[-72.86564,-14.71068],[-72.86431,-14.72668],[-72.857,-14.72813],[-72.85193,-14.75221],[-72.84682,-14.75982],[-72.85892,-14.76382],[-72.87161,-14.76142],[-72.88234,-14.77143],[-72.91062,-14.76949],[-72.92058,-14.75793],[-72.94273,-14.76541],[-72.9548,-14.77746],[-72.96307,-14.79317],[-72.97932,-14.80613],[-72.99323,-14.80412],[-73.00278,-14.81499],[-73.00478,-14.84166],[-73.01421,-14.85571],[-73.03333,-14.84993],[-73.05076,-14.82991],[-73.06119,-14.82553],[-73.08509,-14.83036],[-73.09461,-14.84332],[-73.11872,-14.84258],[-73.12908,-14.85559],[-73.11671,-14.87252],[-73.13372,-14.88555],[-73.13737,-14.89668],[-73.14617,-14.89664],[-73.16442,-14.91224],[-73.19149,-14.91018],[-73.19407,-14.92156],[-73.20085,-14.92278],[-73.21063,-14.91063],[-73.24102,-14.90517],[-73.2542,-14.89953],[-73.26561,-14.91192],[-73.25618,-14.92953],[-73.27259,-14.95079],[-73.26264,-14.9657],[-73.26387,-14.97605],[-73.27082,-14.97486],[-73.28327,-14.98339],[-73.29976,-14.98197],[-73.34245,-15.00355],[-73.33164,-15.02962],[-73.34427,-15.03728],[-73.35762,-15.03615],[-73.38098,-15.04331],[-73.42038,-15.06488],[-73.44807,-15.06139],[-73.45372,-15.05625],[-73.45806,-15.0394],[-73.46654,-15.03911],[-73.4856,-15.06058],[-73.50554,-15.05596],[-73.52032,-15.06108],[-73.53217,-15.05372],[-73.54601,-15.05709],[-73.53607,-15.08123],[-73.5383,-15.09103],[-73.54655,-15.09444],[-73.55311,-15.12327],[-73.54438,-15.12791],[-73.55278,-15.14439],[-73.55407,-15.15766],[-73.54711,-15.16506],[-73.54838,-15.17643],[-73.53875,-15.18646],[-73.53824,-15.20592],[-73.52871,-15.22293],[-73.52083,-15.22356],[-73.52144,-15.23791],[-73.50559,-15.26215],[-73.50212,-15.27287],[-73.48221,-15.2838],[-73.44854,-15.3189],[-73.4411,-15.34136],[-73.4411,-15.35572],[-73.47811,-15.37962],[-73.50345,-15.38303],[-73.52957,-15.39205],[-73.5574,-15.40861],[-73.59291,-15.40362],[-73.61286,-15.41923],[-73.62351,-15.42111],[-73.65161,-15.41628],[-73.68436,-15.43748],[-73.69456,-15.43478],[-73.70652,-15.42072],[-73.73062,-15.40734],[-73.75887,-15.38527],[-73.76964,-15.35704],[-73.77932,-15.3464],[-73.77645,-15.34032],[-73.79199,-15.34004],[-73.80799,-15.32427],[-73.83258,-15.32712],[-73.86611,-15.32466],[-73.86921,-15.33171],[-73.88362,-15.3383],[-73.87486,-15.35507],[-73.87128,-15.38232],[-73.87708,-15.38916],[-73.86971,-15.40025],[-73.87349,-15.4114],[-73.86827,-15.42613],[-73.87656,-15.43915],[-73.88864,-15.4391],[-73.8939,-15.44935],[-73.91251,-15.45625],[-73.94596,-15.4904],[-73.96107,-15.52392],[-73.97989,-15.53952],[-73.98823,-15.54087],[-73.99646,-15.55339],[-74.01028,-15.5594],[-74.00943,-15.56804],[-74.01939,-15.59917],[-74.05095,-15.62228],[-74.06865,-15.62989],[-74.08474,-15.61891],[-74.08164,-15.61437],[-74.08493,-15.59154],[-74.07413,-15.56009],[-74.07576,-15.55046],[-74.06728,-15.53929],[-74.07919,-15.51572],[-74.07525,-15.50345],[-74.04513,-15.49282],[-74.03876,-15.48297],[-74.04269,-15.46793],[-74.03729,-15.45608],[-74.04553,-15.44338],[-74.05373,-15.41773],[-74.06543,-15.40219],[-74.07095,-15.40401],[-74.08553,-15.39133],[-74.09452,-15.392],[-74.11308,-15.40498],[-74.11554,-15.41185],[-74.13395,-15.41661],[-74.13998,-15.42664],[-74.15126,-15.42875],[-74.15383,-15.45554],[-74.16098,-15.47765],[-74.16647,-15.48396],[-74.18502,-15.48573],[-74.19374,-15.49166],[-74.21397,-15.48573],[-74.23296,-15.48617],[-74.24118,-15.48104],[-74.2443,-15.43853],[-74.25312,-15.41871],[-74.25638,-15.4021],[-74.23949,-15.37883],[-74.22525,-15.36811],[-74.2129,-15.3526],[-74.20115,-15.32105],[-74.19147,-15.31587],[-74.20804,-15.29207],[-74.20505,-15.28539],[-74.21631,-15.2661],[-74.22417,-15.23605],[-74.21409,-15.23347],[-74.19586,-15.23676],[-74.17998,-15.22334],[-74.15644,-15.23003],[-74.11212,-15.23945],[-74.09061,-15.23524],[-74.06499,-15.22594],[-74.04138,-15.20006],[-74.03149,-15.1952],[-74.0146,-15.17531],[-73.96824,-15.14605],[-73.95111,-15.14395],[-73.92452,-15.13131],[-73.8859,-15.12772],[-73.86832,-15.13477],[-73.84129,-15.13334],[-73.83231,-15.12045],[-73.83055,-15.10481],[-73.81555,-15.08793],[-73.80173,-15.08568],[-73.79548,-15.07228],[-73.80145,-15.04406],[-73.80896,-15.03754],[-73.80847,-15.01974],[-73.81797,-14.99285],[-73.81343,-14.97721],[-73.83558,-14.95889],[-73.84179,-14.93792],[-73.84246,-14.92114],[-73.85291,-14.91676],[-73.85965,-14.90147],[-73.87748,-14.89464],[-73.8785,-14.87727],[-73.89756,-14.85708],[-73.9003,-14.84349],[-73.89366,-14.81104],[-73.87131,-14.80138],[-73.87338,-14.77887],[-73.87057,-14.76715],[-73.86066,-14.76742],[-73.82572,-14.72592],[-73.83565,-14.71722],[-73.83612,-14.70469],[-73.8294,-14.6865],[-73.82108,-14.67784],[-73.82704,-14.65889],[-73.82243,-14.64624],[-73.81031,-14.63849],[-73.79344,-14.64587],[-73.78056,-14.63842],[-73.76335,-14.65079],[-73.75613,-14.64812],[-73.75497,-14.63605],[-73.71641,-14.64124],[-73.67168,-14.61971],[-73.66293,-14.60983],[-73.63469,-14.5909],[-73.60499,-14.54165],[-73.58722,-14.54895],[-73.56379,-14.52068],[-73.53246,-14.50724],[-73.52386,-14.51159],[-73.52075,-14.53355],[-73.50701,-14.54431],[-73.51165,-14.56366],[-73.53338,-14.58102],[-73.533,-14.58892],[-73.51336,-14.6331],[-73.51006,-14.6501],[-73.51967,-14.6699],[-73.56212,-14.68012],[-73.5711,-14.68727],[-73.57673,-14.71169],[-73.56506,-14.73371],[-73.56238,-14.75424],[-73.56528,-14.77583],[-73.55352,-14.78936],[-73.54957,-14.80143],[-73.53422,-14.79884],[-73.51589,-14.81698],[-73.51294,-14.82643],[-73.49936,-14.82875],[-73.48503,-14.84257],[-73.46562,-14.84026],[-73.45473,-14.82101],[-73.45412,-14.80582],[-73.43713,-14.78425],[-73.40455,-14.7655],[-73.39848,-14.73608],[-73.3904,-14.71606],[-73.37087,-14.69662],[-73.36437,-14.68165],[-73.35827,-14.68339],[-73.35081,-14.70403],[-73.32833,-14.71736],[-73.31416,-14.71586],[-73.2968,-14.72375],[-73.28973,-14.73273],[-73.27995,-14.73163],[-73.26362,-14.70979],[-73.24508,-14.71238],[-73.22765,-14.70972],[-73.21827,-14.70161],[-73.21107,-14.70584],[-73.19041,-14.70577],[-73.17807,-14.68545],[-73.16162,-14.68167],[-73.15324,-14.67435],[-73.1253,-14.68116],[-73.12115,-14.69158],[-73.10649,-14.69065],[-73.11005,-14.66992],[-73.10444,-14.66787],[-73.09652,-14.65044],[-73.07843,-14.65606],[-73.0649,-14.66557],[-73.04625,-14.65869],[-73.0402,-14.6515],[-73.04329,-14.62373],[-73.0174,-14.63071]],[[-73.72271,-15.25936],[-73.73906,-15.26574],[-73.74882,-15.26109],[-73.74144,-15.27969],[-73.74646,-15.28493],[-73.73904,-15.30791],[-73.72323,-15.32103],[-73.71074,-15.32538],[-73.69524,-15.32401],[-73.6849,-15.33422],[-73.65957,-15.31874],[-73.6401,-15.29199],[-73.64716,-15.27713],[-73.66724,-15.27088],[-73.68631,-15.27494],[-73.69608,-15.24924],[-73.70611,-15.24708],[-73.72271,-15.25936]]]}},{"type":"Feature","properties":{"ubigeo":"0508","nombre":"Pàucar del Sara Sara"},"geometry":{"type":"Polygon","coordinates":[[[-73.2748,-15.39296],[-73.29453,-15.39233],[-73.31264,-15.40005],[-73.33628,-15.40515],[-73.34749,-15.39445],[-73.36728,-15.38755],[-73.39217,-15.39874],[-73.41744,-15.3761],[-73.43093,-15.37834],[-73.42815,-15.36139],[-73.4411,-15.35572],[-73.4411,-15.34136],[-73.44854,-15.3189],[-73.48221,-15.2838],[-73.50212,-15.27287],[-73.50559,-15.26215],[-73.52144,-15.23791],[-73.52083,-15.22356],[-73.52871,-15.22293],[-73.53824,-15.20592],[-73.53875,-15.18646],[-73.54838,-15.17643],[-73.54711,-15.16506],[-73.55407,-15.15766],[-73.55278,-15.14439],[-73.54438,-15.12791],[-73.55311,-15.12327],[-73.54655,-15.09444],[-73.5383,-15.09103],[-73.53607,-15.08123],[-73.54601,-15.05709],[-73.53217,-15.05372],[-73.52032,-15.06108],[-73.50554,-15.05596],[-73.4856,-15.06058],[-73.46654,-15.03911],[-73.45806,-15.0394],[-73.45372,-15.05625],[-73.44807,-15.06139],[-73.42038,-15.06488],[-73.38098,-15.04331],[-73.35762,-15.03615],[-73.34427,-15.03728],[-73.33164,-15.02962],[-73.34245,-15.00355],[-73.29976,-14.98197],[-73.28327,-14.98339],[-73.27082,-14.97486],[-73.26387,-14.97605],[-73.26264,-14.9657],[-73.27259,-14.95079],[-73.25618,-14.92953],[-73.26561,-14.91192],[-73.2542,-14.89953],[-73.24102,-14.90517],[-73.21063,-14.91063],[-73.20085,-14.92278],[-73.19407,-14.92156],[-73.19149,-14.91018],[-73.16442,-14.91224],[-73.14617,-14.89664],[-73.13737,-14.89668],[-73.13372,-14.88555],[-73.11671,-14.87252],[-73.12908,-14.85559],[-73.11872,-14.84258],[-73.09461,-14.84332],[-73.08509,-14.83036],[-73.06119,-14.82553],[-73.05076,-14.82991],[-73.03333,-14.84993],[-73.01421,-14.85571],[-73.03146,-14.90005],[-73.02135,-14.9155],[-72.9952,-14.94297],[-72.98666,-14.9561],[-72.98296,-14.98371],[-72.99885,-14.99372],[-73.00535,-15.00932],[-73.00438,-15.05786],[-73.00619,-15.06829],[-73.01598,-15.07599],[-73.02453,-15.09176],[-73.01921,-15.12216],[-73.02276,-15.13189],[-73.04756,-15.13435],[-73.04875,-15.14178],[-73.06051,-15.14431],[-73.09941,-15.18094],[-73.11075,-15.18611],[-73.11684,-15.22285],[-73.1272,-15.23859],[-73.13611,-15.24411],[-73.13955,-15.25593],[-73.15069,-15.26133],[-73.15295,-15.28306],[-73.17455,-15.30661],[-73.18518,-15.30582],[-73.20661,-15.29404],[-73.22157,-15.29797],[-73.24593,-15.28609],[-73.26274,-15.28638],[-73.28492,-15.29494],[-73.27773,-15.31818],[-73.2902,-15.33598],[-73.29364,-15.36],[-73.29062,-15.37132],[-73.2748,-15.39296]]]}},{"type":"Feature","properties":{"ubigeo":"0509","nombre":"Sucre"},"geometry":{"type":"Polygon","coordinates":[[[-73.95003,-14.18573],[-73.96461,-14.15894],[-73.96601,-14.13704],[-73.98176,-14.12517],[-73.98905,-14.1105],[-73.98564,-14.09193],[-73.97924,-14.10519],[-73.97001,-14.11023],[-73.94551,-14.11164],[-73.91202,-14.11963],[-73.9034,-14.10017],[-73.90663,-14.0896],[-73.88911,-14.053],[-73.89149,-14.03158],[-73.88263,-14.01663],[-73.88533,-14.00626],[-73.88119,-13.98258],[-73.88914,-13.97266],[-73.88801,-13.95357],[-73.87739,-13.95254],[-73.86305,-13.93768],[-73.85814,-13.93048],[-73.82605,-13.91454],[-73.81803,-13.89645],[-73.8174,-13.88446],[-73.80452,-13.86448],[-73.80638,-13.85596],[-73.79807,-13.83001],[-73.80431,-13.81795],[-73.80332,-13.79614],[-73.78353,-13.78632],[-73.77175,-13.78555],[-73.76963,-13.77831],[-73.75813,-13.77836],[-73.75894,-13.77072],[-73.74789,-13.76337],[-73.7413,-13.77861],[-73.74326,-13.78733],[-73.73354,-13.80144],[-73.72869,-13.81612],[-73.71465,-13.83456],[-73.69778,-13.84742],[-73.69334,-13.86349],[-73.69493,-13.88313],[-73.68909,-13.89076],[-73.67915,-13.91632],[-73.65647,-13.92995],[-73.64222,-13.96244],[-73.64276,-13.97854],[-73.63112,-13.98711],[-73.61832,-14.02613],[-73.62578,-14.04902],[-73.6184,-14.05896],[-73.60955,-14.08501],[-73.59178,-14.10956],[-73.58662,-14.11034],[-73.57728,-14.14718],[-73.56931,-14.15506],[-73.55772,-14.17618],[-73.55313,-14.19211],[-73.5452,-14.19698],[-73.54406,-14.20866],[-73.52336,-14.22833],[-73.51814,-14.26322],[-73.51225,-14.26816],[-73.51719,-14.30936],[-73.52801,-14.32256],[-73.53384,-14.35429],[-73.55351,-14.37751],[-73.55386,-14.40122],[-73.55964,-14.40991],[-73.58175,-14.41613],[-73.58609,-14.40707],[-73.59577,-14.40646],[-73.60979,-14.39791],[-73.60371,-14.3838],[-73.61321,-14.37916],[-73.61502,-14.37029],[-73.6245,-14.37532],[-73.65525,-14.37304],[-73.6541,-14.36162],[-73.66721,-14.34869],[-73.67688,-14.34632],[-73.69042,-14.32635],[-73.7067,-14.32416],[-73.73826,-14.33816],[-73.76249,-14.3317],[-73.77344,-14.32225],[-73.79006,-14.31638],[-73.79883,-14.29394],[-73.81499,-14.29362],[-73.82132,-14.28621],[-73.84466,-14.27656],[-73.85018,-14.28125],[-73.86108,-14.27667],[-73.87193,-14.28826],[-73.87861,-14.28871],[-73.89004,-14.26761],[-73.89658,-14.26283],[-73.8928,-14.24831],[-73.89566,-14.23463],[-73.87925,-14.2167],[-73.90714,-14.19174],[-73.9425,-14.19884],[-73.95003,-14.18573]]]}},{"type":"Feature","properties":{"ubigeo":"0510","nombre":"Víctor Fajardo"},"geometry":{"type":"Polygon","coordinates":[[[-73.86305,-13.93768],[-73.87739,-13.95254],[-73.88801,-13.95357],[-73.88914,-13.97266],[-73.88119,-13.98258],[-73.88533,-14.00626],[-73.88263,-14.01663],[-73.89149,-14.03158],[-73.88911,-14.053],[-73.90663,-14.0896],[-73.9034,-14.10017],[-73.91202,-14.11963],[-73.94551,-14.11164],[-73.97001,-14.11023],[-73.97924,-14.10519],[-73.98564,-14.09193],[-73.98905,-14.1105],[-73.98176,-14.12517],[-73.96601,-14.13704],[-73.96461,-14.15894],[-73.95003,-14.18573],[-73.98304,-14.16998],[-73.99916,-14.15919],[-74.01404,-14.13452],[-74.02552,-14.12798],[-74.02963,-14.11238],[-74.03917,-14.0985],[-74.07057,-14.11662],[-74.08123,-14.11268],[-74.08546,-14.08881],[-74.07393,-14.0755],[-74.07185,-14.0465],[-74.06317,-14.03977],[-74.06792,-14.02807],[-74.0907,-14.0192],[-74.10001,-14.02839],[-74.11604,-14.02887],[-74.10704,-14.02268],[-74.09929,-14.00874],[-74.10242,-13.99133],[-74.11894,-13.98933],[-74.10098,-13.95254],[-74.10934,-13.92639],[-74.10662,-13.91446],[-74.11214,-13.89845],[-74.14246,-13.88546],[-74.14564,-13.87652],[-74.15836,-13.86798],[-74.15976,-13.84137],[-74.17436,-13.83097],[-74.18902,-13.81386],[-74.20456,-13.81299],[-74.21641,-13.80451],[-74.22737,-13.80616],[-74.23148,-13.78783],[-74.24091,-13.78345],[-74.25406,-13.75899],[-74.26306,-13.76132],[-74.29805,-13.75602],[-74.30668,-13.75213],[-74.31588,-13.73429],[-74.32491,-13.75134],[-74.32268,-13.76284],[-74.34042,-13.75831],[-74.3503,-13.74503],[-74.36452,-13.73652],[-74.37152,-13.74454],[-74.36249,-13.7594],[-74.39244,-13.7804],[-74.41764,-13.78818],[-74.42587,-13.79756],[-74.44081,-13.78972],[-74.45385,-13.77598],[-74.46604,-13.77276],[-74.47846,-13.76109],[-74.4912,-13.7588],[-74.49713,-13.7412],[-74.51711,-13.73731],[-74.52406,-13.73225],[-74.52608,-13.71534],[-74.53556,-13.70935],[-74.54737,-13.71823],[-74.57192,-13.71551],[-74.58923,-13.69852],[-74.62023,-13.69643],[-74.61668,-13.71026],[-74.63353,-13.73214],[-74.63546,-13.74024],[-74.67338,-13.74746],[-74.68455,-13.74314],[-74.70728,-13.74526],[-74.7406,-13.75965],[-74.75648,-13.76323],[-74.76653,-13.77223],[-74.75954,-13.75772],[-74.76119,-13.74883],[-74.75389,-13.73698],[-74.77539,-13.71054],[-74.77249,-13.69151],[-74.77397,-13.67163],[-74.78115,-13.64818],[-74.77485,-13.63875],[-74.77742,-13.62449],[-74.77139,-13.6065],[-74.78242,-13.57851],[-74.76665,-13.58019],[-74.75121,-13.5887],[-74.73908,-13.58028],[-74.70949,-13.58516],[-74.67682,-13.57464],[-74.66299,-13.56038],[-74.63937,-13.55544],[-74.62717,-13.55675],[-74.59913,-13.57796],[-74.57092,-13.58507],[-74.54382,-13.59929],[-74.52047,-13.6155],[-74.51764,-13.60301],[-74.47029,-13.59326],[-74.44375,-13.58553],[-74.41602,-13.59596],[-74.40122,-13.5927],[-74.36839,-13.6028],[-74.3192,-13.62653],[-74.30133,-13.63272],[-74.27521,-13.6345],[-74.24368,-13.62845],[-74.22264,-13.62839],[-74.1964,-13.63858],[-74.18226,-13.63991],[-74.16792,-13.636],[-74.15442,-13.63976],[-74.13948,-13.63294],[-74.09768,-13.66212],[-74.10002,-13.66962],[-74.07603,-13.67884],[-74.05007,-13.68265],[-74.02391,-13.68844],[-74.00397,-13.69783],[-73.99806,-13.70744],[-73.99938,-13.72294],[-73.98876,-13.74075],[-73.97183,-13.75602],[-73.95824,-13.78836],[-73.94632,-13.7992],[-73.93656,-13.80075],[-73.92602,-13.81862],[-73.91182,-13.82846],[-73.90806,-13.8628],[-73.9014,-13.8682],[-73.88508,-13.9165],[-73.87523,-13.91828],[-73.86305,-13.93768]]]}},{"type":"Feature","properties":{"ubigeo":"0511","nombre":"Vilcas Huamán"},"geometry":{"type":"Polygon","coordinates":[[[-73.67371,-13.73074],[-73.66954,-13.73823],[-73.6875,-13.73994],[-73.69292,-13.74942],[-73.7164,-13.75039],[-73.72849,-13.75727],[-73.7344,-13.7541],[-73.74789,-13.76337],[-73.75894,-13.77072],[-73.75813,-13.77836],[-73.76963,-13.77831],[-73.77175,-13.78555],[-73.78353,-13.78632],[-73.80332,-13.79614],[-73.80431,-13.81795],[-73.79807,-13.83001],[-73.80638,-13.85596],[-73.80452,-13.86448],[-73.8174,-13.88446],[-73.81803,-13.89645],[-73.82605,-13.91454],[-73.85814,-13.93048],[-73.86305,-13.93768],[-73.87523,-13.91828],[-73.88508,-13.9165],[-73.9014,-13.8682],[-73.90806,-13.8628],[-73.91182,-13.82846],[-73.92602,-13.81862],[-73.93656,-13.80075],[-73.94632,-13.7992],[-73.95824,-13.78836],[-73.97183,-13.75602],[-73.98876,-13.74075],[-73.99938,-13.72294],[-73.99806,-13.70744],[-74.00397,-13.69783],[-74.02391,-13.68844],[-74.05007,-13.68265],[-74.05435,-13.66892],[-74.04651,-13.63592],[-74.03908,-13.63168],[-74.03584,-13.61517],[-74.03932,-13.60484],[-74.05957,-13.5934],[-74.05632,-13.58529],[-74.06373,-13.57448],[-74.05595,-13.55498],[-74.05563,-13.53574],[-74.0509,-13.5346],[-74.0679,-13.50665],[-74.06598,-13.48172],[-74.07769,-13.46643],[-74.08047,-13.45058],[-74.07058,-13.43408],[-74.07275,-13.42034],[-74.05987,-13.40956],[-74.04752,-13.41679],[-74.04482,-13.4409],[-74.03586,-13.44416],[-74.02165,-13.43959],[-74.01309,-13.44266],[-73.99251,-13.44133],[-73.99442,-13.45525],[-73.98403,-13.46137],[-73.99275,-13.47721],[-73.97649,-13.4864],[-73.97753,-13.49518],[-73.95215,-13.50095],[-73.92175,-13.49728],[-73.90117,-13.4825],[-73.88796,-13.48398],[-73.88369,-13.47604],[-73.86503,-13.46523],[-73.8348,-13.47018],[-73.82312,-13.48434],[-73.81999,-13.50292],[-73.81424,-13.50921],[-73.80976,-13.53847],[-73.80409,-13.55901],[-73.80493,-13.57642],[-73.7958,-13.60432],[-73.80578,-13.61266],[-73.79192,-13.64096],[-73.76115,-13.64832],[-73.74362,-13.65556],[-73.73237,-13.66767],[-73.72713,-13.68432],[-73.7218,-13.6814],[-73.71349,-13.69116],[-73.71198,-13.70735],[-73.70193,-13.70528],[-73.68982,-13.71923],[-73.67371,-13.73074]]]}}]}