{"type":"FeatureCollection","features":[{"type":"Feature","properties":{"ubigeo":"0601","nombre":"Cajamarca"},"geometry":{"type":"Polygon","coordinates":[[[-78.18369,-7.14915],[-78.20051,-7.17615],[-78.23956,-7.20654],[-78.25083,-7.23066],[-78.24116,-7.23811],[-78.21621,-7.29654],[-78.23488,-7.31633],[-78.25381,-7.31154],[-78.27175,-7.29361],[-78.28664,-7.31755],[-78.28794,-7.32817],[-78.3073,-7.33362],[-78.32558,-7.34286],[-78.31744,-7.34669],[-78.30613,-7.34181],[-78.29467,-7.35283],[-78.27511,-7.36],[-78.27738,-7.37345],[-78.29214,-7.37749],[-78.29765,-7.3878],[-78.32801,-7.39937],[-78.35641,-7.40209],[-78.35418,-7.41327],[-78.34367,-7.41738],[-78.34363,-7.42872],[-78.3533,-7.44375],[-78.3505,-7.47479],[-78.33583,-7.49525],[-78.3442,-7.49409],[-78.36043,-7.50048],[-78.3929,-7.49202],[-78.40308,-7.48349],[-78.41563,-7.48507],[-78.45157,-7.51258],[-78.4595,-7.52796],[-78.49139,-7.55487],[-78.51097,-7.55668],[-78.52387,-7.54986],[-78.56065,-7.55253],[-78.58054,-7.54712],[-78.5901,-7.55019],[-78.62457,-7.54856],[-78.6496,-7.52902],[-78.6362,-7.5043],[-78.62753,-7.47945],[-78.62984,-7.4455],[-78.63829,-7.43359],[-78.6522,-7.42761],[-78.66428,-7.4036],[-78.6733,-7.41162],[-78.69623,-7.41336],[-78.68118,-7.39859],[-78.67655,-7.38361],[-78.66541,-7.37901],[-78.6524,-7.35131],[-78.63913,-7.34815],[-78.6278,-7.32925],[-78.63624,-7.31877],[-78.62978,-7.29871],[-78.62165,-7.28536],[-78.60916,-7.27757],[-78.62941,-7.2744],[-78.64985,-7.25563],[-78.67311,-7.25102],[-78.6934,-7.24004],[-78.70453,-7.24053],[-78.71147,-7.23267],[-78.74599,-7.21933],[-78.73091,-7.21211],[-78.72958,-7.19707],[-78.72,-7.17082],[-78.7033,-7.15335],[-78.69156,-7.13256],[-78.68081,-7.12569],[-78.66171,-7.10299],[-78.66267,-7.09285],[-78.63612,-7.05436],[-78.63628,-7.03906],[-78.62793,-7.01637],[-78.60934,-6.99946],[-78.60403,-6.98462],[-78.60947,-6.9667],[-78.6045,-6.95458],[-78.61351,-6.92073],[-78.60478,-6.88957],[-78.59936,-6.88643],[-78.60138,-6.86763],[-78.59044,-6.85012],[-78.57277,-6.84329],[-78.56127,-6.83091],[-78.55275,-6.82945],[-78.53208,-6.80088],[-78.5193,-6.81534],[-78.50485,-6.81969],[-78.49756,-6.80391],[-78.48136,-6.80082],[-78.46596,-6.80684],[-78.46215,-6.82254],[-78.45348,-6.83419],[-78.44217,-6.86707],[-78.44223,-6.88003],[-78.42856,-6.8922],[-78.43142,-6.92432],[-78.42121,-6.92988],[-78.41324,-6.94189],[-78.40842,-6.93248],[-78.39079,-6.93097],[-78.38275,-6.92358],[-78.37193,-6.93601],[-78.35405,-6.94371],[-78.34051,-6.95418],[-78.33061,-6.97309],[-78.31151,-6.98772],[-78.31452,-6.996],[-78.30814,-7.01388],[-78.30117,-7.01075],[-78.28718,-7.02092],[-78.29428,-7.03031],[-78.27597,-7.03423],[-78.26723,-7.03188],[-78.24487,-7.04955],[-78.23941,-7.04916],[-78.23164,-7.06273],[-78.21946,-7.07158],[-78.21951,-7.08777],[-78.20378,-7.10042],[-78.20086,-7.11042],[-78.18737,-7.12646],[-78.18369,-7.14915]]]}},{"type":"Feature","properties":{"ubigeo":"0602","nombre":"Cajabamba"},"geometry":{"type":"Polygon","coordinates":[[[-77.74598,-7.47916],[-77.77,-7.48178],[-77.79187,-7.50039],[-77.81346,-7.50439],[-77.84417,-7.51438],[-77.85749,-7.5242],[-77.86264,-7.53485],[-77.8618,-7.55226],[-77.87044,-7.58533],[-77.88789,-7.58821],[-77.92277,-7.60031],[-77.91278,-7.6249],[-77.92625,-7.63709],[-77.94029,-7.64045],[-77.9323,-7.65179],[-77.94835,-7.65973],[-77.95782,-7.6548],[-77.96673,-7.67515],[-77.9732,-7.66705],[-77.99864,-7.67907],[-78.02597,-7.68251],[-78.05093,-7.67892],[-78.06321,-7.68881],[-78.08122,-7.69617],[-78.09333,-7.67534],[-78.11605,-7.65401],[-78.12781,-7.65348],[-78.14256,-7.66569],[-78.141,-7.68272],[-78.14911,-7.69165],[-78.15886,-7.69335],[-78.17135,-7.71339],[-78.19029,-7.7175],[-78.19284,-7.72721],[-78.21965,-7.72857],[-78.21164,-7.74321],[-78.21386,-7.75798],[-78.22465,-7.75933],[-78.24232,-7.7545],[-78.26115,-7.75402],[-78.27242,-7.75352],[-78.28325,-7.7421],[-78.28209,-7.7264],[-78.27572,-7.72022],[-78.3028,-7.69646],[-78.3152,-7.70318],[-78.33014,-7.69963],[-78.33565,-7.69054],[-78.34796,-7.68572],[-78.36073,-7.6443],[-78.37606,-7.63996],[-78.38282,-7.63011],[-78.37689,-7.62465],[-78.37976,-7.60027],[-78.37017,-7.59328],[-78.35679,-7.57401],[-78.35978,-7.55107],[-78.36386,-7.54547],[-78.36083,-7.52996],[-78.34958,-7.51182],[-78.33905,-7.50787],[-78.32575,-7.5099],[-78.32222,-7.50333],[-78.33583,-7.49525],[-78.3505,-7.47479],[-78.3533,-7.44375],[-78.34363,-7.42872],[-78.34367,-7.41738],[-78.35418,-7.41327],[-78.35641,-7.40209],[-78.32801,-7.39937],[-78.29765,-7.3878],[-78.29214,-7.37749],[-78.27738,-7.37345],[-78.21984,-7.38762],[-78.21767,-7.41024],[-78.20452,-7.4164],[-78.19067,-7.43754],[-78.17749,-7.44813],[-78.16632,-7.46617],[-78.16033,-7.46378],[-78.14652,-7.4734],[-78.12591,-7.48021],[-78.11944,-7.46559],[-78.08497,-7.45431],[-78.07797,-7.4604],[-78.05364,-7.4653],[-78.04122,-7.4565],[-78.01332,-7.46216],[-77.99957,-7.44292],[-77.99682,-7.42063],[-77.9856,-7.4091],[-77.98263,-7.38746],[-77.97376,-7.37457],[-77.96133,-7.37048],[-77.94255,-7.34566],[-77.92056,-7.34355],[-77.91184,-7.35366],[-77.8831,-7.36419],[-77.85301,-7.35836],[-77.8296,-7.34764],[-77.82093,-7.36912],[-77.82514,-7.3783],[-77.80057,-7.40301],[-77.78073,-7.41088],[-77.77199,-7.41846],[-77.77392,-7.42647],[-77.76744,-7.44077],[-77.75542,-7.44105],[-77.74137,-7.46669],[-77.74598,-7.47916]]]}},{"type":"Feature","properties":{"ubigeo":"0603","nombre":"Celendín"},"geometry":{"type":"Polygon","coordinates":[[[-77.99951,-6.97053],[-77.98849,-6.97532],[-78.00055,-6.9892],[-77.98585,-7.00034],[-77.98828,-7.00622],[-77.97985,-7.02142],[-77.97289,-7.02403],[-77.96526,-7.03829],[-77.96592,-7.05077],[-77.95115,-7.06461],[-77.9757,-7.07927],[-78,-7.08694],[-78.01595,-7.0968],[-78.02402,-7.10991],[-78.05653,-7.13479],[-78.0702,-7.12822],[-78.08409,-7.13202],[-78.1026,-7.12777],[-78.11445,-7.14625],[-78.13576,-7.14696],[-78.16136,-7.15285],[-78.17363,-7.14629],[-78.18369,-7.14915],[-78.18737,-7.12646],[-78.20086,-7.11042],[-78.20378,-7.10042],[-78.21951,-7.08777],[-78.21946,-7.07158],[-78.23164,-7.06273],[-78.23941,-7.04916],[-78.24487,-7.04955],[-78.26723,-7.03188],[-78.27597,-7.03423],[-78.29428,-7.03031],[-78.28718,-7.02092],[-78.30117,-7.01075],[-78.30814,-7.01388],[-78.31452,-6.996],[-78.31151,-6.98772],[-78.33061,-6.97309],[-78.34051,-6.95418],[-78.35405,-6.94371],[-78.37193,-6.93601],[-78.38275,-6.92358],[-78.39079,-6.93097],[-78.40842,-6.93248],[-78.41324,-6.94189],[-78.42121,-6.92988],[-78.43142,-6.92432],[-78.42856,-6.8922],[-78.44223,-6.88003],[-78.44217,-6.86707],[-78.45348,-6.83419],[-78.4325,-6.83414],[-78.42545,-6.81453],[-78.41438,-6.81904],[-78.40197,-6.81506],[-78.40508,-6.80346],[-78.39427,-6.79281],[-78.3987,-6.7773],[-78.3959,-6.76679],[-78.404,-6.75185],[-78.40626,-6.73008],[-78.40484,-6.71153],[-78.38547,-6.68525],[-78.38417,-6.67874],[-78.39022,-6.65288],[-78.40287,-6.6363],[-78.39963,-6.62084],[-78.41297,-6.59586],[-78.38982,-6.57878],[-78.36326,-6.57259],[-78.34587,-6.58391],[-78.33902,-6.57895],[-78.3526,-6.56463],[-78.35518,-6.55377],[-78.35536,-6.5243],[-78.36604,-6.50845],[-78.3681,-6.48712],[-78.36546,-6.47215],[-78.35684,-6.46066],[-78.33725,-6.44966],[-78.32135,-6.44997],[-78.31531,-6.42974],[-78.29785,-6.40625],[-78.29714,-6.40105],[-78.27793,-6.38896],[-78.27529,-6.39969],[-78.26829,-6.39111],[-78.25149,-6.39642],[-78.22188,-6.42971],[-78.21806,-6.44695],[-78.20999,-6.45803],[-78.19003,-6.45702],[-78.18576,-6.47111],[-78.17709,-6.47442],[-78.17304,-6.49418],[-78.16437,-6.4908],[-78.15218,-6.49983],[-78.15048,-6.51242],[-78.13578,-6.52701],[-78.13763,-6.56317],[-78.11667,-6.578],[-78.12074,-6.59732],[-78.10599,-6.61937],[-78.10509,-6.64571],[-78.09412,-6.65737],[-78.08022,-6.6553],[-78.07313,-6.6732],[-78.05676,-6.67574],[-78.04638,-6.68871],[-78.04388,-6.71234],[-78.03917,-6.71458],[-78.03533,-6.74271],[-78.03582,-6.74992],[-78.02043,-6.79194],[-78.02418,-6.7982],[-78.01638,-6.80905],[-78.02119,-6.81766],[-78.01369,-6.82125],[-78.01491,-6.83191],[-78.03111,-6.84672],[-78.0134,-6.85174],[-78.00079,-6.86726],[-78.00639,-6.87528],[-78.00108,-6.88161],[-78.00548,-6.8936],[-77.99865,-6.90012],[-78.00071,-6.91229],[-78.01364,-6.93168],[-78.00089,-6.9383],[-77.99774,-6.95204],[-77.99951,-6.97053]]]}},{"type":"Feature","properties":{"ubigeo":"0604","nombre":"Chota"},"geometry":{"type":"Polygon","coordinates":[[[-78.27793,-6.38896],[-78.29714,-6.40105],[-78.29785,-6.40625],[-78.31531,-6.42974],[-78.32135,-6.44997],[-78.33725,-6.44966],[-78.35684,-6.46066],[-78.36546,-6.47215],[-78.3681,-6.48712],[-78.36604,-6.50845],[-78.35536,-6.5243],[-78.35518,-6.55377],[-78.3526,-6.56463],[-78.33902,-6.57895],[-78.34587,-6.58391],[-78.36326,-6.57259],[-78.38982,-6.57878],[-78.41297,-6.59586],[-78.42611,-6.58064],[-78.45828,-6.56047],[-78.49888,-6.58751],[-78.50605,-6.60249],[-78.52966,-6.60912],[-78.55025,-6.5955],[-78.5604,-6.59785],[-78.59138,-6.63288],[-78.60561,-6.6355],[-78.61789,-6.64354],[-78.62331,-6.65334],[-78.63651,-6.65454],[-78.6437,-6.67564],[-78.65597,-6.67799],[-78.65854,-6.66382],[-78.67495,-6.66109],[-78.68603,-6.65213],[-78.72309,-6.62946],[-78.72951,-6.63311],[-78.7435,-6.62646],[-78.75802,-6.63212],[-78.76303,-6.60866],[-78.75971,-6.59685],[-78.77064,-6.58127],[-78.78599,-6.58249],[-78.77751,-6.56429],[-78.79312,-6.55302],[-78.80685,-6.55578],[-78.81422,-6.54704],[-78.81707,-6.53214],[-78.82326,-6.52574],[-78.85625,-6.52104],[-78.89525,-6.526],[-78.90128,-6.52864],[-78.91728,-6.51922],[-78.92778,-6.50364],[-78.93613,-6.50675],[-78.95271,-6.52716],[-78.97605,-6.52813],[-78.98845,-6.51174],[-79.00248,-6.51506],[-79.02385,-6.51277],[-79.04776,-6.5248],[-79.05594,-6.51636],[-79.0742,-6.53381],[-79.08588,-6.55771],[-79.09261,-6.58364],[-79.09352,-6.59905],[-79.09927,-6.60948],[-79.1184,-6.6285],[-79.13299,-6.63297],[-79.16719,-6.62507],[-79.19317,-6.62845],[-79.22139,-6.61254],[-79.24916,-6.60885],[-79.24024,-6.61766],[-79.22906,-6.67141],[-79.27187,-6.68027],[-79.29642,-6.67567],[-79.30402,-6.65161],[-79.32193,-6.64687],[-79.32536,-6.64066],[-79.34363,-6.64673],[-79.36233,-6.63354],[-79.353,-6.62701],[-79.34416,-6.60596],[-79.33574,-6.60243],[-79.34973,-6.57186],[-79.36049,-6.56822],[-79.36008,-6.55822],[-79.36699,-6.54952],[-79.36961,-6.5208],[-79.40328,-6.54073],[-79.41868,-6.53696],[-79.41704,-6.50635],[-79.42477,-6.48867],[-79.43388,-6.48127],[-79.4227,-6.46749],[-79.42289,-6.45188],[-79.4376,-6.41986],[-79.44631,-6.41504],[-79.45349,-6.39684],[-79.44667,-6.37672],[-79.45729,-6.37147],[-79.44438,-6.36149],[-79.44543,-6.35508],[-79.42656,-6.3289],[-79.42266,-6.31043],[-79.39993,-6.309],[-79.38794,-6.29829],[-79.35356,-6.30429],[-79.34569,-6.28314],[-79.32179,-6.26306],[-79.30844,-6.27005],[-79.28474,-6.2545],[-79.27639,-6.23986],[-79.27905,-6.22926],[-79.27268,-6.22576],[-79.25226,-6.22669],[-79.24917,-6.22178],[-79.24373,-6.21539],[-79.22228,-6.21198],[-79.22237,-6.22672],[-79.2164,-6.23136],[-79.21723,-6.24434],[-79.20608,-6.24902],[-79.2112,-6.26131],[-79.21097,-6.27705],[-79.19926,-6.27073],[-79.16229,-6.27297],[-79.14786,-6.28634],[-79.13411,-6.29193],[-79.11931,-6.29129],[-79.10312,-6.30403],[-79.09586,-6.31603],[-79.0835,-6.32],[-79.07026,-6.30912],[-79.04662,-6.32773],[-79.04169,-6.31828],[-79.01645,-6.31285],[-79.00966,-6.30196],[-78.99978,-6.30067],[-78.98814,-6.29168],[-78.97155,-6.31594],[-78.95211,-6.33489],[-78.93797,-6.34012],[-78.9164,-6.37093],[-78.91237,-6.38635],[-78.91354,-6.4038],[-78.89739,-6.43198],[-78.86144,-6.43799],[-78.83245,-6.42845],[-78.7958,-6.44144],[-78.8081,-6.45335],[-78.81331,-6.46909],[-78.82424,-6.47966],[-78.84028,-6.4815],[-78.84396,-6.48898],[-78.80556,-6.50601],[-78.78713,-6.53883],[-78.76856,-6.54989],[-78.75687,-6.5356],[-78.75811,-6.51038],[-78.7494,-6.4901],[-78.74781,-6.4755],[-78.73949,-6.47237],[-78.73222,-6.45989],[-78.7459,-6.44245],[-78.74714,-6.42091],[-78.72904,-6.4136],[-78.72677,-6.40423],[-78.71133,-6.3919],[-78.71409,-6.36848],[-78.69161,-6.35558],[-78.68905,-6.34294],[-78.67177,-6.33268],[-78.66774,-6.31504],[-78.62832,-6.31236],[-78.6002,-6.30388],[-78.59328,-6.30669],[-78.56946,-6.30232],[-78.55873,-6.29407],[-78.53951,-6.288],[-78.52666,-6.29189],[-78.50988,-6.28488],[-78.51155,-6.25702],[-78.50929,-6.24576],[-78.5182,-6.23584],[-78.52994,-6.21434],[-78.53348,-6.18247],[-78.51803,-6.16103],[-78.51625,-6.14638],[-78.52224,-6.13864],[-78.51554,-6.11714],[-78.51796,-6.10981],[-78.5082,-6.0858],[-78.49861,-6.08927],[-78.49844,-6.1025],[-78.47728,-6.11483],[-78.47584,-6.13263],[-78.46739,-6.13464],[-78.4605,-6.14817],[-78.43816,-6.16569],[-78.43702,-6.17363],[-78.41973,-6.18842],[-78.41899,-6.20571],[-78.40203,-6.21977],[-78.40162,-6.22597],[-78.38026,-6.23074],[-78.37009,-6.23908],[-78.36996,-6.27108],[-78.36037,-6.28038],[-78.35642,-6.29543],[-78.34774,-6.29854],[-78.33539,-6.31868],[-78.33373,-6.35098],[-78.319,-6.35702],[-78.29952,-6.37538],[-78.29354,-6.37179],[-78.27793,-6.38896]]]}},{"type":"Feature","properties":{"ubigeo":"0605","nombre":"Contumazá"},"geometry":{"type":"Polygon","coordinates":[[[-78.74599,-7.21933],[-78.71147,-7.23267],[-78.70453,-7.24053],[-78.6934,-7.24004],[-78.67311,-7.25102],[-78.64985,-7.25563],[-78.62941,-7.2744],[-78.60916,-7.27757],[-78.62165,-7.28536],[-78.62978,-7.29871],[-78.63624,-7.31877],[-78.6278,-7.32925],[-78.63913,-7.34815],[-78.6524,-7.35131],[-78.66541,-7.37901],[-78.67655,-7.38361],[-78.68118,-7.39859],[-78.69623,-7.41336],[-78.71333,-7.40964],[-78.73046,-7.41993],[-78.73821,-7.42009],[-78.74527,-7.407],[-78.76012,-7.40198],[-78.77973,-7.42365],[-78.78991,-7.39515],[-78.80141,-7.40351],[-78.80341,-7.41899],[-78.84162,-7.43762],[-78.84776,-7.45277],[-78.87658,-7.47034],[-78.88669,-7.4841],[-78.86185,-7.4972],[-78.85149,-7.52255],[-78.8615,-7.53186],[-78.87393,-7.5312],[-78.89591,-7.53744],[-78.91277,-7.55109],[-78.9139,-7.55832],[-78.93516,-7.58185],[-78.93649,-7.5949],[-78.94434,-7.59842],[-78.94294,-7.62279],[-78.95171,-7.64654],[-78.96086,-7.65783],[-78.99215,-7.66095],[-79.0186,-7.62906],[-79.02642,-7.62545],[-79.03433,-7.60392],[-79.04123,-7.59989],[-79.0391,-7.5612],[-79.05985,-7.54668],[-79.05717,-7.52733],[-79.06595,-7.52081],[-79.07155,-7.50535],[-79.06911,-7.47962],[-79.06543,-7.47271],[-79.12276,-7.44164],[-79.15272,-7.43982],[-79.16213,-7.41797],[-79.18711,-7.39764],[-79.18733,-7.38866],[-79.18707,-7.37709],[-79.20203,-7.37821],[-79.23087,-7.39095],[-79.26087,-7.379],[-79.27924,-7.35953],[-79.28026,-7.3509],[-79.29312,-7.34726],[-79.31492,-7.35968],[-79.33427,-7.35288],[-79.34713,-7.33664],[-79.3656,-7.33241],[-79.36928,-7.32412],[-79.3591,-7.32524],[-79.32753,-7.30894],[-79.30883,-7.28539],[-79.28263,-7.27506],[-79.26892,-7.27841],[-79.27139,-7.25877],[-79.27932,-7.2477],[-79.26977,-7.22706],[-79.27134,-7.21512],[-79.2518,-7.19835],[-79.23992,-7.19356],[-79.21315,-7.19535],[-79.19848,-7.18543],[-79.18104,-7.18646],[-79.17157,-7.19232],[-79.15408,-7.18664],[-79.14243,-7.19362],[-79.1244,-7.18058],[-79.09596,-7.20717],[-79.09644,-7.21615],[-79.08759,-7.2209],[-79.08559,-7.2456],[-79.07359,-7.25149],[-79.05885,-7.2403],[-79.05156,-7.20884],[-79.03529,-7.1863],[-79.01786,-7.17926],[-79.0054,-7.18018],[-78.98611,-7.19184],[-78.96407,-7.19146],[-78.9437,-7.20487],[-78.93376,-7.2022],[-78.91954,-7.21095],[-78.89763,-7.22839],[-78.86777,-7.22033],[-78.84984,-7.2244],[-78.83694,-7.21928],[-78.83078,-7.22669],[-78.79368,-7.22116],[-78.77975,-7.21417],[-78.75917,-7.21499],[-78.74599,-7.21933]]]}},{"type":"Feature","properties":{"ubigeo":"0606","nombre":"Cutervo"},"geometry":{"type":"Polygon","coordinates":[[[-78.5082,-6.0858],[-78.51796,-6.10981],[-78.51554,-6.11714],[-78.52224,-6.13864],[-78.51625,-6.14638],[-78.51803,-6.16103],[-78.53348,-6.18247],[-78.52994,-6.21434],[-78.5182,-6.23584],[-78.50929,-6.24576],[-78.51155,-6.25702],[-78.50988,-6.28488],[-78.52666,-6.29189],[-78.53951,-6.288],[-78.55873,-6.29407],[-78.56946,-6.30232],[-78.59328,-6.30669],[-78.6002,-6.30388],[-78.62832,-6.31236],[-78.66774,-6.31504],[-78.67177,-6.33268],[-78.68905,-6.34294],[-78.69161,-6.35558],[-78.71409,-6.36848],[-78.71133,-6.3919],[-78.72677,-6.40423],[-78.72904,-6.4136],[-78.74714,-6.42091],[-78.7459,-6.44245],[-78.73222,-6.45989],[-78.73949,-6.47237],[-78.74781,-6.4755],[-78.7494,-6.4901],[-78.75811,-6.51038],[-78.75687,-6.5356],[-78.76856,-6.54989],[-78.78713,-6.53883],[-78.80556,-6.50601],[-78.84396,-6.48898],[-78.84028,-6.4815],[-78.82424,-6.47966],[-78.81331,-6.46909],[-78.8081,-6.45335],[-78.7958,-6.44144],[-78.83245,-6.42845],[-78.86144,-6.43799],[-78.89739,-6.43198],[-78.91354,-6.4038],[-78.91237,-6.38635],[-78.9164,-6.37093],[-78.93797,-6.34012],[-78.95211,-6.33489],[-78.97155,-6.31594],[-78.98814,-6.29168],[-78.99978,-6.30067],[-79.00966,-6.30196],[-79.01645,-6.31285],[-79.04169,-6.31828],[-79.04662,-6.32773],[-79.07026,-6.30912],[-79.0835,-6.32],[-79.09586,-6.31603],[-79.10312,-6.30403],[-79.11931,-6.29129],[-79.13411,-6.29193],[-79.14786,-6.28634],[-79.16229,-6.27297],[-79.19926,-6.27073],[-79.21097,-6.27705],[-79.2112,-6.26131],[-79.20608,-6.24902],[-79.21723,-6.24434],[-79.2164,-6.23136],[-79.22237,-6.22672],[-79.22228,-6.21198],[-79.24373,-6.21539],[-79.24917,-6.22178],[-79.25413,-6.21655],[-79.26573,-6.1793],[-79.27265,-6.16879],[-79.27253,-6.14673],[-79.25918,-6.14018],[-79.24328,-6.10579],[-79.2339,-6.09307],[-79.21321,-6.09887],[-79.19654,-6.11769],[-79.17226,-6.13435],[-79.15081,-6.12123],[-79.13223,-6.11863],[-79.12006,-6.11238],[-79.10241,-6.11083],[-79.09552,-6.11584],[-79.08618,-6.1096],[-79.08909,-6.09703],[-79.08604,-6.07674],[-79.07952,-6.06523],[-79.05993,-6.05478],[-79.05141,-6.05546],[-79.04279,-6.04557],[-79.02907,-6.04053],[-79.01613,-6.02237],[-78.98942,-6.02334],[-78.97237,-6.02124],[-78.9656,-6.01227],[-78.93746,-6.02783],[-78.92118,-6.04055],[-78.89703,-6.04408],[-78.87448,-6.03225],[-78.86239,-6.01709],[-78.85677,-5.99712],[-78.8579,-5.9851],[-78.84601,-5.95246],[-78.85125,-5.94821],[-78.83934,-5.9301],[-78.83804,-5.90041],[-78.81506,-5.88093],[-78.80128,-5.87449],[-78.78789,-5.87795],[-78.75954,-5.83976],[-78.74126,-5.83553],[-78.73286,-5.81627],[-78.73431,-5.80234],[-78.72432,-5.80191],[-78.71904,-5.78502],[-78.70057,-5.78522],[-78.71229,-5.82872],[-78.69915,-5.84076],[-78.69837,-5.86087],[-78.69133,-5.87196],[-78.69593,-5.88853],[-78.68766,-5.89691],[-78.68277,-5.91108],[-78.6718,-5.91926],[-78.65838,-5.95835],[-78.6432,-5.9682],[-78.63586,-5.98874],[-78.61121,-6.01661],[-78.60693,-6.02774],[-78.60857,-6.05429],[-78.58872,-6.07608],[-78.56059,-6.07772],[-78.55583,-6.07128],[-78.54103,-6.07376],[-78.51586,-6.07206],[-78.5082,-6.0858]]]}},{"type":"Feature","properties":{"ubigeo":"0607","nombre":"Hualgayoc"},"geometry":{"type":"Polygon","coordinates":[[[-78.45348,-6.83419],[-78.46215,-6.82254],[-78.46596,-6.80684],[-78.48136,-6.80082],[-78.49756,-6.80391],[-78.50485,-6.81969],[-78.5193,-6.81534],[-78.53208,-6.80088],[-78.55275,-6.82945],[-78.56127,-6.83091],[-78.57277,-6.84329],[-78.59044,-6.85012],[-78.60138,-6.86763],[-78.60741,-6.85344],[-78.61508,-6.85161],[-78.61218,-6.83351],[-78.62809,-6.82716],[-78.62688,-6.79344],[-78.63839,-6.77782],[-78.67789,-6.76091],[-78.69478,-6.74324],[-78.70637,-6.7508],[-78.71841,-6.73967],[-78.72662,-6.71366],[-78.73996,-6.70445],[-78.753,-6.68383],[-78.76942,-6.65017],[-78.75802,-6.63212],[-78.7435,-6.62646],[-78.72951,-6.63311],[-78.72309,-6.62946],[-78.68603,-6.65213],[-78.67495,-6.66109],[-78.65854,-6.66382],[-78.65597,-6.67799],[-78.6437,-6.67564],[-78.63651,-6.65454],[-78.62331,-6.65334],[-78.61789,-6.64354],[-78.60561,-6.6355],[-78.59138,-6.63288],[-78.5604,-6.59785],[-78.55025,-6.5955],[-78.52966,-6.60912],[-78.50605,-6.60249],[-78.49888,-6.58751],[-78.45828,-6.56047],[-78.42611,-6.58064],[-78.41297,-6.59586],[-78.39963,-6.62084],[-78.40287,-6.6363],[-78.39022,-6.65288],[-78.38417,-6.67874],[-78.38547,-6.68525],[-78.40484,-6.71153],[-78.40626,-6.73008],[-78.404,-6.75185],[-78.3959,-6.76679],[-78.3987,-6.7773],[-78.39427,-6.79281],[-78.40508,-6.80346],[-78.40197,-6.81506],[-78.41438,-6.81904],[-78.42545,-6.81453],[-78.4325,-6.83414],[-78.45348,-6.83419]]]}},{"type":"Feature","properties":{"ubigeo":"0608","nombre":"Jaén"},"geometry":{"type":"Polygon","coordinates":[[[-78.70057,-5.78522],[-78.71904,-5.78502],[-78.72432,-5.80191],[-78.73431,-5.80234],[-78.73286,-5.81627],[-78.74126,-5.83553],[-78.75954,-5.83976],[-78.78789,-5.87795],[-78.80128,-5.87449],[-78.81506,-5.88093],[-78.83804,-5.90041],[-78.83934,-5.9301],[-78.85125,-5.94821],[-78.84601,-5.95246],[-78.8579,-5.9851],[-78.85677,-5.99712],[-78.86239,-6.01709],[-78.87448,-6.03225],[-78.89703,-6.04408],[-78.92118,-6.04055],[-78.93746,-6.02783],[-78.9656,-6.01227],[-78.97237,-6.02124],[-78.98942,-6.02334],[-79.01613,-6.02237],[-79.02907,-6.04053],[-79.04279,-6.04557],[-79.05141,-6.05546],[-79.05993,-6.05478],[-79.07952,-6.06523],[-79.08604,-6.07674],[-79.08909,-6.09703],[-79.08618,-6.1096],[-79.09552,-6.11584],[-79.10241,-6.11083],[-79.12006,-6.11238],[-79.13223,-6.11863],[-79.15081,-6.12123],[-79.17226,-6.13435],[-79.19654,-6.11769],[-79.21321,-6.09887],[-79.19844,-6.10008],[-79.18192,-6.08934],[-79.18285,-6.06822],[-79.18886,-6.05959],[-79.1756,-6.04138],[-79.19,-6.02477],[-79.20396,-6.02406],[-79.21011,-6.04253],[-79.22399,-6.05501],[-79.2357,-6.04505],[-79.24087,-6.02863],[-79.26288,-6.02781],[-79.26434,-6.00246],[-79.30632,-5.98563],[-79.32243,-6.00037],[-79.32031,-6.02137],[-79.31134,-6.03347],[-79.31911,-6.04254],[-79.3331,-6.01843],[-79.34503,-6.00656],[-79.34902,-5.97969],[-79.36471,-5.97639],[-79.39592,-5.97719],[-79.40966,-6.00057],[-79.41721,-6.00524],[-79.41861,-5.9701],[-79.39836,-5.94993],[-79.38022,-5.94013],[-79.36741,-5.93722],[-79.35465,-5.91296],[-79.33544,-5.89397],[-79.33916,-5.88198],[-79.35364,-5.87112],[-79.35577,-5.85193],[-79.37626,-5.82405],[-79.376,-5.80053],[-79.38914,-5.79355],[-79.39815,-5.77448],[-79.40155,-5.74925],[-79.39766,-5.72552],[-79.39827,-5.69937],[-79.38451,-5.68027],[-79.38414,-5.65739],[-79.378,-5.64772],[-79.3828,-5.63626],[-79.37213,-5.59803],[-79.38054,-5.58952],[-79.38025,-5.5704],[-79.39013,-5.55826],[-79.3995,-5.53875],[-79.38698,-5.52237],[-79.36784,-5.52871],[-79.35222,-5.52749],[-79.32896,-5.5351],[-79.31066,-5.52006],[-79.29306,-5.52545],[-79.27596,-5.51974],[-79.25991,-5.50203],[-79.2281,-5.50449],[-79.2136,-5.50849],[-79.20098,-5.50524],[-79.18909,-5.48027],[-79.19425,-5.46613],[-79.18909,-5.45451],[-79.17888,-5.4525],[-79.16368,-5.43744],[-79.15241,-5.42098],[-79.15861,-5.41119],[-79.15024,-5.39413],[-79.12241,-5.38768],[-79.09809,-5.36625],[-79.09096,-5.3809],[-79.07309,-5.43306],[-79.06086,-5.44561],[-79.04787,-5.44519],[-79.03681,-5.45254],[-79.01027,-5.44548],[-78.99674,-5.46382],[-78.98793,-5.46331],[-78.97289,-5.47253],[-78.95634,-5.47148],[-78.93687,-5.47682],[-78.92191,-5.47159],[-78.90139,-5.47378],[-78.87735,-5.46725],[-78.86692,-5.46969],[-78.84373,-5.45428],[-78.83404,-5.44389],[-78.7839,-5.42654],[-78.77845,-5.41165],[-78.77793,-5.39146],[-78.76078,-5.37414],[-78.74562,-5.38331],[-78.74905,-5.39188],[-78.72638,-5.39447],[-78.69749,-5.40754],[-78.67718,-5.40884],[-78.66191,-5.38737],[-78.65166,-5.3826],[-78.63836,-5.3664],[-78.62993,-5.36505],[-78.59565,-5.33938],[-78.58981,-5.32494],[-78.56398,-5.34462],[-78.55131,-5.36027],[-78.53987,-5.36569],[-78.5184,-5.39928],[-78.52159,-5.42057],[-78.51376,-5.42609],[-78.51132,-5.4468],[-78.51518,-5.45435],[-78.54214,-5.47039],[-78.54308,-5.48177],[-78.55852,-5.49909],[-78.55011,-5.51872],[-78.55475,-5.53807],[-78.56408,-5.53828],[-78.58074,-5.54848],[-78.58513,-5.56483],[-78.59419,-5.57071],[-78.6,-5.59024],[-78.60812,-5.59615],[-78.60482,-5.60721],[-78.61818,-5.62069],[-78.62477,-5.63936],[-78.63758,-5.64434],[-78.64881,-5.66227],[-78.65108,-5.67563],[-78.67921,-5.69073],[-78.68633,-5.69889],[-78.6838,-5.70705],[-78.66643,-5.71739],[-78.65182,-5.72189],[-78.65368,-5.73522],[-78.68603,-5.74437],[-78.69176,-5.75074],[-78.69472,-5.77705],[-78.70057,-5.78522]]]}},{"type":"Feature","properties":{"ubigeo":"0609","nombre":"San Ignacio"},"geometry":{"type":"Polygon","coordinates":[[[-79.27596,-5.51974],[-79.27872,-5.51757],[-79.28075,-5.48738],[-79.28864,-5.48002],[-79.2977,-5.45813],[-79.29451,-5.44025],[-79.30464,-5.42829],[-79.3044,-5.3918],[-79.31008,-5.37498],[-79.30836,-5.36467],[-79.31974,-5.36227],[-79.32579,-5.34851],[-79.33036,-5.32545],[-79.32807,-5.31591],[-79.34365,-5.30773],[-79.34548,-5.29985],[-79.35905,-5.28863],[-79.35937,-5.27292],[-79.35293,-5.26819],[-79.34703,-5.24987],[-79.34865,-5.23258],[-79.3683,-5.21342],[-79.37841,-5.19052],[-79.36748,-5.17451],[-79.34331,-5.16537],[-79.34056,-5.13914],[-79.33035,-5.12443],[-79.29603,-5.11198],[-79.29619,-5.10122],[-79.27326,-5.07278],[-79.27301,-5.05852],[-79.24509,-5.05563],[-79.24113,-5.04967],[-79.22774,-5.0498],[-79.21502,-5.01014],[-79.21614,-4.991],[-79.22218,-4.9824],[-79.21285,-4.97635],[-79.21004,-4.96585],[-79.17904,-4.96125],[-79.16918,-4.96591],[-79.14941,-4.9648],[-79.1176,-4.97846],[-79.07457,-4.97165],[-79.07057,-4.99139],[-79.06048,-4.98773],[-79.03436,-5.01334],[-79.01163,-5.0116],[-79.00627,-4.9886],[-78.99546,-4.97375],[-78.99283,-4.95768],[-78.98404,-4.94266],[-78.9862,-4.93548],[-78.9741,-4.8972],[-78.95472,-4.89385],[-78.94583,-4.89824],[-78.93215,-4.89357],[-78.9095,-4.89229],[-78.89166,-4.88734],[-78.88953,-4.87303],[-78.90735,-4.86183],[-78.91052,-4.84269],[-78.8969,-4.8322],[-78.89569,-4.81249],[-78.89169,-4.80801],[-78.91273,-4.791],[-78.91542,-4.78086],[-78.89712,-4.77312],[-78.88963,-4.76393],[-78.88983,-4.7157],[-78.87182,-4.70169],[-78.86273,-4.68978],[-78.86261,-4.67573],[-78.84017,-4.65311],[-78.80252,-4.63747],[-78.76939,-4.64107],[-78.76356,-4.63009],[-78.74792,-4.63219],[-78.73531,-4.62587],[-78.71418,-4.6282],[-78.70596,-4.62387],[-78.69538,-4.63696],[-78.66379,-4.65602],[-78.64969,-4.64662],[-78.63794,-4.65798],[-78.64363,-4.68216],[-78.63578,-4.68538],[-78.63171,-4.69843],[-78.64,-4.70523],[-78.64466,-4.73645],[-78.62827,-4.73968],[-78.63113,-4.75731],[-78.62079,-4.76854],[-78.64129,-4.79984],[-78.63588,-4.8303],[-78.63188,-4.83645],[-78.64306,-4.8561],[-78.64483,-4.88773],[-78.64101,-4.88987],[-78.6451,-4.90747],[-78.66228,-4.94135],[-78.66298,-4.94909],[-78.67833,-4.96838],[-78.66777,-4.97866],[-78.65143,-4.97857],[-78.65284,-4.98822],[-78.64305,-5.00606],[-78.64179,-5.03637],[-78.64746,-5.03933],[-78.65771,-5.06742],[-78.6802,-5.07212],[-78.68341,-5.08703],[-78.6955,-5.09347],[-78.70062,-5.10408],[-78.70583,-5.14959],[-78.71089,-5.15677],[-78.70299,-5.20773],[-78.69355,-5.23275],[-78.68409,-5.23982],[-78.68843,-5.25495],[-78.68424,-5.26749],[-78.67146,-5.26684],[-78.65443,-5.2743],[-78.64799,-5.29335],[-78.63844,-5.30533],[-78.60966,-5.30751],[-78.58981,-5.32494],[-78.59565,-5.33938],[-78.62993,-5.36505],[-78.63836,-5.3664],[-78.65166,-5.3826],[-78.66191,-5.38737],[-78.67718,-5.40884],[-78.69749,-5.40754],[-78.72638,-5.39447],[-78.74905,-5.39188],[-78.74562,-5.38331],[-78.76078,-5.37414],[-78.77793,-5.39146],[-78.77845,-5.41165],[-78.7839,-5.42654],[-78.83404,-5.44389],[-78.84373,-5.45428],[-78.86692,-5.46969],[-78.87735,-5.46725],[-78.90139,-5.47378],[-78.92191,-5.47159],[-78.93687,-5.47682],[-78.95634,-5.47148],[-78.97289,-5.47253],[-78.98793,-5.46331],[-78.99674,-5.46382],[-79.01027,-5.44548],[-79.03681,-5.45254],[-79.04787,-5.44519],[-79.06086,-5.44561],[-79.07309,-5.43306],[-79.09096,-5.3809],[-79.09809,-5.36625],[-79.12241,-5.38768],[-79.15024,-5.39413],[-79.15861,-5.41119],[-79.15241,-5.42098],[-79.16368,-5.43744],[-79.17888,-5.4525],[-79.18909,-5.45451],[-79.19425,-5.46613],[-79.18909,-5.48027],[-79.20098,-5.50524],[-79.2136,-5.50849],[-79.2281,-5.50449],[-79.25991,-5.50203],[-79.27596,-5.51974]]]}},{"type":"Feature","properties":{"ubigeo":"0610","nombre":"San Marcos"},"geometry":{"type":"Polygon","coordinates":[[[-78.27738,-7.37345],[-78.27511,-7.36],[-78.29467,-7.35283],[-78.30613,-7.34181],[-78.31744,-7.34669],[-78.32558,-7.34286],[-78.3073,-7.33362],[-78.28794,-7.32817],[-78.28664,-7.31755],[-78.27175,-7.29361],[-78.25381,-7.31154],[-78.23488,-7.31633],[-78.21621,-7.29654],[-78.24116,-7.23811],[-78.25083,-7.23066],[-78.23956,-7.20654],[-78.20051,-7.17615],[-78.18369,-7.14915],[-78.17363,-7.14629],[-78.16136,-7.15285],[-78.13576,-7.14696],[-78.11445,-7.14625],[-78.1026,-7.12777],[-78.08409,-7.13202],[-78.0702,-7.12822],[-78.05653,-7.13479],[-78.02402,-7.10991],[-78.01595,-7.0968],[-78,-7.08694],[-77.9757,-7.07927],[-77.95115,-7.06461],[-77.94929,-7.07842],[-77.9398,-7.09618],[-77.92952,-7.10636],[-77.92269,-7.15746],[-77.89787,-7.16681],[-77.89778,-7.18249],[-77.8874,-7.18523],[-77.8809,-7.22139],[-77.84924,-7.23557],[-77.85696,-7.24532],[-77.8596,-7.26487],[-77.85441,-7.27207],[-77.85658,-7.2832],[-77.8394,-7.29099],[-77.83105,-7.31003],[-77.83837,-7.34112],[-77.8296,-7.34764],[-77.85301,-7.35836],[-77.8831,-7.36419],[-77.91184,-7.35366],[-77.92056,-7.34355],[-77.94255,-7.34566],[-77.96133,-7.37048],[-77.97376,-7.37457],[-77.98263,-7.38746],[-77.9856,-7.4091],[-77.99682,-7.42063],[-77.99957,-7.44292],[-78.01332,-7.46216],[-78.04122,-7.4565],[-78.05364,-7.4653],[-78.07797,-7.4604],[-78.08497,-7.45431],[-78.11944,-7.46559],[-78.12591,-7.48021],[-78.14652,-7.4734],[-78.16033,-7.46378],[-78.16632,-7.46617],[-78.17749,-7.44813],[-78.19067,-7.43754],[-78.20452,-7.4164],[-78.21767,-7.41024],[-78.21984,-7.38762],[-78.27738,-7.37345]]]}},{"type":"Feature","properties":{"ubigeo":"0611","nombre":"San Miguel"},"geometry":{"type":"Polygon","coordinates":[[[-78.61508,-6.85161],[-78.62643,-6.85781],[-78.62657,-6.8755],[-78.63445,-6.89071],[-78.65504,-6.90706],[-78.67039,-6.90488],[-78.68552,-6.91037],[-78.6919,-6.91813],[-78.69657,-6.94198],[-78.71255,-6.96029],[-78.73584,-6.97357],[-78.7383,-6.99604],[-78.76013,-6.99979],[-78.77481,-7.01717],[-78.78645,-7.02368],[-78.80255,-7.0193],[-78.82581,-7.02128],[-78.84242,-7.03303],[-78.85507,-7.03502],[-78.86674,-7.04517],[-78.8746,-7.06537],[-78.87317,-7.08316],[-78.88259,-7.09089],[-78.88047,-7.11116],[-78.88329,-7.13437],[-78.87833,-7.14236],[-78.8893,-7.17761],[-78.91954,-7.21095],[-78.93376,-7.2022],[-78.9437,-7.20487],[-78.96407,-7.19146],[-78.98611,-7.19184],[-79.0054,-7.18018],[-79.01786,-7.17926],[-79.03529,-7.1863],[-79.05156,-7.20884],[-79.05885,-7.2403],[-79.07359,-7.25149],[-79.08559,-7.2456],[-79.08759,-7.2209],[-79.09644,-7.21615],[-79.09596,-7.20717],[-79.1244,-7.18058],[-79.14243,-7.19362],[-79.15408,-7.18664],[-79.17157,-7.19232],[-79.18104,-7.18646],[-79.19848,-7.18543],[-79.21315,-7.19535],[-79.23992,-7.19356],[-79.2518,-7.19835],[-79.26533,-7.19409],[-79.27455,-7.18278],[-79.28256,-7.15595],[-79.30627,-7.14338],[-79.29619,-7.12962],[-79.31214,-7.12252],[-79.31292,-7.09039],[-79.32615,-7.08299],[-79.33162,-7.05735],[-79.32259,-7.02568],[-79.3093,-7.01546],[-79.30724,-7.0074],[-79.29708,-7.00311],[-79.30723,-6.96821],[-79.30033,-6.93668],[-79.31014,-6.9254],[-79.31101,-6.90134],[-79.29564,-6.8835],[-79.27308,-6.87665],[-79.26274,-6.85916],[-79.22907,-6.86047],[-79.21909,-6.85169],[-79.21844,-6.84025],[-79.20709,-6.82144],[-79.18517,-6.83328],[-79.17849,-6.8433],[-79.15263,-6.85387],[-79.14634,-6.8656],[-79.10529,-6.86762],[-79.08288,-6.87376],[-79.06959,-6.86643],[-79.06469,-6.84719],[-79.04974,-6.83622],[-79.0212,-6.84052],[-79.00573,-6.85215],[-78.9829,-6.86238],[-78.97065,-6.85875],[-78.96,-6.84851],[-78.9423,-6.84579],[-78.93645,-6.83958],[-78.91576,-6.84703],[-78.88322,-6.84354],[-78.88055,-6.82186],[-78.88694,-6.79718],[-78.87393,-6.77906],[-78.87598,-6.77267],[-78.86652,-6.75778],[-78.84949,-6.73869],[-78.84599,-6.70253],[-78.82554,-6.69884],[-78.81815,-6.69351],[-78.7978,-6.70293],[-78.78619,-6.71599],[-78.76388,-6.72845],[-78.74616,-6.74461],[-78.71841,-6.73967],[-78.70637,-6.7508],[-78.69478,-6.74324],[-78.67789,-6.76091],[-78.63839,-6.77782],[-78.62688,-6.79344],[-78.62809,-6.82716],[-78.61218,-6.83351],[-78.61508,-6.85161]]]}},{"type":"Feature","properties":{"ubigeo":"0612","nombre":"San Pablo"},"geometry":{"type":"Polygon","coordinates":[[[-78.74599,-7.21933],[-78.75917,-7.21499],[-78.77975,-7.21417],[-78.79368,-7.22116],[-78.83078,-7.22669],[-78.83694,-7.21928],[-78.84984,-7.2244],[-78.86777,-7.22033],[-78.89763,-7.22839],[-78.91954,-7.21095],[-78.8893,-7.17761],[-78.87833,-7.14236],[-78.88329,-7.13437],[-78.88047,-7.11116],[-78.88259,-7.09089],[-78.87317,-7.08316],[-78.8746,-7.06537],[-78.86674,-7.04517],[-78.85507,-7.03502],[-78.84242,-7.03303],[-78.82581,-7.02128],[-78.80255,-7.0193],[-78.78645,-7.02368],[-78.77481,-7.01717],[-78.76013,-6.99979],[-78.7383,-6.99604],[-78.73584,-6.97357],[-78.71255,-6.96029],[-78.69657,-6.94198],[-78.6919,-6.91813],[-78.68552,-6.91037],[-78.67039,-6.90488],[-78.65504,-6.90706],[-78.63445,-6.89071],[-78.62657,-6.8755],[-78.62643,-6.85781],[-78.61508,-6.85161],[-78.60741,-6.85344],[-78.60138,-6.86763],[-78.59936,-6.88643],[-78.60478,-6.88957],[-78.61351,-6.92073],[-78.6045,-6.95458],[-78.60947,-6.9667],[-78.60403,-6.98462],[-78.60934,-6.99946],[-78.62793,-7.01637],[-78.63628,-7.03906],[-78.63612,-7.05436],[-78.66267,-7.09285],[-78.66171,-7.10299],[-78.68081,-7.12569],[-78.69156,-7.13256],[-78.7033,-7.15335],[-78.72,-7.17082],[-78.72958,-7.19707],[-78.73091,-7.21211],[-78.74599,-7.21933]]]}},{"type":"Feature","properties":{"ubigeo":"0613","nombre":"Santa Cruz"},"geometry":{"type":"Polygon","coordinates":[[[-78.71841,-6.73967],[-78.74616,-6.74461],[-78.76388,-6.72845],[-78.78619,-6.71599],[-78.7978,-6.70293],[-78.81815,-6.69351],[-78.82554,-6.69884],[-78.84599,-6.70253],[-78.84949,-6.73869],[-78.86652,-6.75778],[-78.87598,-6.77267],[-78.87393,-6.77906],[-78.88694,-6.79718],[-78.88055,-6.82186],[-78.88322,-6.84354],[-78.91576,-6.84703],[-78.93645,-6.83958],[-78.9423,-6.84579],[-78.96,-6.84851],[-78.97065,-6.85875],[-78.9829,-6.86238],[-79.00573,-6.85215],[-79.0212,-6.84052],[-79.04974,-6.83622],[-79.06469,-6.84719],[-79.06959,-6.86643],[-79.08288,-6.87376],[-79.10529,-6.86762],[-79.14634,-6.8656],[-79.15263,-6.85387],[-79.17849,-6.8433],[-79.18517,-6.83328],[-79.20709,-6.82144],[-79.18875,-6.8155],[-79.17634,-6.80205],[-79.15876,-6.80093],[-79.14428,-6.78861],[-79.12372,-6.78282],[-79.12085,-6.77697],[-79.12874,-6.75248],[-79.138,-6.74124],[-79.13547,-6.727],[-79.14291,-6.71911],[-79.14273,-6.6999],[-79.15602,-6.70476],[-79.17105,-6.7017],[-79.17601,-6.71042],[-79.18843,-6.71654],[-79.19553,-6.69683],[-79.20353,-6.69209],[-79.21379,-6.69563],[-79.22165,-6.68821],[-79.22906,-6.67141],[-79.24024,-6.61766],[-79.24916,-6.60885],[-79.22139,-6.61254],[-79.19317,-6.62845],[-79.16719,-6.62507],[-79.13299,-6.63297],[-79.1184,-6.6285],[-79.09927,-6.60948],[-79.09352,-6.59905],[-79.09261,-6.58364],[-79.08588,-6.55771],[-79.0742,-6.53381],[-79.05594,-6.51636],[-79.04776,-6.5248],[-79.02385,-6.51277],[-79.00248,-6.51506],[-78.98845,-6.51174],[-78.97605,-6.52813],[-78.95271,-6.52716],[-78.93613,-6.50675],[-78.92778,-6.50364],[-78.91728,-6.51922],[-78.90128,-6.52864],[-78.89525,-6.526],[-78.85625,-6.52104],[-78.82326,-6.52574],[-78.81707,-6.53214],[-78.81422,-6.54704],[-78.80685,-6.55578],[-78.79312,-6.55302],[-78.77751,-6.56429],[-78.78599,-6.58249],[-78.77064,-6.58127],[-78.75971,-6.59685],[-78.76303,-6.60866],[-78.75802,-6.63212],[-78.76942,-6.65017],[-78.753,-6.68383],[-78.73996,-6.70445],[-78.72662,-6.71366],[-78.71841,-6.73967]]]}}]}