{"type":"FeatureCollection","features":[{"type":"Feature","properties":{"ubigeo":"0701","nombre":"Prov. Const. del Callao"},"geometry":{"type":"Polygon","coordinates":[[[-77.18796,-11.82856],[-77.15695,-11.82581],[-77.13961,-11.81824],[-77.12684,-11.81848],[-77.11641,-11.83122],[-77.11394,-11.85125],[-77.10622,-11.85646],[-77.10729,-11.86605],[-77.09691,-11.87091],[-77.08947,-11.90009],[-77.10328,-11.93521],[-77.0961,-11.94991],[-77.12076,-11.94502],[-77.11593,-11.97068],[-77.10971,-11.97616],[-77.1185,-11.99176],[-77.10334,-11.99759],[-77.08731,-12.01563],[-77.0963,-12.03364],[-77.08303,-12.03632],[-77.07812,-12.05004],[-77.08766,-12.05173],[-77.08711,-12.06152],[-77.10466,-12.06326],[-77.11149,-12.07951],[-77.13005,-12.07132],[-77.15616,-12.06742],[-77.15921,-12.07433],[-77.16984,-12.07454],[-77.1446,-12.05243],[-77.14676,-12.0393],[-77.1381,-12.00687],[-77.13329,-11.97918],[-77.13963,-11.93111],[-77.15683,-11.8743],[-77.17369,-11.84479],[-77.1812,-11.8454],[-77.18796,-11.82856]]]}}]}