{"type":"FeatureCollection","features":[{"type":"Feature","properties":{"ubigeo":"0801","nombre":"Cusco"},"geometry":{"type":"Polygon","coordinates":[[[-71.84316,-13.63079],[-71.86221,-13.61541],[-71.90548,-13.59942],[-71.91613,-13.59369],[-71.9284,-13.61544],[-71.94211,-13.61197],[-71.94786,-13.61741],[-71.96077,-13.61031],[-71.99587,-13.60886],[-72.02365,-13.61394],[-72.04558,-13.63453],[-72.0715,-13.64747],[-72.09137,-13.64916],[-72.109,-13.63883],[-72.11554,-13.62847],[-72.12149,-13.63779],[-72.13221,-13.6393],[-72.13479,-13.62599],[-72.15336,-13.61123],[-72.16458,-13.60628],[-72.16732,-13.57964],[-72.15857,-13.56583],[-72.1612,-13.54867],[-72.1492,-13.53701],[-72.13901,-13.53811],[-72.11676,-13.55188],[-72.10309,-13.55334],[-72.09329,-13.53926],[-72.07824,-13.52838],[-72.06146,-13.52794],[-72.05736,-13.50532],[-72.03855,-13.47829],[-72.01897,-13.47537],[-72.00765,-13.46388],[-72.0006,-13.44404],[-71.99187,-13.44154],[-71.98022,-13.4295],[-71.96194,-13.43972],[-71.93827,-13.44242],[-71.92923,-13.43607],[-71.92446,-13.45933],[-71.93167,-13.4676],[-71.90476,-13.48074],[-71.88686,-13.49599],[-71.86737,-13.49874],[-71.84961,-13.49195],[-71.85158,-13.48727],[-71.82792,-13.49571],[-71.81245,-13.50719],[-71.80463,-13.50826],[-71.8209,-13.52175],[-71.81495,-13.5532],[-71.81591,-13.57624],[-71.83559,-13.59083],[-71.81982,-13.60776],[-71.84316,-13.63079]]]}},{"type":"Feature","properties":{"ubigeo":"0802","nombre":"Acomayo"},"geometry":{"type":"Polygon","coordinates":[[[-71.44034,-14.10367],[-71.44333,-14.10816],[-71.46092,-14.10874],[-71.46063,-14.12167],[-71.48117,-14.13564],[-71.49674,-14.13644],[-71.5042,-14.12324],[-71.51321,-14.12017],[-71.55279,-14.08528],[-71.58341,-14.10113],[-71.59529,-14.13445],[-71.59572,-14.14988],[-71.6092,-14.15388],[-71.62491,-14.13668],[-71.64435,-14.13352],[-71.64976,-14.12852],[-71.67822,-14.11792],[-71.69971,-14.11629],[-71.70773,-14.07885],[-71.71821,-14.06021],[-71.72418,-14.02764],[-71.72247,-14.0191],[-71.72938,-13.97518],[-71.75641,-13.9517],[-71.77841,-13.93755],[-71.77986,-13.90657],[-71.78697,-13.9003],[-71.80914,-13.89452],[-71.80797,-13.87137],[-71.79997,-13.87135],[-71.80101,-13.8511],[-71.80913,-13.83546],[-71.80768,-13.82731],[-71.83444,-13.81142],[-71.82908,-13.77898],[-71.81557,-13.75712],[-71.81602,-13.7483],[-71.79471,-13.71577],[-71.78976,-13.69836],[-71.78343,-13.69699],[-71.76391,-13.70814],[-71.74837,-13.71033],[-71.74652,-13.72634],[-71.73588,-13.73686],[-71.72714,-13.73301],[-71.71296,-13.74279],[-71.7033,-13.75952],[-71.7022,-13.79826],[-71.71247,-13.8203],[-71.70168,-13.81979],[-71.68538,-13.82591],[-71.66908,-13.82148],[-71.64755,-13.82337],[-71.63452,-13.84561],[-71.63808,-13.86112],[-71.62904,-13.88419],[-71.62018,-13.89727],[-71.60085,-13.90627],[-71.58977,-13.90204],[-71.56294,-13.90575],[-71.55865,-13.92218],[-71.56722,-13.92334],[-71.56239,-13.93471],[-71.54218,-13.94582],[-71.53695,-13.9413],[-71.52467,-13.96468],[-71.51688,-13.96722],[-71.5134,-13.98338],[-71.49097,-13.98895],[-71.48962,-14.01294],[-71.48274,-14.01793],[-71.4772,-14.03736],[-71.45776,-14.04625],[-71.44794,-14.05562],[-71.43925,-14.07387],[-71.44411,-14.09649],[-71.44034,-14.10367]]]}},{"type":"Feature","properties":{"ubigeo":"0803","nombre":"Anta"},"geometry":{"type":"Polygon","coordinates":[[[-72.13221,-13.6393],[-72.1406,-13.64422],[-72.16785,-13.64953],[-72.18857,-13.66665],[-72.19474,-13.68206],[-72.21848,-13.70144],[-72.22867,-13.71406],[-72.23093,-13.70528],[-72.24478,-13.69821],[-72.26137,-13.68219],[-72.29028,-13.69006],[-72.29917,-13.70445],[-72.31234,-13.70849],[-72.31485,-13.69848],[-72.35654,-13.68034],[-72.36944,-13.66566],[-72.40175,-13.65951],[-72.39982,-13.64185],[-72.4,-13.63332],[-72.4214,-13.60608],[-72.45129,-13.59997],[-72.45961,-13.59055],[-72.47698,-13.58826],[-72.48641,-13.5919],[-72.49177,-13.58262],[-72.52495,-13.56662],[-72.53338,-13.57239],[-72.54411,-13.55757],[-72.56304,-13.55142],[-72.57593,-13.56276],[-72.59339,-13.56217],[-72.60207,-13.54418],[-72.61299,-13.54606],[-72.62584,-13.53556],[-72.63688,-13.54214],[-72.65677,-13.51335],[-72.67207,-13.5221],[-72.68025,-13.51481],[-72.6957,-13.51036],[-72.70924,-13.50118],[-72.71629,-13.49043],[-72.7297,-13.49055],[-72.74545,-13.4829],[-72.75887,-13.46262],[-72.77286,-13.44888],[-72.76133,-13.42963],[-72.7444,-13.41534],[-72.73059,-13.41248],[-72.72208,-13.40472],[-72.71103,-13.4153],[-72.69493,-13.421],[-72.68534,-13.40667],[-72.65253,-13.39659],[-72.62972,-13.37465],[-72.61438,-13.38362],[-72.59379,-13.36062],[-72.57866,-13.36158],[-72.5651,-13.35032],[-72.55852,-13.33659],[-72.54668,-13.33261],[-72.53512,-13.35169],[-72.54068,-13.3678],[-72.53335,-13.3729],[-72.51411,-13.37401],[-72.50223,-13.36569],[-72.49144,-13.36877],[-72.47264,-13.36133],[-72.46309,-13.36518],[-72.44368,-13.35499],[-72.44368,-13.34468],[-72.42522,-13.34918],[-72.40898,-13.34489],[-72.38082,-13.36548],[-72.36914,-13.35881],[-72.37374,-13.34228],[-72.38126,-13.34244],[-72.38051,-13.32588],[-72.3858,-13.30449],[-72.37705,-13.30027],[-72.36705,-13.28626],[-72.35838,-13.2863],[-72.34814,-13.29737],[-72.34513,-13.30943],[-72.32955,-13.31515],[-72.32006,-13.30922],[-72.30327,-13.31765],[-72.28537,-13.31171],[-72.26712,-13.33024],[-72.24935,-13.32679],[-72.23355,-13.33114],[-72.21952,-13.32628],[-72.21153,-13.33131],[-72.21548,-13.34258],[-72.20996,-13.36678],[-72.17906,-13.38199],[-72.17425,-13.39047],[-72.16082,-13.39393],[-72.13314,-13.38918],[-72.11555,-13.39821],[-72.11323,-13.41673],[-72.0987,-13.43103],[-72.07767,-13.43375],[-72.06077,-13.45097],[-72.04054,-13.45222],[-72.02239,-13.44564],[-72.01787,-13.43885],[-72.0006,-13.44404],[-72.00765,-13.46388],[-72.01897,-13.47537],[-72.03855,-13.47829],[-72.05736,-13.50532],[-72.06146,-13.52794],[-72.07824,-13.52838],[-72.09329,-13.53926],[-72.10309,-13.55334],[-72.11676,-13.55188],[-72.13901,-13.53811],[-72.1492,-13.53701],[-72.1612,-13.54867],[-72.15857,-13.56583],[-72.16732,-13.57964],[-72.16458,-13.60628],[-72.15336,-13.61123],[-72.13479,-13.62599],[-72.13221,-13.6393]]]}},{"type":"Feature","properties":{"ubigeo":"0804","nombre":"Calca"},"geometry":{"type":"Polygon","coordinates":[[[-71.71952,-13.55247],[-71.74655,-13.57497],[-71.74915,-13.56357],[-71.76159,-13.54939],[-71.77,-13.54563],[-71.7796,-13.52563],[-71.80463,-13.50826],[-71.81245,-13.50719],[-71.82792,-13.49571],[-71.85158,-13.48727],[-71.84961,-13.49195],[-71.86737,-13.49874],[-71.88686,-13.49599],[-71.90476,-13.48074],[-71.93167,-13.4676],[-71.92446,-13.45933],[-71.92923,-13.43607],[-71.93827,-13.44242],[-71.96194,-13.43972],[-71.98022,-13.4295],[-71.9739,-13.42276],[-71.96868,-13.3986],[-71.97468,-13.38179],[-71.98531,-13.3776],[-71.99437,-13.35445],[-72.00657,-13.34001],[-72.01121,-13.32736],[-72.02095,-13.31725],[-72.03518,-13.32384],[-72.04413,-13.29057],[-72.04703,-13.25656],[-72.05339,-13.25043],[-72.05768,-13.21945],[-72.07512,-13.2066],[-72.08443,-13.19541],[-72.09831,-13.18897],[-72.13121,-13.19167],[-72.13776,-13.18085],[-72.1488,-13.17708],[-72.15242,-13.1386],[-72.16446,-13.12864],[-72.16665,-13.11214],[-72.18099,-13.1067],[-72.19063,-13.09615],[-72.18038,-13.07147],[-72.17914,-13.05925],[-72.16932,-13.02424],[-72.18063,-13.01689],[-72.18229,-13.00672],[-72.19965,-13.00409],[-72.21589,-12.99133],[-72.21712,-12.96734],[-72.22147,-12.9566],[-72.24416,-12.95006],[-72.26979,-12.93734],[-72.28042,-12.93855],[-72.28653,-12.92987],[-72.29584,-12.9337],[-72.32017,-12.91479],[-72.32234,-12.9028],[-72.33824,-12.87807],[-72.33344,-12.86584],[-72.3544,-12.84658],[-72.36226,-12.82441],[-72.36117,-12.80471],[-72.35523,-12.78878],[-72.36437,-12.78158],[-72.36625,-12.76754],[-72.3626,-12.75554],[-72.36289,-12.71856],[-72.35145,-12.69448],[-72.35296,-12.68664],[-72.34153,-12.68456],[-72.32209,-12.66876],[-72.33661,-12.65867],[-72.34744,-12.657],[-72.36993,-12.63926],[-72.36577,-12.63104],[-72.33381,-12.63628],[-72.31642,-12.64894],[-72.28396,-12.65566],[-72.26818,-12.65343],[-72.25648,-12.65811],[-72.23731,-12.65944],[-72.22658,-12.66484],[-72.20319,-12.65613],[-72.18577,-12.65714],[-72.17915,-12.64773],[-72.16043,-12.64029],[-72.14178,-12.6264],[-72.13538,-12.61697],[-72.12917,-12.59123],[-72.12135,-12.57876],[-72.12451,-12.5485],[-72.11117,-12.54008],[-72.08865,-12.51511],[-72.07539,-12.5176],[-72.07113,-12.51148],[-72.0547,-12.509],[-72.05185,-12.51866],[-72.03146,-12.52477],[-72.00799,-12.55098],[-72.00804,-12.56042],[-71.99096,-12.57799],[-71.9814,-12.58049],[-71.9839,-12.60879],[-71.96641,-12.61282],[-71.96506,-12.63197],[-71.95713,-12.63949],[-71.95638,-12.65487],[-71.96937,-12.66142],[-71.9786,-12.68333],[-71.96489,-12.69358],[-71.95312,-12.69065],[-71.91646,-12.70332],[-71.91841,-12.71899],[-71.90035,-12.73336],[-71.91776,-12.75638],[-71.90668,-12.76125],[-71.90445,-12.77059],[-71.89445,-12.7768],[-71.89222,-12.78788],[-71.87753,-12.79579],[-71.89481,-12.81108],[-71.89141,-12.83321],[-71.87634,-12.84128],[-71.87701,-12.86391],[-71.86644,-12.8716],[-71.86361,-12.88968],[-71.85093,-12.89561],[-71.84122,-12.91918],[-71.82841,-12.92173],[-71.8285,-12.95423],[-71.83544,-12.96261],[-71.84518,-12.96257],[-71.84938,-12.98412],[-71.86389,-12.99304],[-71.88207,-12.99446],[-71.89754,-13.01677],[-71.90637,-13.02079],[-71.91059,-13.03147],[-71.90311,-13.04427],[-71.88889,-13.05349],[-71.8869,-13.09405],[-71.87848,-13.09842],[-71.88589,-13.10957],[-71.86362,-13.12474],[-71.86179,-13.13473],[-71.88006,-13.15308],[-71.87157,-13.1745],[-71.87342,-13.18181],[-71.85745,-13.19957],[-71.85482,-13.20863],[-71.86418,-13.22641],[-71.85825,-13.23965],[-71.8361,-13.27604],[-71.83153,-13.28996],[-71.83802,-13.30077],[-71.8213,-13.3196],[-71.80379,-13.31409],[-71.79453,-13.31738],[-71.78326,-13.34282],[-71.75479,-13.36564],[-71.74909,-13.37854],[-71.73968,-13.38559],[-71.72822,-13.40531],[-71.72509,-13.42081],[-71.7465,-13.42093],[-71.7548,-13.43131],[-71.74734,-13.43158],[-71.73962,-13.44709],[-71.726,-13.45661],[-71.73616,-13.46266],[-71.72872,-13.46906],[-71.73791,-13.47636],[-71.72627,-13.49447],[-71.71952,-13.55247]]]}},{"type":"Feature","properties":{"ubigeo":"0805","nombre":"Canas"},"geometry":{"type":"Polygon","coordinates":[[[-70.97872,-14.41666],[-70.9625,-14.44482],[-70.98137,-14.44902],[-70.98809,-14.45594],[-70.98267,-14.47581],[-70.98916,-14.48944],[-70.98659,-14.49872],[-70.99917,-14.50227],[-70.98823,-14.5263],[-70.9791,-14.53853],[-70.98157,-14.54852],[-70.96612,-14.56834],[-70.97979,-14.58298],[-71.00145,-14.57221],[-71.02043,-14.58535],[-71.00987,-14.59669],[-71.0249,-14.59193],[-71.04275,-14.60138],[-71.05196,-14.61422],[-71.0739,-14.63145],[-71.08069,-14.6299],[-71.10973,-14.63422],[-71.11794,-14.64892],[-71.12903,-14.64186],[-71.14895,-14.64022],[-71.16052,-14.62728],[-71.16769,-14.62653],[-71.18318,-14.61477],[-71.18776,-14.62854],[-71.21317,-14.64759],[-71.23122,-14.6463],[-71.24782,-14.64059],[-71.25712,-14.65307],[-71.27524,-14.65093],[-71.29467,-14.6414],[-71.30797,-14.66016],[-71.31458,-14.65782],[-71.33503,-14.61643],[-71.37433,-14.62036],[-71.38311,-14.60908],[-71.41717,-14.60207],[-71.42665,-14.62181],[-71.43766,-14.61255],[-71.44439,-14.61389],[-71.45547,-14.60054],[-71.48775,-14.58634],[-71.48928,-14.57852],[-71.49875,-14.58086],[-71.53216,-14.56908],[-71.54357,-14.53799],[-71.56744,-14.5414],[-71.57941,-14.54769],[-71.60986,-14.54337],[-71.61538,-14.53325],[-71.63209,-14.52953],[-71.64776,-14.53217],[-71.65181,-14.52732],[-71.6463,-14.50244],[-71.62319,-14.49724],[-71.60497,-14.47757],[-71.60914,-14.44506],[-71.58782,-14.43765],[-71.57594,-14.41828],[-71.55441,-14.41074],[-71.54975,-14.40552],[-71.55559,-14.39367],[-71.55342,-14.38483],[-71.56864,-14.37505],[-71.55523,-14.36347],[-71.55375,-14.35066],[-71.56014,-14.34576],[-71.5541,-14.32791],[-71.55787,-14.31378],[-71.55025,-14.30337],[-71.5546,-14.29295],[-71.54779,-14.27506],[-71.54912,-14.26238],[-71.52345,-14.26425],[-71.51497,-14.25255],[-71.52682,-14.21981],[-71.53873,-14.20011],[-71.54988,-14.1752],[-71.56858,-14.15837],[-71.58797,-14.14909],[-71.59572,-14.14988],[-71.59529,-14.13445],[-71.58341,-14.10113],[-71.55279,-14.08528],[-71.51321,-14.12017],[-71.5042,-14.12324],[-71.49674,-14.13644],[-71.48117,-14.13564],[-71.46063,-14.12167],[-71.46092,-14.10874],[-71.44333,-14.10816],[-71.44034,-14.10367],[-71.42385,-14.107],[-71.41683,-14.11512],[-71.42634,-14.12329],[-71.43041,-14.13829],[-71.44092,-14.15213],[-71.42504,-14.18583],[-71.41794,-14.19136],[-71.41601,-14.20989],[-71.40621,-14.20063],[-71.39678,-14.20085],[-71.39712,-14.20857],[-71.38023,-14.22419],[-71.36674,-14.2299],[-71.3662,-14.24834],[-71.37259,-14.27307],[-71.37085,-14.2795],[-71.35324,-14.28703],[-71.33549,-14.27892],[-71.32701,-14.29066],[-71.32633,-14.30818],[-71.33765,-14.32538],[-71.33534,-14.33136],[-71.31637,-14.32613],[-71.31491,-14.31865],[-71.30372,-14.32038],[-71.29291,-14.31355],[-71.27195,-14.32557],[-71.25604,-14.32536],[-71.24882,-14.33127],[-71.25041,-14.34782],[-71.24625,-14.36857],[-71.25905,-14.37091],[-71.25521,-14.38464],[-71.23219,-14.40035],[-71.22677,-14.41747],[-71.22135,-14.41527],[-71.20992,-14.42909],[-71.19295,-14.4295],[-71.16824,-14.44595],[-71.15459,-14.43851],[-71.13997,-14.44135],[-71.13581,-14.46358],[-71.09587,-14.45896],[-71.08669,-14.47302],[-71.08093,-14.47112],[-71.08078,-14.4583],[-71.07315,-14.45024],[-71.03648,-14.45165],[-71.02708,-14.43044],[-71.01434,-14.42736],[-70.99,-14.42969],[-70.97872,-14.41666]],[[-71.28426,-14.43558],[-71.27847,-14.45143],[-71.26771,-14.4656],[-71.24368,-14.48395],[-71.22389,-14.50258],[-71.21697,-14.50373],[-71.19492,-14.51783],[-71.16986,-14.5237],[-71.15651,-14.5],[-71.16684,-14.48391],[-71.17726,-14.48543],[-71.19719,-14.47604],[-71.19966,-14.46992],[-71.23505,-14.45261],[-71.24817,-14.43888],[-71.25748,-14.44052],[-71.26972,-14.43463],[-71.28426,-14.43558]]]}},{"type":"Feature","properties":{"ubigeo":"0806","nombre":"Canchis"},"geometry":{"type":"Polygon","coordinates":[[[-70.78982,-14.07882],[-70.80561,-14.09928],[-70.80893,-14.1242],[-70.82168,-14.13382],[-70.8209,-14.14],[-70.8491,-14.15085],[-70.86327,-14.16074],[-70.86683,-14.16908],[-70.88618,-14.17141],[-70.88961,-14.18504],[-70.88214,-14.19879],[-70.89458,-14.20911],[-70.89935,-14.2293],[-70.8821,-14.25379],[-70.88058,-14.27088],[-70.8917,-14.27384],[-70.8917,-14.28401],[-70.91393,-14.30442],[-70.91297,-14.32758],[-70.90783,-14.33397],[-70.91771,-14.34472],[-70.92642,-14.34007],[-70.96258,-14.36185],[-70.97048,-14.37828],[-70.9852,-14.37915],[-70.97869,-14.39448],[-70.98582,-14.40673],[-70.97872,-14.41666],[-70.99,-14.42969],[-71.01434,-14.42736],[-71.02708,-14.43044],[-71.03648,-14.45165],[-71.07315,-14.45024],[-71.08078,-14.4583],[-71.08093,-14.47112],[-71.08669,-14.47302],[-71.09587,-14.45896],[-71.13581,-14.46358],[-71.13997,-14.44135],[-71.15459,-14.43851],[-71.16824,-14.44595],[-71.19295,-14.4295],[-71.20992,-14.42909],[-71.22135,-14.41527],[-71.22677,-14.41747],[-71.23219,-14.40035],[-71.25521,-14.38464],[-71.25905,-14.37091],[-71.24625,-14.36857],[-71.25041,-14.34782],[-71.24882,-14.33127],[-71.25604,-14.32536],[-71.27195,-14.32557],[-71.29291,-14.31355],[-71.30372,-14.32038],[-71.31491,-14.31865],[-71.31637,-14.32613],[-71.33534,-14.33136],[-71.33765,-14.32538],[-71.32633,-14.30818],[-71.32701,-14.29066],[-71.33549,-14.27892],[-71.35324,-14.28703],[-71.37085,-14.2795],[-71.37259,-14.27307],[-71.3662,-14.24834],[-71.36674,-14.2299],[-71.38023,-14.22419],[-71.39712,-14.20857],[-71.39678,-14.20085],[-71.40621,-14.20063],[-71.41601,-14.20989],[-71.41794,-14.19136],[-71.42504,-14.18583],[-71.44092,-14.15213],[-71.43041,-14.13829],[-71.42634,-14.12329],[-71.41683,-14.11512],[-71.42385,-14.107],[-71.44034,-14.10367],[-71.44411,-14.09649],[-71.43925,-14.07387],[-71.44794,-14.05562],[-71.45776,-14.04625],[-71.4772,-14.03736],[-71.48274,-14.01793],[-71.48962,-14.01294],[-71.49097,-13.98895],[-71.5134,-13.98338],[-71.51688,-13.96722],[-71.51359,-13.96079],[-71.48962,-13.94404],[-71.47848,-13.92978],[-71.46686,-13.92704],[-71.45672,-13.93737],[-71.44112,-13.93609],[-71.44098,-13.926],[-71.42272,-13.92577],[-71.41243,-13.91601],[-71.40835,-13.8969],[-71.39318,-13.89621],[-71.38729,-13.90966],[-71.37346,-13.92034],[-71.35222,-13.90116],[-71.34112,-13.90028],[-71.32881,-13.90838],[-71.32023,-13.90599],[-71.30782,-13.89001],[-71.31142,-13.87586],[-71.3008,-13.87298],[-71.30443,-13.85757],[-71.28931,-13.82771],[-71.25157,-13.82461],[-71.23708,-13.81486],[-71.22362,-13.78039],[-71.21446,-13.77857],[-71.2081,-13.78704],[-71.1931,-13.79315],[-71.18322,-13.78872],[-71.17952,-13.76812],[-71.16377,-13.7432],[-71.13829,-13.74406],[-71.13222,-13.75598],[-71.12219,-13.76159],[-71.10354,-13.76038],[-71.08097,-13.7255],[-71.04873,-13.74725],[-71.03557,-13.75323],[-71.02551,-13.75008],[-70.99164,-13.76134],[-70.98214,-13.7772],[-70.97205,-13.77963],[-70.96852,-13.79636],[-70.95114,-13.80492],[-70.93501,-13.80062],[-70.9137,-13.81417],[-70.90707,-13.8092],[-70.90515,-13.79307],[-70.88832,-13.77791],[-70.87021,-13.78594],[-70.8625,-13.80029],[-70.88025,-13.81807],[-70.88123,-13.83284],[-70.86128,-13.84331],[-70.85351,-13.85375],[-70.83875,-13.85281],[-70.83127,-13.85893],[-70.82562,-13.87873],[-70.83086,-13.89508],[-70.8107,-13.90507],[-70.81104,-13.9186],[-70.83304,-13.9381],[-70.84562,-13.9622],[-70.84394,-13.97537],[-70.85198,-14.0005],[-70.84047,-14.00727],[-70.85353,-14.01286],[-70.86181,-14.02623],[-70.84819,-14.05555],[-70.8326,-14.06066],[-70.82947,-14.07634],[-70.82037,-14.06845],[-70.79588,-14.07212],[-70.78982,-14.07882]]]}},{"type":"Feature","properties":{"ubigeo":"0807","nombre":"Chumbivilcas"},"geometry":{"type":"Polygon","coordinates":[[[-71.59572,-14.14988],[-71.58797,-14.14909],[-71.56858,-14.15837],[-71.54988,-14.1752],[-71.53873,-14.20011],[-71.52682,-14.21981],[-71.51497,-14.25255],[-71.52345,-14.26425],[-71.54912,-14.26238],[-71.54779,-14.27506],[-71.5546,-14.29295],[-71.55025,-14.30337],[-71.55787,-14.31378],[-71.5541,-14.32791],[-71.56014,-14.34576],[-71.55375,-14.35066],[-71.55523,-14.36347],[-71.56864,-14.37505],[-71.55342,-14.38483],[-71.55559,-14.39367],[-71.54975,-14.40552],[-71.55441,-14.41074],[-71.57594,-14.41828],[-71.58782,-14.43765],[-71.60914,-14.44506],[-71.60497,-14.47757],[-71.62319,-14.49724],[-71.6463,-14.50244],[-71.65181,-14.52732],[-71.64776,-14.53217],[-71.64873,-14.55229],[-71.66201,-14.56453],[-71.68882,-14.56657],[-71.70407,-14.57333],[-71.71239,-14.58234],[-71.7104,-14.60455],[-71.72239,-14.61745],[-71.75377,-14.62494],[-71.75184,-14.63501],[-71.73838,-14.64852],[-71.7395,-14.6598],[-71.7481,-14.66071],[-71.76034,-14.67933],[-71.77775,-14.68252],[-71.78251,-14.69952],[-71.80204,-14.70929],[-71.81044,-14.70408],[-71.82238,-14.7059],[-71.83574,-14.70018],[-71.84252,-14.69153],[-71.85815,-14.69231],[-71.8687,-14.71129],[-71.88062,-14.71037],[-71.89265,-14.74651],[-71.87904,-14.75651],[-71.90207,-14.76682],[-71.8939,-14.7896],[-71.91442,-14.79207],[-71.92899,-14.78496],[-71.93058,-14.76114],[-71.94317,-14.74529],[-71.95847,-14.73311],[-71.95781,-14.72602],[-71.94597,-14.71082],[-71.95179,-14.70431],[-71.93066,-14.68809],[-71.94122,-14.68532],[-71.95116,-14.6725],[-71.95844,-14.67108],[-71.97619,-14.65405],[-71.97621,-14.64591],[-71.98791,-14.63295],[-72.01467,-14.64837],[-72.01583,-14.65839],[-72.02535,-14.6741],[-72.03615,-14.68178],[-72.04186,-14.69437],[-72.04498,-14.71648],[-72.04195,-14.72015],[-72.04779,-14.73877],[-72.03709,-14.76966],[-72.04096,-14.77877],[-72.0345,-14.79294],[-72.04054,-14.80976],[-72.02526,-14.82346],[-72.02529,-14.82963],[-72.04038,-14.83969],[-72.04639,-14.88711],[-72.06309,-14.88788],[-72.07687,-14.88347],[-72.09025,-14.8568],[-72.10766,-14.84724],[-72.12869,-14.8306],[-72.13809,-14.8133],[-72.13168,-14.7894],[-72.1447,-14.77771],[-72.15401,-14.77713],[-72.15967,-14.78634],[-72.16525,-14.78054],[-72.19057,-14.77883],[-72.20237,-14.78837],[-72.20279,-14.79787],[-72.23911,-14.81224],[-72.25229,-14.80366],[-72.26465,-14.81112],[-72.29192,-14.81837],[-72.31544,-14.83386],[-72.35014,-14.82779],[-72.3625,-14.82878],[-72.39568,-14.82501],[-72.40648,-14.82709],[-72.41863,-14.82024],[-72.41811,-14.81067],[-72.43538,-14.78991],[-72.4509,-14.78411],[-72.46918,-14.78699],[-72.46864,-14.76402],[-72.47957,-14.75486],[-72.48697,-14.74063],[-72.48264,-14.73041],[-72.48846,-14.72346],[-72.48613,-14.71254],[-72.47194,-14.70579],[-72.46026,-14.67622],[-72.47177,-14.6614],[-72.46378,-14.6425],[-72.46489,-14.62075],[-72.4617,-14.60587],[-72.46943,-14.59118],[-72.48399,-14.58202],[-72.4847,-14.5736],[-72.50291,-14.55166],[-72.4942,-14.54563],[-72.49164,-14.53354],[-72.47317,-14.51954],[-72.45976,-14.50447],[-72.4427,-14.4946],[-72.4405,-14.48175],[-72.42746,-14.47902],[-72.40857,-14.48373],[-72.39308,-14.48185],[-72.38186,-14.46747],[-72.36392,-14.45976],[-72.35763,-14.43596],[-72.33877,-14.42833],[-72.3172,-14.44069],[-72.30569,-14.42875],[-72.28902,-14.42248],[-72.29567,-14.41188],[-72.28045,-14.41078],[-72.26978,-14.40445],[-72.24951,-14.40293],[-72.24874,-14.38614],[-72.24039,-14.36151],[-72.23952,-14.34847],[-72.22455,-14.34908],[-72.21622,-14.33409],[-72.20754,-14.33177],[-72.20558,-14.32025],[-72.18711,-14.31322],[-72.18659,-14.3048],[-72.17028,-14.29118],[-72.16996,-14.27383],[-72.16117,-14.26379],[-72.14321,-14.25617],[-72.13627,-14.25982],[-72.11568,-14.24556],[-72.09924,-14.22943],[-72.08579,-14.20906],[-72.07648,-14.20743],[-72.08905,-14.19096],[-72.0952,-14.17373],[-72.0879,-14.16322],[-72.06149,-14.14185],[-72.05667,-14.12881],[-72.06444,-14.11588],[-72.05771,-14.10721],[-72.0679,-14.07654],[-72.06342,-14.06415],[-72.06262,-14.0447],[-72.05315,-14.03153],[-72.05167,-14.01239],[-72.05815,-13.9871],[-72.06012,-13.96568],[-72.05568,-13.93485],[-72.01662,-13.94822],[-71.98548,-13.94684],[-71.96804,-13.96034],[-71.95924,-13.97566],[-71.9646,-13.98754],[-71.95693,-13.99318],[-71.93819,-13.97952],[-71.93721,-13.99144],[-71.94424,-14.00091],[-71.93295,-14.0286],[-71.92133,-14.03775],[-71.91022,-14.05935],[-71.91096,-14.0927],[-71.90357,-14.10722],[-71.90824,-14.11729],[-71.90158,-14.13371],[-71.90855,-14.14934],[-71.91726,-14.155],[-71.90635,-14.15951],[-71.8989,-14.17451],[-71.88951,-14.1817],[-71.88597,-14.19371],[-71.86611,-14.20432],[-71.84137,-14.20083],[-71.83315,-14.20383],[-71.82555,-14.19765],[-71.8102,-14.20007],[-71.79954,-14.18022],[-71.78178,-14.19136],[-71.76372,-14.19242],[-71.75585,-14.19947],[-71.75643,-14.21273],[-71.74596,-14.2184],[-71.74938,-14.22509],[-71.74071,-14.24001],[-71.74031,-14.25378],[-71.75948,-14.26006],[-71.74812,-14.26676],[-71.74493,-14.27535],[-71.73038,-14.26567],[-71.72046,-14.2666],[-71.70313,-14.27842],[-71.69104,-14.27789],[-71.67962,-14.2647],[-71.68539,-14.25364],[-71.68316,-14.2295],[-71.67684,-14.22284],[-71.67635,-14.20329],[-71.68256,-14.14575],[-71.6896,-14.13284],[-71.69998,-14.12712],[-71.69971,-14.11629],[-71.67822,-14.11792],[-71.64976,-14.12852],[-71.64435,-14.13352],[-71.62491,-14.13668],[-71.6092,-14.15388],[-71.59572,-14.14988]]]}},{"type":"Feature","properties":{"ubigeo":"0808","nombre":"Espinar"},"geometry":{"type":"Polygon","coordinates":[[[-70.9936,-15.08459],[-70.99436,-15.09338],[-70.98032,-15.10635],[-70.97754,-15.14466],[-70.98201,-15.1471],[-70.9719,-15.17988],[-70.97291,-15.19655],[-70.9625,-15.21564],[-70.97032,-15.23306],[-70.98528,-15.24903],[-70.97677,-15.26095],[-70.97342,-15.27503],[-70.9523,-15.28984],[-70.95101,-15.30663],[-70.95793,-15.31823],[-70.97755,-15.32041],[-70.98389,-15.31665],[-71.00612,-15.33523],[-71.01228,-15.34375],[-71.01988,-15.37326],[-71.03642,-15.39195],[-71.03897,-15.40517],[-71.04408,-15.41812],[-71.06213,-15.43396],[-71.07545,-15.4383],[-71.07175,-15.44927],[-71.08829,-15.45829],[-71.10179,-15.45483],[-71.11926,-15.42758],[-71.12943,-15.42817],[-71.13872,-15.43789],[-71.15327,-15.43983],[-71.17433,-15.42446],[-71.16904,-15.39809],[-71.17158,-15.38849],[-71.16578,-15.37395],[-71.15034,-15.36249],[-71.15381,-15.34085],[-71.16267,-15.33248],[-71.16624,-15.32087],[-71.1629,-15.30891],[-71.1654,-15.28888],[-71.18051,-15.27516],[-71.19016,-15.27439],[-71.20068,-15.26187],[-71.19691,-15.2526],[-71.20184,-15.24545],[-71.19178,-15.23325],[-71.18317,-15.23354],[-71.17196,-15.21656],[-71.16033,-15.20777],[-71.16052,-15.19829],[-71.17438,-15.17643],[-71.18446,-15.17021],[-71.16835,-15.14904],[-71.15806,-15.14729],[-71.14381,-15.12898],[-71.14358,-15.12056],[-71.16165,-15.1093],[-71.1633,-15.09972],[-71.18258,-15.08892],[-71.19536,-15.09019],[-71.20684,-15.07189],[-71.20769,-15.05049],[-71.21539,-15.04889],[-71.22729,-15.06946],[-71.24191,-15.0578],[-71.25365,-15.05762],[-71.26692,-15.06591],[-71.26023,-15.07691],[-71.28728,-15.09719],[-71.29756,-15.10862],[-71.31563,-15.12022],[-71.32491,-15.11689],[-71.32915,-15.10038],[-71.35425,-15.0923],[-71.36185,-15.07914],[-71.37268,-15.07911],[-71.37974,-15.06455],[-71.38751,-15.06126],[-71.39687,-15.04524],[-71.41737,-15.03373],[-71.42673,-15.00212],[-71.44138,-14.99668],[-71.44826,-14.97943],[-71.46504,-14.98407],[-71.50705,-14.97628],[-71.51017,-15.00463],[-71.50367,-15.02733],[-71.4846,-15.03933],[-71.48587,-15.0591],[-71.51171,-15.07945],[-71.5396,-15.07429],[-71.54649,-15.06849],[-71.57063,-15.06121],[-71.57778,-15.08787],[-71.58383,-15.096],[-71.58914,-15.12888],[-71.60149,-15.13264],[-71.60291,-15.13918],[-71.61761,-15.14606],[-71.63602,-15.13914],[-71.64903,-15.12067],[-71.66372,-15.10858],[-71.66795,-15.0919],[-71.71558,-15.08816],[-71.74112,-15.07994],[-71.75637,-15.08465],[-71.76549,-15.07868],[-71.77254,-15.08244],[-71.7863,-15.06955],[-71.80296,-15.06744],[-71.81548,-15.07822],[-71.83763,-15.07484],[-71.84932,-15.04509],[-71.82293,-15.03499],[-71.81136,-15.02357],[-71.76746,-15.01052],[-71.76347,-14.9948],[-71.77024,-14.98448],[-71.74596,-14.93987],[-71.76623,-14.92805],[-71.78946,-14.90707],[-71.79762,-14.89598],[-71.81668,-14.90734],[-71.8276,-14.90606],[-71.82892,-14.88798],[-71.85209,-14.88809],[-71.86342,-14.87336],[-71.85467,-14.85766],[-71.86429,-14.84551],[-71.87261,-14.82398],[-71.87667,-14.80044],[-71.8939,-14.7896],[-71.90207,-14.76682],[-71.87904,-14.75651],[-71.89265,-14.74651],[-71.88062,-14.71037],[-71.8687,-14.71129],[-71.85815,-14.69231],[-71.84252,-14.69153],[-71.83574,-14.70018],[-71.82238,-14.7059],[-71.81044,-14.70408],[-71.80204,-14.70929],[-71.78251,-14.69952],[-71.77775,-14.68252],[-71.76034,-14.67933],[-71.7481,-14.66071],[-71.7395,-14.6598],[-71.73838,-14.64852],[-71.75184,-14.63501],[-71.75377,-14.62494],[-71.72239,-14.61745],[-71.7104,-14.60455],[-71.71239,-14.58234],[-71.70407,-14.57333],[-71.68882,-14.56657],[-71.66201,-14.56453],[-71.64873,-14.55229],[-71.64776,-14.53217],[-71.63209,-14.52953],[-71.61538,-14.53325],[-71.60986,-14.54337],[-71.57941,-14.54769],[-71.56744,-14.5414],[-71.54357,-14.53799],[-71.53216,-14.56908],[-71.49875,-14.58086],[-71.48928,-14.57852],[-71.48775,-14.58634],[-71.45547,-14.60054],[-71.44439,-14.61389],[-71.43766,-14.61255],[-71.42665,-14.62181],[-71.41717,-14.60207],[-71.38311,-14.60908],[-71.37433,-14.62036],[-71.33503,-14.61643],[-71.31458,-14.65782],[-71.30797,-14.66016],[-71.29467,-14.6414],[-71.27524,-14.65093],[-71.25712,-14.65307],[-71.24782,-14.64059],[-71.23122,-14.6463],[-71.21317,-14.64759],[-71.18776,-14.62854],[-71.18318,-14.61477],[-71.16769,-14.62653],[-71.16052,-14.62728],[-71.14895,-14.64022],[-71.12903,-14.64186],[-71.11794,-14.64892],[-71.11368,-14.66673],[-71.08776,-14.69715],[-71.08951,-14.71319],[-71.06322,-14.73652],[-71.05324,-14.75433],[-71.03569,-14.75212],[-71.02776,-14.76007],[-71.01309,-14.73969],[-70.98153,-14.75549],[-70.97548,-14.76413],[-70.98371,-14.78603],[-70.97732,-14.80783],[-70.97927,-14.82515],[-70.99578,-14.83137],[-70.99659,-14.84394],[-70.99147,-14.8609],[-70.99661,-14.8857],[-70.99486,-14.89904],[-70.98629,-14.91548],[-70.99057,-14.92687],[-70.98474,-14.94607],[-70.99664,-14.95393],[-70.99625,-14.96372],[-71.00405,-14.97188],[-71.00393,-15.00135],[-70.99657,-15.01673],[-70.99314,-15.04235],[-70.99655,-15.05435],[-70.9924,-15.0703],[-70.9936,-15.08459]]]}},{"type":"Feature","properties":{"ubigeo":"0809","nombre":"La Convención"},"geometry":{"type":"Polygon","coordinates":[[[-72.07113,-12.51148],[-72.07539,-12.5176],[-72.08865,-12.51511],[-72.11117,-12.54008],[-72.12451,-12.5485],[-72.12135,-12.57876],[-72.12917,-12.59123],[-72.13538,-12.61697],[-72.14178,-12.6264],[-72.16043,-12.64029],[-72.17915,-12.64773],[-72.18577,-12.65714],[-72.20319,-12.65613],[-72.22658,-12.66484],[-72.23731,-12.65944],[-72.25648,-12.65811],[-72.26818,-12.65343],[-72.28396,-12.65566],[-72.31642,-12.64894],[-72.33381,-12.63628],[-72.36577,-12.63104],[-72.36993,-12.63926],[-72.34744,-12.657],[-72.33661,-12.65867],[-72.32209,-12.66876],[-72.34153,-12.68456],[-72.35296,-12.68664],[-72.35145,-12.69448],[-72.36289,-12.71856],[-72.3626,-12.75554],[-72.36625,-12.76754],[-72.36437,-12.78158],[-72.35523,-12.78878],[-72.36117,-12.80471],[-72.36226,-12.82441],[-72.3544,-12.84658],[-72.33344,-12.86584],[-72.33824,-12.87807],[-72.32234,-12.9028],[-72.32017,-12.91479],[-72.29584,-12.9337],[-72.28653,-12.92987],[-72.28042,-12.93855],[-72.26979,-12.93734],[-72.24416,-12.95006],[-72.22147,-12.9566],[-72.21712,-12.96734],[-72.21589,-12.99133],[-72.19965,-13.00409],[-72.18229,-13.00672],[-72.18063,-13.01689],[-72.16932,-13.02424],[-72.17914,-13.05925],[-72.18038,-13.07147],[-72.19063,-13.09615],[-72.19782,-13.10561],[-72.20879,-13.09954],[-72.22157,-13.0994],[-72.22485,-13.11539],[-72.23167,-13.12629],[-72.23011,-13.14293],[-72.24619,-13.13876],[-72.25228,-13.12436],[-72.26799,-13.11915],[-72.27641,-13.12281],[-72.2813,-13.1077],[-72.29469,-13.10868],[-72.30609,-13.11846],[-72.30071,-13.13573],[-72.32597,-13.16421],[-72.33593,-13.15874],[-72.3668,-13.16067],[-72.38955,-13.17413],[-72.41062,-13.16854],[-72.41725,-13.15716],[-72.43639,-13.15162],[-72.44629,-13.14091],[-72.44878,-13.12791],[-72.45996,-13.1219],[-72.46907,-13.12372],[-72.49029,-13.09973],[-72.52196,-13.09314],[-72.54206,-13.08235],[-72.55105,-13.09386],[-72.57016,-13.09291],[-72.59977,-13.10724],[-72.5887,-13.13618],[-72.58,-13.1453],[-72.57942,-13.17256],[-72.56656,-13.17527],[-72.57141,-13.18741],[-72.56437,-13.21228],[-72.55172,-13.21887],[-72.55442,-13.23008],[-72.55157,-13.26129],[-72.55512,-13.27902],[-72.54434,-13.30465],[-72.54668,-13.33261],[-72.55852,-13.33659],[-72.5651,-13.35032],[-72.57866,-13.36158],[-72.59379,-13.36062],[-72.61438,-13.38362],[-72.62972,-13.37465],[-72.65253,-13.39659],[-72.68534,-13.40667],[-72.69493,-13.421],[-72.71103,-13.4153],[-72.72208,-13.40472],[-72.73059,-13.41248],[-72.7444,-13.41534],[-72.76133,-13.42963],[-72.77286,-13.44888],[-72.78946,-13.45792],[-72.79702,-13.45124],[-72.79341,-13.42612],[-72.80575,-13.42194],[-72.81626,-13.42652],[-72.8264,-13.42182],[-72.83827,-13.42707],[-72.86579,-13.41588],[-72.88631,-13.41587],[-72.89409,-13.39013],[-72.92596,-13.38307],[-72.95191,-13.38961],[-72.97649,-13.3882],[-72.98763,-13.40429],[-72.99988,-13.41082],[-73.01513,-13.42667],[-73.03157,-13.41354],[-73.04405,-13.41196],[-73.0588,-13.43655],[-73.07488,-13.44306],[-73.10338,-13.44859],[-73.10888,-13.43574],[-73.12609,-13.44005],[-73.14411,-13.41912],[-73.14987,-13.42328],[-73.14865,-13.43521],[-73.16016,-13.44334],[-73.16754,-13.45228],[-73.17619,-13.45121],[-73.18612,-13.44113],[-73.18974,-13.42736],[-73.18635,-13.41906],[-73.20442,-13.41173],[-73.21188,-13.41906],[-73.22768,-13.41078],[-73.23611,-13.41114],[-73.25813,-13.39513],[-73.25985,-13.38454],[-73.27791,-13.37242],[-73.28735,-13.37194],[-73.28958,-13.35499],[-73.30454,-13.34883],[-73.31242,-13.33659],[-73.3114,-13.32589],[-73.31959,-13.3226],[-73.32966,-13.30862],[-73.34075,-13.31191],[-73.34985,-13.29285],[-73.34621,-13.27844],[-73.35314,-13.2699],[-73.36435,-13.26943],[-73.3712,-13.24548],[-73.38108,-13.24027],[-73.38232,-13.22487],[-73.39861,-13.21084],[-73.40983,-13.21133],[-73.41441,-13.19455],[-73.40578,-13.19148],[-73.40269,-13.18069],[-73.40945,-13.17368],[-73.40752,-13.16291],[-73.41582,-13.15288],[-73.42191,-13.13239],[-73.43185,-13.1394],[-73.43914,-13.12827],[-73.45372,-13.12269],[-73.44447,-13.10211],[-73.45585,-13.0913],[-73.44884,-13.08028],[-73.46193,-13.07998],[-73.46539,-13.06731],[-73.48087,-13.05643],[-73.48913,-13.06779],[-73.49076,-13.04371],[-73.48088,-13.03885],[-73.47735,-13.00056],[-73.48866,-12.99941],[-73.49968,-13.01019],[-73.51701,-13.00712],[-73.52166,-12.99069],[-73.53003,-12.98527],[-73.50804,-12.9719],[-73.51068,-12.95543],[-73.5009,-12.94657],[-73.49593,-12.93346],[-73.50105,-12.93048],[-73.52227,-12.93894],[-73.5335,-12.92442],[-73.52243,-12.90754],[-73.52368,-12.89948],[-73.56065,-12.86887],[-73.57914,-12.86065],[-73.59081,-12.84429],[-73.59002,-12.82417],[-73.60384,-12.81087],[-73.61545,-12.80802],[-73.62618,-12.78868],[-73.62567,-12.76499],[-73.64478,-12.74485],[-73.66057,-12.73263],[-73.65584,-12.72504],[-73.67987,-12.69551],[-73.68246,-12.68781],[-73.69675,-12.68443],[-73.69833,-12.67213],[-73.71749,-12.65854],[-73.72555,-12.63665],[-73.73597,-12.63915],[-73.74342,-12.65153],[-73.76456,-12.64784],[-73.78582,-12.62344],[-73.80117,-12.61302],[-73.80453,-12.57761],[-73.81285,-12.55702],[-73.83093,-12.53078],[-73.84581,-12.53913],[-73.85536,-12.5299],[-73.85222,-12.49999],[-73.85471,-12.48752],[-73.86859,-12.46396],[-73.88679,-12.4054],[-73.89993,-12.40296],[-73.90529,-12.3933],[-73.92682,-12.37967],[-73.94091,-12.36557],[-73.94574,-12.35244],[-73.97007,-12.34781],[-73.96607,-12.33802],[-73.974,-12.30576],[-73.97226,-12.29465],[-73.97223,-12.29433],[-73.95084,-12.28118],[-73.92493,-12.28319],[-73.8998,-12.267],[-73.88334,-12.26225],[-73.8782,-12.24883],[-73.86306,-12.2434],[-73.8382,-12.24252],[-73.82054,-12.24611],[-73.79562,-12.26228],[-73.77898,-12.26278],[-73.76141,-12.25325],[-73.752,-12.25542],[-73.73694,-12.26679],[-73.72274,-12.26376],[-73.70781,-12.26791],[-73.69088,-12.291],[-73.68907,-12.29941],[-73.66496,-12.32113],[-73.65598,-12.35166],[-73.64465,-12.37181],[-73.63363,-12.37901],[-73.62882,-12.37383],[-73.5991,-12.3859],[-73.58607,-12.36618],[-73.58644,-12.34867],[-73.59205,-12.33423],[-73.5867,-12.33001],[-73.58495,-12.31311],[-73.57433,-12.27684],[-73.55895,-12.27489],[-73.54812,-12.26093],[-73.53374,-12.25898],[-73.5168,-12.24911],[-73.50755,-12.25287],[-73.49244,-12.25046],[-73.46987,-12.23689],[-73.46965,-12.21997],[-73.44606,-12.16029],[-73.43952,-12.15201],[-73.42901,-12.15261],[-73.41742,-12.14527],[-73.39699,-12.13947],[-73.38175,-12.14058],[-73.36189,-12.13596],[-73.35537,-12.11425],[-73.38886,-12.10089],[-73.40045,-12.08859],[-73.3913,-12.07674],[-73.40034,-12.07346],[-73.40857,-12.06142],[-73.39887,-12.04575],[-73.39788,-12.02094],[-73.40681,-12.00557],[-73.41812,-12.01506],[-73.43769,-11.98963],[-73.43032,-11.98126],[-73.44519,-11.95925],[-73.44113,-11.9442],[-73.44713,-11.93495],[-73.46266,-11.92981],[-73.46372,-11.9233],[-73.48572,-11.8923],[-73.49053,-11.87817],[-73.51113,-11.86241],[-73.54558,-11.85229],[-73.55526,-11.85236],[-73.57751,-11.83648],[-73.58166,-11.80696],[-73.57991,-11.76939],[-73.57052,-11.76289],[-73.57448,-11.73415],[-73.58318,-11.71883],[-73.60861,-11.68521],[-73.61241,-11.67466],[-73.60827,-11.66016],[-73.59436,-11.64033],[-73.58203,-11.61558],[-73.55965,-11.59205],[-73.50324,-11.56382],[-73.49213,-11.5518],[-73.48713,-11.53492],[-73.47618,-11.53904],[-73.44973,-11.53194],[-73.45381,-11.50533],[-73.46904,-11.48227],[-73.47972,-11.47136],[-73.46905,-11.44522],[-73.45584,-11.4402],[-73.45258,-11.42473],[-73.4433,-11.40968],[-73.4301,-11.39992],[-73.41975,-11.38394],[-73.40856,-11.38598],[-73.40164,-11.37585],[-73.38626,-11.37127],[-73.37866,-11.35074],[-73.35168,-11.33234],[-73.34617,-11.31345],[-73.33337,-11.30899],[-73.29688,-11.30837],[-73.29101,-11.31206],[-73.2689,-11.3097],[-73.25745,-11.31271],[-73.23713,-11.29951],[-73.21319,-11.29908],[-73.2033,-11.28999],[-73.19145,-11.29208],[-73.18646,-11.28598],[-73.1684,-11.29332],[-73.15868,-11.29092],[-73.13166,-11.29393],[-73.08214,-11.27328],[-73.06774,-11.28459],[-73.02458,-11.26312],[-73.01857,-11.23417],[-72.97706,-11.21229],[-72.96789,-11.21582],[-72.97548,-11.22435],[-72.97422,-11.25068],[-72.96912,-11.25211],[-72.96551,-11.26843],[-72.95539,-11.26377],[-72.95357,-11.27472],[-72.93913,-11.28208],[-72.93709,-11.29275],[-72.95308,-11.29418],[-72.95472,-11.30547],[-72.93346,-11.30427],[-72.94197,-11.3225],[-72.94443,-11.30987],[-72.96074,-11.31639],[-72.95197,-11.32037],[-72.95191,-11.33063],[-72.94474,-11.33991],[-72.92585,-11.32731],[-72.92133,-11.33523],[-72.93367,-11.34381],[-72.93284,-11.35038],[-72.92237,-11.34338],[-72.89405,-11.35796],[-72.89496,-11.34838],[-72.87706,-11.36431],[-72.8615,-11.35469],[-72.85205,-11.36528],[-72.8451,-11.36257],[-72.8437,-11.37349],[-72.83349,-11.37866],[-72.84246,-11.38684],[-72.82178,-11.38963],[-72.81706,-11.37527],[-72.79429,-11.38429],[-72.7847,-11.37596],[-72.76335,-11.37161],[-72.73824,-11.34743],[-72.72424,-11.35006],[-72.7218,-11.36146],[-72.71417,-11.3474],[-72.70726,-11.35221],[-72.71446,-11.35862],[-72.70656,-11.38151],[-72.69862,-11.38041],[-72.68861,-11.39683],[-72.68002,-11.38897],[-72.6644,-11.38719],[-72.66455,-11.39382],[-72.65032,-11.39831],[-72.64557,-11.41277],[-72.63212,-11.4064],[-72.63254,-11.41518],[-72.62312,-11.41282],[-72.6174,-11.41933],[-72.62433,-11.42561],[-72.60321,-11.43261],[-72.60479,-11.42304],[-72.59566,-11.42056],[-72.59104,-11.43209],[-72.58082,-11.4308],[-72.58182,-11.43912],[-72.56693,-11.43182],[-72.5517,-11.43366],[-72.54613,-11.44691],[-72.54592,-11.43297],[-72.52588,-11.43936],[-72.51011,-11.42425],[-72.50308,-11.39884],[-72.48221,-11.39812],[-72.48723,-11.39405],[-72.46936,-11.38526],[-72.45933,-11.38883],[-72.44743,-11.38452],[-72.44985,-11.37148],[-72.44118,-11.37499],[-72.43604,-11.3661],[-72.42513,-11.36849],[-72.42589,-11.35803],[-72.41294,-11.3516],[-72.40648,-11.35705],[-72.40066,-11.34496],[-72.38738,-11.34765],[-72.37883,-11.33264],[-72.36568,-11.33484],[-72.34995,-11.32362],[-72.3393,-11.32382],[-72.33698,-11.31672],[-72.3233,-11.31676],[-72.32255,-11.32458],[-72.30771,-11.307],[-72.29469,-11.31568],[-72.28664,-11.31394],[-72.28018,-11.32605],[-72.27946,-11.33939],[-72.24886,-11.33332],[-72.24602,-11.34616],[-72.23926,-11.34506],[-72.24789,-11.38501],[-72.26669,-11.39647],[-72.28141,-11.42103],[-72.29255,-11.43327],[-72.29235,-11.45094],[-72.28746,-11.46665],[-72.28963,-11.48285],[-72.30398,-11.49784],[-72.29823,-11.50293],[-72.30563,-11.51594],[-72.30378,-11.53153],[-72.31263,-11.56542],[-72.30622,-11.57242],[-72.31551,-11.59558],[-72.32789,-11.60753],[-72.35094,-11.6218],[-72.35562,-11.63503],[-72.36963,-11.63029],[-72.37532,-11.64417],[-72.39048,-11.65127],[-72.38744,-11.65929],[-72.40529,-11.6748],[-72.41007,-11.69301],[-72.4282,-11.70518],[-72.42243,-11.73895],[-72.38463,-11.76238],[-72.38235,-11.77454],[-72.37077,-11.78497],[-72.37453,-11.79468],[-72.39179,-11.80952],[-72.3913,-11.82635],[-72.36563,-11.83785],[-72.3597,-11.84651],[-72.33215,-11.85553],[-72.34026,-11.86801],[-72.34751,-11.89127],[-72.3469,-11.91569],[-72.33827,-11.92421],[-72.33747,-11.96808],[-72.31184,-11.97444],[-72.28917,-11.97476],[-72.28237,-11.97948],[-72.28084,-11.99653],[-72.2593,-12.0063],[-72.27089,-12.02995],[-72.27249,-12.04738],[-72.26893,-12.05437],[-72.22965,-12.06178],[-72.18982,-12.05885],[-72.17373,-12.05981],[-72.14528,-12.06969],[-72.13152,-12.07132],[-72.09445,-12.08519],[-72.09583,-12.10076],[-72.09265,-12.13228],[-72.08756,-12.14269],[-72.10021,-12.17166],[-72.09197,-12.19101],[-72.1014,-12.2171],[-72.10551,-12.23806],[-72.08517,-12.24636],[-72.0753,-12.24326],[-72.05644,-12.25728],[-72.04891,-12.25401],[-72.03384,-12.26504],[-72.02999,-12.2863],[-72.01426,-12.29792],[-71.99089,-12.30601],[-71.97303,-12.32054],[-71.95883,-12.3201],[-71.94589,-12.33022],[-71.96189,-12.33817],[-71.97057,-12.35897],[-71.96297,-12.37146],[-71.97601,-12.39878],[-71.99378,-12.39922],[-72.00984,-12.40423],[-72.01748,-12.41518],[-72.03714,-12.42277],[-72.04646,-12.4224],[-72.04928,-12.43313],[-72.06149,-12.44045],[-72.0651,-12.47152],[-72.07087,-12.48886],[-72.07896,-12.49863],[-72.07113,-12.51148]]]}},{"type":"Feature","properties":{"ubigeo":"0810","nombre":"Paruro"},"geometry":{"type":"Polygon","coordinates":[[[-71.78976,-13.69836],[-71.79471,-13.71577],[-71.81602,-13.7483],[-71.81557,-13.75712],[-71.82908,-13.77898],[-71.83444,-13.81142],[-71.80768,-13.82731],[-71.80913,-13.83546],[-71.80101,-13.8511],[-71.79997,-13.87135],[-71.80797,-13.87137],[-71.80914,-13.89452],[-71.78697,-13.9003],[-71.77986,-13.90657],[-71.77841,-13.93755],[-71.75641,-13.9517],[-71.72938,-13.97518],[-71.72247,-14.0191],[-71.72418,-14.02764],[-71.71821,-14.06021],[-71.70773,-14.07885],[-71.69971,-14.11629],[-71.69998,-14.12712],[-71.6896,-14.13284],[-71.68256,-14.14575],[-71.67635,-14.20329],[-71.67684,-14.22284],[-71.68316,-14.2295],[-71.68539,-14.25364],[-71.67962,-14.2647],[-71.69104,-14.27789],[-71.70313,-14.27842],[-71.72046,-14.2666],[-71.73038,-14.26567],[-71.74493,-14.27535],[-71.74812,-14.26676],[-71.75948,-14.26006],[-71.74031,-14.25378],[-71.74071,-14.24001],[-71.74938,-14.22509],[-71.74596,-14.2184],[-71.75643,-14.21273],[-71.75585,-14.19947],[-71.76372,-14.19242],[-71.78178,-14.19136],[-71.79954,-14.18022],[-71.8102,-14.20007],[-71.82555,-14.19765],[-71.83315,-14.20383],[-71.84137,-14.20083],[-71.86611,-14.20432],[-71.88597,-14.19371],[-71.88951,-14.1817],[-71.8989,-14.17451],[-71.90635,-14.15951],[-71.91726,-14.155],[-71.90855,-14.14934],[-71.90158,-14.13371],[-71.90824,-14.11729],[-71.90357,-14.10722],[-71.91096,-14.0927],[-71.91022,-14.05935],[-71.92133,-14.03775],[-71.93295,-14.0286],[-71.94424,-14.00091],[-71.93721,-13.99144],[-71.93819,-13.97952],[-71.95693,-13.99318],[-71.9646,-13.98754],[-71.95924,-13.97566],[-71.96804,-13.96034],[-71.98548,-13.94684],[-72.01662,-13.94822],[-72.05568,-13.93485],[-72.06201,-13.92087],[-72.07783,-13.90673],[-72.08111,-13.88948],[-72.09095,-13.88581],[-72.09326,-13.87509],[-72.1056,-13.8512],[-72.10846,-13.83178],[-72.11933,-13.82153],[-72.13533,-13.78306],[-72.14755,-13.77924],[-72.16636,-13.74742],[-72.18674,-13.74594],[-72.20637,-13.72807],[-72.23188,-13.72172],[-72.22867,-13.71406],[-72.21848,-13.70144],[-72.19474,-13.68206],[-72.18857,-13.66665],[-72.16785,-13.64953],[-72.1406,-13.64422],[-72.13221,-13.6393],[-72.12149,-13.63779],[-72.11554,-13.62847],[-72.109,-13.63883],[-72.09137,-13.64916],[-72.0715,-13.64747],[-72.04558,-13.63453],[-72.02365,-13.61394],[-71.99587,-13.60886],[-71.96077,-13.61031],[-71.94786,-13.61741],[-71.94211,-13.61197],[-71.9284,-13.61544],[-71.91613,-13.59369],[-71.90548,-13.59942],[-71.86221,-13.61541],[-71.84316,-13.63079],[-71.83555,-13.641],[-71.82512,-13.66739],[-71.82716,-13.67144],[-71.81609,-13.68517],[-71.8038,-13.68481],[-71.78976,-13.69836]]]}},{"type":"Feature","properties":{"ubigeo":"0811","nombre":"Paucartambo"},"geometry":{"type":"Polygon","coordinates":[[[-71.71952,-13.55247],[-71.72627,-13.49447],[-71.73791,-13.47636],[-71.72872,-13.46906],[-71.73616,-13.46266],[-71.726,-13.45661],[-71.73962,-13.44709],[-71.74734,-13.43158],[-71.7548,-13.43131],[-71.7465,-13.42093],[-71.72509,-13.42081],[-71.72822,-13.40531],[-71.73968,-13.38559],[-71.74909,-13.37854],[-71.75479,-13.36564],[-71.78326,-13.34282],[-71.79453,-13.31738],[-71.80379,-13.31409],[-71.8213,-13.3196],[-71.83802,-13.30077],[-71.83153,-13.28996],[-71.8361,-13.27604],[-71.85825,-13.23965],[-71.86418,-13.22641],[-71.85482,-13.20863],[-71.85745,-13.19957],[-71.87342,-13.18181],[-71.87157,-13.1745],[-71.88006,-13.15308],[-71.86179,-13.13473],[-71.86362,-13.12474],[-71.88589,-13.10957],[-71.87848,-13.09842],[-71.8869,-13.09405],[-71.88889,-13.05349],[-71.90311,-13.04427],[-71.91059,-13.03147],[-71.90637,-13.02079],[-71.89754,-13.01677],[-71.88207,-12.99446],[-71.86389,-12.99304],[-71.84938,-12.98412],[-71.84518,-12.96257],[-71.83544,-12.96261],[-71.8285,-12.95423],[-71.82841,-12.92173],[-71.84122,-12.91918],[-71.85093,-12.89561],[-71.86361,-12.88968],[-71.86644,-12.8716],[-71.87701,-12.86391],[-71.87634,-12.84128],[-71.89141,-12.83321],[-71.89481,-12.81108],[-71.87753,-12.79579],[-71.89222,-12.78788],[-71.89445,-12.7768],[-71.90445,-12.77059],[-71.90668,-12.76125],[-71.91776,-12.75638],[-71.90035,-12.73336],[-71.88162,-12.73044],[-71.83283,-12.74218],[-71.81059,-12.74498],[-71.79976,-12.76527],[-71.76466,-12.76746],[-71.76021,-12.78792],[-71.74694,-12.79611],[-71.72352,-12.78667],[-71.70064,-12.76437],[-71.6927,-12.74678],[-71.69497,-12.73879],[-71.68383,-12.73315],[-71.66054,-12.72892],[-71.63946,-12.70968],[-71.6003,-12.70006],[-71.55344,-12.70834],[-71.55267,-12.72402],[-71.5473,-12.73445],[-71.53344,-12.73858],[-71.52353,-12.7472],[-71.51227,-12.74519],[-71.50265,-12.75617],[-71.49566,-12.78198],[-71.48606,-12.78752],[-71.46485,-12.8097],[-71.45832,-12.8259],[-71.44616,-12.82766],[-71.45597,-12.84005],[-71.44507,-12.84073],[-71.44249,-12.85361],[-71.44976,-12.85829],[-71.43591,-12.87652],[-71.4243,-12.87589],[-71.41524,-12.89426],[-71.39622,-12.88286],[-71.37562,-12.90061],[-71.36021,-12.89012],[-71.35992,-12.88251],[-71.34127,-12.89554],[-71.31541,-12.93073],[-71.30162,-12.9351],[-71.30067,-12.94185],[-71.27163,-12.95537],[-71.27172,-12.96184],[-71.25211,-12.96398],[-71.22972,-12.97196],[-71.22556,-12.96002],[-71.19506,-12.95997],[-71.17641,-12.97094],[-71.16353,-12.96585],[-71.159,-12.97868],[-71.17304,-12.98333],[-71.17826,-13.00373],[-71.16862,-13.01013],[-71.16623,-13.02252],[-71.17183,-13.03684],[-71.17332,-13.05644],[-71.16158,-13.06646],[-71.16818,-13.09409],[-71.16479,-13.11235],[-71.15114,-13.12412],[-71.14381,-13.14],[-71.1465,-13.1475],[-71.14024,-13.16973],[-71.13935,-13.1958],[-71.12763,-13.22686],[-71.12201,-13.23353],[-71.09106,-13.24032],[-71.06418,-13.2567],[-71.08158,-13.28114],[-71.08979,-13.28328],[-71.09685,-13.30327],[-71.11514,-13.30155],[-71.11204,-13.31724],[-71.12189,-13.33094],[-71.13102,-13.33608],[-71.13444,-13.34916],[-71.14347,-13.3579],[-71.15008,-13.39141],[-71.15877,-13.39471],[-71.16147,-13.40953],[-71.15083,-13.42434],[-71.14524,-13.44173],[-71.1485,-13.46315],[-71.14328,-13.47654],[-71.16031,-13.49758],[-71.1705,-13.49359],[-71.18023,-13.50055],[-71.19301,-13.52665],[-71.20168,-13.52008],[-71.21734,-13.51855],[-71.22302,-13.50629],[-71.25274,-13.48155],[-71.26632,-13.47972],[-71.26578,-13.46565],[-71.28106,-13.46675],[-71.29409,-13.4553],[-71.32046,-13.45487],[-71.32844,-13.46066],[-71.34342,-13.45969],[-71.3728,-13.4462],[-71.38344,-13.46935],[-71.40612,-13.49644],[-71.40386,-13.50435],[-71.41625,-13.51694],[-71.43223,-13.52012],[-71.43932,-13.50868],[-71.44868,-13.50722],[-71.46878,-13.49424],[-71.48258,-13.4698],[-71.49252,-13.46785],[-71.49889,-13.45801],[-71.52662,-13.46984],[-71.52466,-13.48262],[-71.51773,-13.48917],[-71.51317,-13.50713],[-71.51762,-13.51073],[-71.51205,-13.53566],[-71.51501,-13.55204],[-71.50792,-13.56408],[-71.51197,-13.57561],[-71.52631,-13.59093],[-71.54706,-13.59908],[-71.55915,-13.58045],[-71.55872,-13.57154],[-71.56906,-13.56218],[-71.57356,-13.56951],[-71.59353,-13.56276],[-71.62661,-13.56617],[-71.62003,-13.5891],[-71.62264,-13.60428],[-71.646,-13.62468],[-71.65575,-13.64001],[-71.67516,-13.63435],[-71.681,-13.6178],[-71.69633,-13.60526],[-71.70392,-13.58694],[-71.72429,-13.57237],[-71.72445,-13.56347],[-71.71619,-13.55977],[-71.71952,-13.55247]]]}},{"type":"Feature","properties":{"ubigeo":"0812","nombre":"Quispicanchi"},"geometry":{"type":"Polygon","coordinates":[[[-70.8625,-13.80029],[-70.87021,-13.78594],[-70.88832,-13.77791],[-70.90515,-13.79307],[-70.90707,-13.8092],[-70.9137,-13.81417],[-70.93501,-13.80062],[-70.95114,-13.80492],[-70.96852,-13.79636],[-70.97205,-13.77963],[-70.98214,-13.7772],[-70.99164,-13.76134],[-71.02551,-13.75008],[-71.03557,-13.75323],[-71.04873,-13.74725],[-71.08097,-13.7255],[-71.10354,-13.76038],[-71.12219,-13.76159],[-71.13222,-13.75598],[-71.13829,-13.74406],[-71.16377,-13.7432],[-71.17952,-13.76812],[-71.18322,-13.78872],[-71.1931,-13.79315],[-71.2081,-13.78704],[-71.21446,-13.77857],[-71.22362,-13.78039],[-71.23708,-13.81486],[-71.25157,-13.82461],[-71.28931,-13.82771],[-71.30443,-13.85757],[-71.3008,-13.87298],[-71.31142,-13.87586],[-71.30782,-13.89001],[-71.32023,-13.90599],[-71.32881,-13.90838],[-71.34112,-13.90028],[-71.35222,-13.90116],[-71.37346,-13.92034],[-71.38729,-13.90966],[-71.39318,-13.89621],[-71.40835,-13.8969],[-71.41243,-13.91601],[-71.42272,-13.92577],[-71.44098,-13.926],[-71.44112,-13.93609],[-71.45672,-13.93737],[-71.46686,-13.92704],[-71.47848,-13.92978],[-71.48962,-13.94404],[-71.51359,-13.96079],[-71.51688,-13.96722],[-71.52467,-13.96468],[-71.53695,-13.9413],[-71.54218,-13.94582],[-71.56239,-13.93471],[-71.56722,-13.92334],[-71.55865,-13.92218],[-71.56294,-13.90575],[-71.58977,-13.90204],[-71.60085,-13.90627],[-71.62018,-13.89727],[-71.62904,-13.88419],[-71.63808,-13.86112],[-71.63452,-13.84561],[-71.64755,-13.82337],[-71.66908,-13.82148],[-71.68538,-13.82591],[-71.70168,-13.81979],[-71.71247,-13.8203],[-71.7022,-13.79826],[-71.7033,-13.75952],[-71.71296,-13.74279],[-71.72714,-13.73301],[-71.73588,-13.73686],[-71.74652,-13.72634],[-71.74837,-13.71033],[-71.76391,-13.70814],[-71.78343,-13.69699],[-71.78976,-13.69836],[-71.8038,-13.68481],[-71.81609,-13.68517],[-71.82716,-13.67144],[-71.82512,-13.66739],[-71.83555,-13.641],[-71.84316,-13.63079],[-71.81982,-13.60776],[-71.83559,-13.59083],[-71.81591,-13.57624],[-71.81495,-13.5532],[-71.8209,-13.52175],[-71.80463,-13.50826],[-71.7796,-13.52563],[-71.77,-13.54563],[-71.76159,-13.54939],[-71.74915,-13.56357],[-71.74655,-13.57497],[-71.71952,-13.55247],[-71.71619,-13.55977],[-71.72445,-13.56347],[-71.72429,-13.57237],[-71.70392,-13.58694],[-71.69633,-13.60526],[-71.681,-13.6178],[-71.67516,-13.63435],[-71.65575,-13.64001],[-71.646,-13.62468],[-71.62264,-13.60428],[-71.62003,-13.5891],[-71.62661,-13.56617],[-71.59353,-13.56276],[-71.57356,-13.56951],[-71.56906,-13.56218],[-71.55872,-13.57154],[-71.55915,-13.58045],[-71.54706,-13.59908],[-71.52631,-13.59093],[-71.51197,-13.57561],[-71.50792,-13.56408],[-71.51501,-13.55204],[-71.51205,-13.53566],[-71.51762,-13.51073],[-71.51317,-13.50713],[-71.51773,-13.48917],[-71.52466,-13.48262],[-71.52662,-13.46984],[-71.49889,-13.45801],[-71.49252,-13.46785],[-71.48258,-13.4698],[-71.46878,-13.49424],[-71.44868,-13.50722],[-71.43932,-13.50868],[-71.43223,-13.52012],[-71.41625,-13.51694],[-71.40386,-13.50435],[-71.40612,-13.49644],[-71.38344,-13.46935],[-71.3728,-13.4462],[-71.34342,-13.45969],[-71.32844,-13.46066],[-71.32046,-13.45487],[-71.29409,-13.4553],[-71.28106,-13.46675],[-71.26578,-13.46565],[-71.26632,-13.47972],[-71.25274,-13.48155],[-71.22302,-13.50629],[-71.21734,-13.51855],[-71.20168,-13.52008],[-71.19301,-13.52665],[-71.18023,-13.50055],[-71.1705,-13.49359],[-71.16031,-13.49758],[-71.14328,-13.47654],[-71.1485,-13.46315],[-71.14524,-13.44173],[-71.15083,-13.42434],[-71.16147,-13.40953],[-71.15877,-13.39471],[-71.15008,-13.39141],[-71.14347,-13.3579],[-71.13444,-13.34916],[-71.13102,-13.33608],[-71.12189,-13.33094],[-71.11204,-13.31724],[-71.11514,-13.30155],[-71.09685,-13.30327],[-71.08979,-13.28328],[-71.08158,-13.28114],[-71.06418,-13.2567],[-71.04095,-13.26875],[-71.0279,-13.27068],[-71.01404,-13.26719],[-71.0079,-13.25153],[-71.01149,-13.23979],[-71.00786,-13.23097],[-70.99085,-13.22155],[-70.99432,-13.20322],[-70.97452,-13.16829],[-70.96298,-13.16948],[-70.94219,-13.1565],[-70.93764,-13.14408],[-70.94228,-13.13549],[-70.92826,-13.12924],[-70.92139,-13.11083],[-70.88733,-13.10304],[-70.89903,-13.08075],[-70.89927,-13.06968],[-70.88218,-13.07067],[-70.86311,-13.08032],[-70.85242,-13.0791],[-70.84296,-13.06705],[-70.81448,-13.07129],[-70.79985,-13.08991],[-70.77429,-13.10328],[-70.75841,-13.10804],[-70.74602,-13.10349],[-70.71005,-13.10946],[-70.70565,-13.10516],[-70.68394,-13.10547],[-70.68344,-13.09843],[-70.65976,-13.08846],[-70.65008,-13.09383],[-70.62491,-13.09314],[-70.60638,-13.10174],[-70.58754,-13.10313],[-70.57053,-13.13032],[-70.55801,-13.13669],[-70.54985,-13.15286],[-70.52973,-13.15256],[-70.50432,-13.15946],[-70.50076,-13.15654],[-70.46425,-13.15969],[-70.44651,-13.17038],[-70.39548,-13.18305],[-70.38847,-13.19239],[-70.38446,-13.20474],[-70.39001,-13.21534],[-70.39063,-13.23211],[-70.41736,-13.2436],[-70.42041,-13.25857],[-70.40135,-13.2706],[-70.3824,-13.27161],[-70.37084,-13.27641],[-70.34829,-13.29361],[-70.34585,-13.31275],[-70.36919,-13.30758],[-70.37282,-13.31331],[-70.39284,-13.31416],[-70.40195,-13.32654],[-70.39273,-13.34477],[-70.40007,-13.37174],[-70.41887,-13.35894],[-70.45044,-13.3645],[-70.45236,-13.36853],[-70.44255,-13.39336],[-70.45096,-13.40212],[-70.471,-13.44233],[-70.45316,-13.44546],[-70.45662,-13.45656],[-70.48477,-13.49091],[-70.49576,-13.50143],[-70.51987,-13.51397],[-70.53403,-13.52527],[-70.54591,-13.54544],[-70.54172,-13.57449],[-70.56037,-13.58661],[-70.57787,-13.58584],[-70.58585,-13.59643],[-70.60072,-13.59908],[-70.61619,-13.60906],[-70.62157,-13.6211],[-70.63692,-13.63278],[-70.65391,-13.65594],[-70.67066,-13.66207],[-70.68888,-13.65259],[-70.71513,-13.66225],[-70.71425,-13.67721],[-70.72094,-13.68301],[-70.72124,-13.70016],[-70.73565,-13.71178],[-70.73475,-13.73902],[-70.72641,-13.74713],[-70.72182,-13.77102],[-70.71493,-13.77231],[-70.69886,-13.80317],[-70.70856,-13.8281],[-70.70982,-13.84206],[-70.72136,-13.82934],[-70.75191,-13.81648],[-70.76837,-13.81433],[-70.79449,-13.81806],[-70.79631,-13.82215],[-70.81791,-13.82053],[-70.8284,-13.82763],[-70.85027,-13.81279],[-70.85114,-13.80119],[-70.8625,-13.80029]]]}},{"type":"Feature","properties":{"ubigeo":"0813","nombre":"Urubamba"},"geometry":{"type":"Polygon","coordinates":[[[-71.98022,-13.4295],[-71.99187,-13.44154],[-72.0006,-13.44404],[-72.01787,-13.43885],[-72.02239,-13.44564],[-72.04054,-13.45222],[-72.06077,-13.45097],[-72.07767,-13.43375],[-72.0987,-13.43103],[-72.11323,-13.41673],[-72.11555,-13.39821],[-72.13314,-13.38918],[-72.16082,-13.39393],[-72.17425,-13.39047],[-72.17906,-13.38199],[-72.20996,-13.36678],[-72.21548,-13.34258],[-72.21153,-13.33131],[-72.21952,-13.32628],[-72.23355,-13.33114],[-72.24935,-13.32679],[-72.26712,-13.33024],[-72.28537,-13.31171],[-72.30327,-13.31765],[-72.32006,-13.30922],[-72.32955,-13.31515],[-72.34513,-13.30943],[-72.34814,-13.29737],[-72.35838,-13.2863],[-72.36705,-13.28626],[-72.37705,-13.30027],[-72.3858,-13.30449],[-72.38051,-13.32588],[-72.38126,-13.34244],[-72.37374,-13.34228],[-72.36914,-13.35881],[-72.38082,-13.36548],[-72.40898,-13.34489],[-72.42522,-13.34918],[-72.44368,-13.34468],[-72.44368,-13.35499],[-72.46309,-13.36518],[-72.47264,-13.36133],[-72.49144,-13.36877],[-72.50223,-13.36569],[-72.51411,-13.37401],[-72.53335,-13.3729],[-72.54068,-13.3678],[-72.53512,-13.35169],[-72.54668,-13.33261],[-72.54434,-13.30465],[-72.55512,-13.27902],[-72.55157,-13.26129],[-72.55442,-13.23008],[-72.55172,-13.21887],[-72.56437,-13.21228],[-72.57141,-13.18741],[-72.56656,-13.17527],[-72.57942,-13.17256],[-72.58,-13.1453],[-72.5887,-13.13618],[-72.59977,-13.10724],[-72.57016,-13.09291],[-72.55105,-13.09386],[-72.54206,-13.08235],[-72.52196,-13.09314],[-72.49029,-13.09973],[-72.46907,-13.12372],[-72.45996,-13.1219],[-72.44878,-13.12791],[-72.44629,-13.14091],[-72.43639,-13.15162],[-72.41725,-13.15716],[-72.41062,-13.16854],[-72.38955,-13.17413],[-72.3668,-13.16067],[-72.33593,-13.15874],[-72.32597,-13.16421],[-72.30071,-13.13573],[-72.30609,-13.11846],[-72.29469,-13.10868],[-72.2813,-13.1077],[-72.27641,-13.12281],[-72.26799,-13.11915],[-72.25228,-13.12436],[-72.24619,-13.13876],[-72.23011,-13.14293],[-72.23167,-13.12629],[-72.22485,-13.11539],[-72.22157,-13.0994],[-72.20879,-13.09954],[-72.19782,-13.10561],[-72.19063,-13.09615],[-72.18099,-13.1067],[-72.16665,-13.11214],[-72.16446,-13.12864],[-72.15242,-13.1386],[-72.1488,-13.17708],[-72.13776,-13.18085],[-72.13121,-13.19167],[-72.09831,-13.18897],[-72.08443,-13.19541],[-72.07512,-13.2066],[-72.05768,-13.21945],[-72.05339,-13.25043],[-72.04703,-13.25656],[-72.04413,-13.29057],[-72.03518,-13.32384],[-72.02095,-13.31725],[-72.01121,-13.32736],[-72.00657,-13.34001],[-71.99437,-13.35445],[-71.98531,-13.3776],[-71.97468,-13.38179],[-71.96868,-13.3986],[-71.9739,-13.42276],[-71.98022,-13.4295]]]}}]}