{"type":"FeatureCollection","features":[{"type":"Feature","properties":{"ubigeo":"0901","nombre":"Huancavelica"},"geometry":{"type":"Polygon","coordinates":[[[-74.69122,-12.52438],[-74.69654,-12.5478],[-74.70932,-12.55871],[-74.69395,-12.56647],[-74.68866,-12.57463],[-74.69501,-12.58396],[-74.68646,-12.58986],[-74.6838,-12.60004],[-74.68822,-12.61931],[-74.71163,-12.63427],[-74.71868,-12.62882],[-74.73606,-12.62792],[-74.74516,-12.61575],[-74.7574,-12.62606],[-74.77173,-12.6237],[-74.77873,-12.63271],[-74.77508,-12.64451],[-74.77635,-12.67041],[-74.76728,-12.67647],[-74.77326,-12.70775],[-74.77126,-12.71686],[-74.77718,-12.72603],[-74.78597,-12.78411],[-74.79479,-12.79425],[-74.78024,-12.80446],[-74.76804,-12.8073],[-74.75095,-12.80217],[-74.74403,-12.82573],[-74.73581,-12.82856],[-74.72607,-12.84145],[-74.69918,-12.84364],[-74.72609,-12.86591],[-74.73344,-12.87949],[-74.74421,-12.87793],[-74.7575,-12.86816],[-74.76533,-12.86802],[-74.7732,-12.87864],[-74.78294,-12.87795],[-74.798,-12.90019],[-74.80632,-12.90598],[-74.8041,-12.91526],[-74.8171,-12.92215],[-74.81799,-12.9393],[-74.82711,-12.94306],[-74.85053,-12.92095],[-74.87137,-12.92392],[-74.87773,-12.91903],[-74.89606,-12.94539],[-74.88952,-12.94885],[-74.89042,-12.96844],[-74.86098,-12.97019],[-74.83906,-12.97501],[-74.84526,-12.98142],[-74.87704,-12.99926],[-74.8821,-13.01394],[-74.90335,-13.0254],[-74.909,-13.03876],[-74.90945,-13.05703],[-74.90509,-13.07423],[-74.90927,-13.09565],[-74.92007,-13.0988],[-74.91895,-13.12051],[-74.91057,-13.1338],[-74.91525,-13.14833],[-74.91326,-13.16747],[-74.91046,-13.18102],[-74.92233,-13.18544],[-74.93276,-13.1812],[-74.95512,-13.18185],[-74.96532,-13.16943],[-74.98544,-13.16216],[-74.98895,-13.14152],[-75.00241,-13.1236],[-75.02919,-13.10586],[-75.03829,-13.08941],[-75.031,-13.07811],[-75.03309,-13.06184],[-75.03978,-13.05026],[-75.0356,-13.03399],[-75.03776,-13.02353],[-75.02931,-13.01866],[-75.0298,-13.00144],[-75.03438,-12.98941],[-75.03303,-12.97535],[-75.03854,-12.96793],[-75.03703,-12.93963],[-75.04911,-12.93132],[-75.04444,-12.91502],[-75.05723,-12.91426],[-75.0773,-12.92056],[-75.09176,-12.92957],[-75.11288,-12.9351],[-75.12065,-12.93183],[-75.1319,-12.93679],[-75.13554,-12.94939],[-75.14947,-12.96006],[-75.14728,-12.97555],[-75.15864,-12.97666],[-75.1746,-12.95411],[-75.17858,-12.95725],[-75.19208,-12.94729],[-75.2019,-12.92366],[-75.23486,-12.89547],[-75.24982,-12.87924],[-75.26294,-12.88601],[-75.27699,-12.91422],[-75.28638,-12.91858],[-75.3049,-12.90425],[-75.31752,-12.91311],[-75.32171,-12.93133],[-75.33478,-12.93617],[-75.35454,-12.92805],[-75.34608,-12.91772],[-75.36139,-12.88773],[-75.35277,-12.88053],[-75.36151,-12.86799],[-75.37002,-12.86407],[-75.38098,-12.84256],[-75.37131,-12.82565],[-75.38027,-12.81202],[-75.40792,-12.792],[-75.42553,-12.79714],[-75.4336,-12.79142],[-75.442,-12.77522],[-75.47484,-12.77828],[-75.47959,-12.79702],[-75.49581,-12.79255],[-75.50755,-12.79548],[-75.51389,-12.78865],[-75.5075,-12.77715],[-75.55213,-12.74244],[-75.55355,-12.73634],[-75.56754,-12.7282],[-75.57655,-12.71514],[-75.55351,-12.70334],[-75.55182,-12.68143],[-75.56326,-12.67573],[-75.56133,-12.66308],[-75.57462,-12.65975],[-75.57961,-12.64148],[-75.56882,-12.6326],[-75.52609,-12.61841],[-75.51056,-12.63447],[-75.49905,-12.63856],[-75.49085,-12.64794],[-75.48421,-12.67605],[-75.4672,-12.68333],[-75.45928,-12.67467],[-75.45263,-12.65766],[-75.46079,-12.63139],[-75.44265,-12.61774],[-75.43145,-12.62573],[-75.41785,-12.62897],[-75.41013,-12.61793],[-75.41205,-12.59992],[-75.40945,-12.58473],[-75.39915,-12.58252],[-75.36239,-12.5396],[-75.34751,-12.53438],[-75.33652,-12.52203],[-75.31934,-12.5145],[-75.31868,-12.50342],[-75.32472,-12.48713],[-75.30949,-12.47913],[-75.29766,-12.48525],[-75.27836,-12.46783],[-75.25188,-12.46288],[-75.24288,-12.46425],[-75.22965,-12.47557],[-75.21552,-12.46342],[-75.21487,-12.45184],[-75.22328,-12.43553],[-75.2149,-12.42062],[-75.22008,-12.39045],[-75.20789,-12.38349],[-75.18237,-12.36028],[-75.1646,-12.38908],[-75.14687,-12.39555],[-75.13101,-12.3785],[-75.10936,-12.38234],[-75.10111,-12.37721],[-75.091,-12.38719],[-75.0667,-12.39396],[-75.05988,-12.40228],[-75.04211,-12.40815],[-75.0352,-12.42911],[-75.02427,-12.43471],[-75.02182,-12.44987],[-75.00971,-12.47256],[-75.00706,-12.49323],[-74.96391,-12.51471],[-74.95512,-12.51054],[-74.9482,-12.51573],[-74.94385,-12.53305],[-74.92929,-12.53408],[-74.91462,-12.52615],[-74.88288,-12.51768],[-74.88187,-12.53254],[-74.86297,-12.52279],[-74.85311,-12.51047],[-74.84412,-12.50834],[-74.83738,-12.49696],[-74.82218,-12.49852],[-74.81348,-12.47471],[-74.79124,-12.46418],[-74.77594,-12.4662],[-74.76711,-12.47531],[-74.75399,-12.47818],[-74.75095,-12.48467],[-74.73479,-12.48304],[-74.72193,-12.48748],[-74.71783,-12.50432],[-74.70931,-12.50375],[-74.70675,-12.52208],[-74.69122,-12.52438]]]}},{"type":"Feature","properties":{"ubigeo":"0902","nombre":"Acobamba"},"geometry":{"type":"Polygon","coordinates":[[[-74.31945,-12.88728],[-74.33644,-12.90658],[-74.35304,-12.91228],[-74.37409,-12.93537],[-74.39008,-12.93726],[-74.40057,-12.94329],[-74.43236,-12.95171],[-74.44169,-12.96342],[-74.45318,-12.96657],[-74.46841,-12.94993],[-74.47504,-12.9309],[-74.505,-12.91869],[-74.5346,-12.90016],[-74.55678,-12.89355],[-74.57476,-12.91408],[-74.58034,-12.89692],[-74.59273,-12.89471],[-74.60289,-12.8816],[-74.60292,-12.87],[-74.61468,-12.85005],[-74.62375,-12.84237],[-74.63444,-12.8485],[-74.64116,-12.87073],[-74.64982,-12.88207],[-74.67072,-12.89813],[-74.67964,-12.89783],[-74.66041,-12.86892],[-74.65411,-12.85516],[-74.67833,-12.82337],[-74.69918,-12.84364],[-74.72607,-12.84145],[-74.73581,-12.82856],[-74.74403,-12.82573],[-74.75095,-12.80217],[-74.76804,-12.8073],[-74.78024,-12.80446],[-74.79479,-12.79425],[-74.78597,-12.78411],[-74.77718,-12.72603],[-74.77126,-12.71686],[-74.77326,-12.70775],[-74.76728,-12.67647],[-74.77635,-12.67041],[-74.77508,-12.64451],[-74.77873,-12.63271],[-74.77173,-12.6237],[-74.7574,-12.62606],[-74.74516,-12.61575],[-74.73606,-12.62792],[-74.71868,-12.62882],[-74.71163,-12.63427],[-74.68822,-12.61931],[-74.6838,-12.60004],[-74.68646,-12.58986],[-74.67328,-12.59129],[-74.65927,-12.61677],[-74.6523,-12.61936],[-74.6399,-12.646],[-74.62912,-12.64599],[-74.61459,-12.67146],[-74.60626,-12.67881],[-74.59063,-12.67835],[-74.59068,-12.6908],[-74.56519,-12.70262],[-74.55616,-12.71498],[-74.54443,-12.72284],[-74.54246,-12.74338],[-74.5241,-12.7614],[-74.49903,-12.77082],[-74.50154,-12.78722],[-74.49111,-12.78582],[-74.46561,-12.80489],[-74.4404,-12.79943],[-74.41737,-12.80381],[-74.40406,-12.81217],[-74.39628,-12.80607],[-74.38971,-12.81464],[-74.3765,-12.81563],[-74.36126,-12.83454],[-74.3395,-12.83692],[-74.32362,-12.83251],[-74.32963,-12.83615],[-74.33325,-12.85175],[-74.31945,-12.88728]]]}},{"type":"Feature","properties":{"ubigeo":"0903","nombre":"Angaraes"},"geometry":{"type":"Polygon","coordinates":[[[-74.28026,-13.002],[-74.27165,-13.03185],[-74.27623,-13.03653],[-74.27157,-13.06863],[-74.27631,-13.07367],[-74.28872,-13.06595],[-74.31035,-13.05961],[-74.33133,-13.04321],[-74.34588,-13.02584],[-74.36804,-13.02117],[-74.37991,-13.02449],[-74.38998,-13.04294],[-74.40088,-13.05441],[-74.41111,-13.07887],[-74.41087,-13.1197],[-74.38872,-13.12966],[-74.38979,-13.15308],[-74.39834,-13.16036],[-74.39775,-13.16872],[-74.41031,-13.16028],[-74.42043,-13.15954],[-74.44928,-13.17863],[-74.45844,-13.19004],[-74.46795,-13.18772],[-74.48199,-13.19252],[-74.49417,-13.1866],[-74.51706,-13.19669],[-74.52561,-13.18959],[-74.54447,-13.19939],[-74.55953,-13.18513],[-74.57098,-13.18467],[-74.58034,-13.19453],[-74.58698,-13.2113],[-74.59563,-13.21285],[-74.60069,-13.22739],[-74.62219,-13.24398],[-74.64465,-13.27414],[-74.6635,-13.27148],[-74.68606,-13.28637],[-74.71362,-13.29205],[-74.72212,-13.28964],[-74.72683,-13.27211],[-74.721,-13.25987],[-74.72355,-13.24479],[-74.73078,-13.2311],[-74.72264,-13.21808],[-74.72164,-13.17919],[-74.73963,-13.17412],[-74.74769,-13.17639],[-74.76052,-13.16096],[-74.78272,-13.15723],[-74.7925,-13.16751],[-74.80255,-13.16787],[-74.82609,-13.15809],[-74.82907,-13.1478],[-74.84142,-13.14372],[-74.8536,-13.15457],[-74.87711,-13.16272],[-74.89512,-13.15944],[-74.89687,-13.16542],[-74.91326,-13.16747],[-74.91525,-13.14833],[-74.91057,-13.1338],[-74.91895,-13.12051],[-74.92007,-13.0988],[-74.90927,-13.09565],[-74.90509,-13.07423],[-74.90945,-13.05703],[-74.909,-13.03876],[-74.90335,-13.0254],[-74.8821,-13.01394],[-74.87704,-12.99926],[-74.84526,-12.98142],[-74.83906,-12.97501],[-74.86098,-12.97019],[-74.89042,-12.96844],[-74.88952,-12.94885],[-74.89606,-12.94539],[-74.87773,-12.91903],[-74.87137,-12.92392],[-74.85053,-12.92095],[-74.82711,-12.94306],[-74.81799,-12.9393],[-74.8171,-12.92215],[-74.8041,-12.91526],[-74.80632,-12.90598],[-74.798,-12.90019],[-74.78294,-12.87795],[-74.7732,-12.87864],[-74.76533,-12.86802],[-74.7575,-12.86816],[-74.74421,-12.87793],[-74.73344,-12.87949],[-74.72609,-12.86591],[-74.69918,-12.84364],[-74.67833,-12.82337],[-74.65411,-12.85516],[-74.66041,-12.86892],[-74.67964,-12.89783],[-74.67072,-12.89813],[-74.64982,-12.88207],[-74.64116,-12.87073],[-74.63444,-12.8485],[-74.62375,-12.84237],[-74.61468,-12.85005],[-74.60292,-12.87],[-74.60289,-12.8816],[-74.59273,-12.89471],[-74.58034,-12.89692],[-74.57476,-12.91408],[-74.55678,-12.89355],[-74.5346,-12.90016],[-74.505,-12.91869],[-74.47504,-12.9309],[-74.46841,-12.94993],[-74.45318,-12.96657],[-74.44169,-12.96342],[-74.43236,-12.95171],[-74.40057,-12.94329],[-74.39008,-12.93726],[-74.37409,-12.93537],[-74.35304,-12.91228],[-74.33644,-12.90658],[-74.31945,-12.88728],[-74.32027,-12.89638],[-74.33006,-12.91542],[-74.32767,-12.92839],[-74.30358,-12.92973],[-74.29655,-12.93501],[-74.29921,-12.95861],[-74.29207,-12.98722],[-74.28026,-13.002]]]}},{"type":"Feature","properties":{"ubigeo":"0904","nombre":"Castrovirreyna"},"geometry":{"type":"Polygon","coordinates":[[[-75.47731,-13.52548],[-75.49499,-13.52428],[-75.48372,-13.51419],[-75.48451,-13.50483],[-75.47045,-13.48426],[-75.47344,-13.46326],[-75.46578,-13.43216],[-75.48633,-13.4139],[-75.49139,-13.39607],[-75.49981,-13.38908],[-75.49235,-13.3785],[-75.50324,-13.35277],[-75.50292,-13.36595],[-75.52235,-13.39134],[-75.53047,-13.38917],[-75.53892,-13.40501],[-75.58512,-13.40267],[-75.59897,-13.38999],[-75.61495,-13.4168],[-75.63424,-13.41187],[-75.65339,-13.42775],[-75.67646,-13.42972],[-75.68928,-13.43967],[-75.70273,-13.42248],[-75.71216,-13.41642],[-75.74494,-13.40479],[-75.75214,-13.41285],[-75.76252,-13.41377],[-75.80599,-13.40143],[-75.80782,-13.38414],[-75.80117,-13.38051],[-75.7954,-13.35566],[-75.78764,-13.33479],[-75.76044,-13.31732],[-75.75317,-13.30911],[-75.74375,-13.31359],[-75.73093,-13.31031],[-75.70648,-13.28829],[-75.70532,-13.24626],[-75.70067,-13.2423],[-75.70244,-13.22689],[-75.68895,-13.21427],[-75.70634,-13.18676],[-75.69544,-13.15998],[-75.69377,-13.1475],[-75.70785,-13.14272],[-75.71213,-13.11617],[-75.71877,-13.10976],[-75.70509,-13.08719],[-75.70552,-13.08044],[-75.69496,-13.07479],[-75.69275,-13.04896],[-75.67631,-13.0427],[-75.67517,-13.05654],[-75.68058,-13.07036],[-75.65799,-13.08233],[-75.65324,-13.07091],[-75.62861,-13.05707],[-75.6363,-13.0437],[-75.63859,-13.02997],[-75.60841,-13.00299],[-75.61021,-12.99687],[-75.60261,-12.98018],[-75.61439,-12.96493],[-75.62215,-12.9486],[-75.61842,-12.9417],[-75.63612,-12.91618],[-75.63077,-12.90907],[-75.61309,-12.86698],[-75.61288,-12.85952],[-75.5999,-12.8569],[-75.57041,-12.84286],[-75.56172,-12.82939],[-75.56129,-12.81792],[-75.53108,-12.82221],[-75.52227,-12.80621],[-75.52022,-12.78873],[-75.51389,-12.78865],[-75.50755,-12.79548],[-75.49581,-12.79255],[-75.47959,-12.79702],[-75.47484,-12.77828],[-75.442,-12.77522],[-75.4336,-12.79142],[-75.42553,-12.79714],[-75.40792,-12.792],[-75.38027,-12.81202],[-75.37131,-12.82565],[-75.38098,-12.84256],[-75.37002,-12.86407],[-75.36151,-12.86799],[-75.35277,-12.88053],[-75.36139,-12.88773],[-75.34608,-12.91772],[-75.35454,-12.92805],[-75.33478,-12.93617],[-75.32171,-12.93133],[-75.31752,-12.91311],[-75.3049,-12.90425],[-75.28638,-12.91858],[-75.27699,-12.91422],[-75.26294,-12.88601],[-75.24982,-12.87924],[-75.23486,-12.89547],[-75.2019,-12.92366],[-75.19208,-12.94729],[-75.17858,-12.95725],[-75.1746,-12.95411],[-75.15864,-12.97666],[-75.14728,-12.97555],[-75.14947,-12.96006],[-75.13554,-12.94939],[-75.1319,-12.93679],[-75.12065,-12.93183],[-75.11288,-12.9351],[-75.09176,-12.92957],[-75.0773,-12.92056],[-75.05723,-12.91426],[-75.04444,-12.91502],[-75.04911,-12.93132],[-75.03703,-12.93963],[-75.03854,-12.96793],[-75.03303,-12.97535],[-75.03438,-12.98941],[-75.0298,-13.00144],[-75.02931,-13.01866],[-75.03776,-13.02353],[-75.0356,-13.03399],[-75.03978,-13.05026],[-75.03309,-13.06184],[-75.031,-13.07811],[-75.03829,-13.08941],[-75.02919,-13.10586],[-75.00241,-13.1236],[-74.98895,-13.14152],[-75.00428,-13.14609],[-75.02264,-13.16466],[-75.03835,-13.16784],[-75.04911,-13.18656],[-75.06033,-13.18808],[-75.09486,-13.20169],[-75.11094,-13.19336],[-75.11695,-13.19674],[-75.12109,-13.21193],[-75.168,-13.22451],[-75.16923,-13.25966],[-75.16393,-13.27394],[-75.17439,-13.28105],[-75.19672,-13.30721],[-75.20417,-13.31197],[-75.21098,-13.33819],[-75.20551,-13.34443],[-75.21846,-13.37057],[-75.23562,-13.39674],[-75.23962,-13.41076],[-75.25583,-13.41747],[-75.26973,-13.4055],[-75.29113,-13.40168],[-75.30291,-13.4288],[-75.30969,-13.43372],[-75.31035,-13.45025],[-75.32959,-13.46039],[-75.34234,-13.46134],[-75.34892,-13.45215],[-75.36497,-13.45679],[-75.38519,-13.45607],[-75.39129,-13.46251],[-75.41384,-13.46915],[-75.43461,-13.46964],[-75.43569,-13.49529],[-75.45839,-13.50411],[-75.47731,-13.52548]]]}},{"type":"Feature","properties":{"ubigeo":"0905","nombre":"Churcampa"},"geometry":{"type":"Polygon","coordinates":[[[-74.32362,-12.83251],[-74.3395,-12.83692],[-74.36126,-12.83454],[-74.3765,-12.81563],[-74.38971,-12.81464],[-74.39628,-12.80607],[-74.40406,-12.81217],[-74.41737,-12.80381],[-74.4404,-12.79943],[-74.46561,-12.80489],[-74.49111,-12.78582],[-74.50154,-12.78722],[-74.49903,-12.77082],[-74.5241,-12.7614],[-74.54246,-12.74338],[-74.54443,-12.72284],[-74.55616,-12.71498],[-74.56519,-12.70262],[-74.59068,-12.6908],[-74.59063,-12.67835],[-74.60626,-12.67881],[-74.61459,-12.67146],[-74.62912,-12.64599],[-74.6399,-12.646],[-74.6523,-12.61936],[-74.65927,-12.61677],[-74.67328,-12.59129],[-74.68646,-12.58986],[-74.69501,-12.58396],[-74.68866,-12.57463],[-74.69395,-12.56647],[-74.70932,-12.55871],[-74.69654,-12.5478],[-74.69122,-12.52438],[-74.67484,-12.52712],[-74.66376,-12.52153],[-74.64522,-12.52413],[-74.62936,-12.50799],[-74.6335,-12.4848],[-74.60355,-12.46865],[-74.59777,-12.4751],[-74.58743,-12.47115],[-74.59535,-12.44996],[-74.59729,-12.41002],[-74.60088,-12.39991],[-74.61329,-12.38841],[-74.62452,-12.36876],[-74.61438,-12.36113],[-74.60009,-12.36025],[-74.57599,-12.37317],[-74.56462,-12.36091],[-74.54843,-12.37514],[-74.54818,-12.38402],[-74.53912,-12.39315],[-74.53447,-12.41039],[-74.52195,-12.40867],[-74.51695,-12.42895],[-74.52205,-12.43613],[-74.50354,-12.44981],[-74.47509,-12.44377],[-74.44629,-12.448],[-74.42245,-12.44521],[-74.40925,-12.45192],[-74.40158,-12.46748],[-74.41512,-12.49066],[-74.39841,-12.50455],[-74.39962,-12.52548],[-74.38427,-12.54485],[-74.38353,-12.57083],[-74.36719,-12.5751],[-74.36329,-12.59427],[-74.32975,-12.60542],[-74.32835,-12.61526],[-74.33844,-12.61714],[-74.34082,-12.63446],[-74.33178,-12.64502],[-74.32753,-12.68127],[-74.33974,-12.68914],[-74.34908,-12.71822],[-74.34036,-12.73283],[-74.32523,-12.74485],[-74.31778,-12.73809],[-74.30809,-12.73965],[-74.2892,-12.75801],[-74.29328,-12.76645],[-74.28611,-12.77462],[-74.28554,-12.79972],[-74.29499,-12.79888],[-74.2984,-12.80655],[-74.2924,-12.82476],[-74.297,-12.83142],[-74.30571,-12.82745],[-74.31333,-12.83494],[-74.32362,-12.83251]]]}},{"type":"Feature","properties":{"ubigeo":"0906","nombre":"Huaytará"},"geometry":{"type":"Polygon","coordinates":[[[-74.68606,-13.28637],[-74.67709,-13.29443],[-74.66763,-13.32662],[-74.63283,-13.34478],[-74.66243,-13.35508],[-74.67817,-13.35066],[-74.68782,-13.3528],[-74.69946,-13.36351],[-74.72831,-13.36219],[-74.73855,-13.35285],[-74.73675,-13.34483],[-74.75226,-13.32824],[-74.76232,-13.32694],[-74.76386,-13.34139],[-74.81211,-13.35754],[-74.84671,-13.35328],[-74.86875,-13.3599],[-74.8788,-13.37487],[-74.8877,-13.38002],[-74.89772,-13.39531],[-74.89266,-13.41446],[-74.90358,-13.42946],[-74.89977,-13.45229],[-74.9021,-13.46644],[-74.86218,-13.48179],[-74.84008,-13.51162],[-74.84041,-13.51984],[-74.82956,-13.5343],[-74.81583,-13.53537],[-74.79957,-13.54747],[-74.78242,-13.57851],[-74.77139,-13.6065],[-74.77742,-13.62449],[-74.77485,-13.63875],[-74.78115,-13.64818],[-74.77397,-13.67163],[-74.77249,-13.69151],[-74.77539,-13.71054],[-74.75389,-13.73698],[-74.76119,-13.74883],[-74.75954,-13.75772],[-74.76653,-13.77223],[-74.76233,-13.78055],[-74.77892,-13.78461],[-74.77508,-13.8038],[-74.76036,-13.83149],[-74.76228,-13.8514],[-74.76739,-13.86659],[-74.78285,-13.87915],[-74.78521,-13.89195],[-74.77701,-13.8975],[-74.78592,-13.92879],[-74.77643,-13.94853],[-74.77501,-13.96225],[-74.76795,-13.97855],[-74.7791,-13.98237],[-74.78502,-13.99158],[-74.77908,-13.99628],[-74.78388,-14.01695],[-74.77399,-14.04466],[-74.7686,-14.04458],[-74.76569,-14.07183],[-74.75871,-14.0786],[-74.77253,-14.09032],[-74.81007,-14.08699],[-74.82519,-14.09228],[-74.84138,-14.0734],[-74.85274,-14.07621],[-74.86079,-14.06719],[-74.87811,-14.07625],[-74.89536,-14.10318],[-74.90789,-14.09215],[-74.92647,-14.0987],[-74.9335,-14.09188],[-74.9451,-14.09356],[-74.97414,-14.07479],[-74.98901,-14.07498],[-75.0145,-14.06915],[-75.02913,-14.07195],[-75.03786,-14.0993],[-75.05461,-14.11523],[-75.05905,-14.12962],[-75.06251,-14.09064],[-75.0696,-14.07985],[-75.0885,-14.08157],[-75.10399,-14.05046],[-75.10884,-14.03288],[-75.12678,-14.05088],[-75.16568,-14.07253],[-75.18267,-14.0561],[-75.21055,-14.05044],[-75.25853,-14.04317],[-75.25959,-14.03787],[-75.23652,-14.01442],[-75.23233,-14.00477],[-75.25268,-13.99815],[-75.27089,-14.01063],[-75.30978,-14.01557],[-75.31905,-14.019],[-75.33323,-14.01598],[-75.35568,-13.99577],[-75.35922,-13.9715],[-75.38169,-13.96276],[-75.39588,-13.9447],[-75.40536,-13.94357],[-75.41543,-13.92737],[-75.43382,-13.9139],[-75.45755,-13.90546],[-75.47517,-13.91272],[-75.49789,-13.90022],[-75.50224,-13.90141],[-75.52206,-13.88511],[-75.5455,-13.88948],[-75.56008,-13.87093],[-75.56619,-13.85405],[-75.56338,-13.84086],[-75.54381,-13.83551],[-75.52488,-13.8179],[-75.52752,-13.79696],[-75.53836,-13.79282],[-75.54153,-13.78144],[-75.53759,-13.7624],[-75.55458,-13.74957],[-75.52944,-13.74007],[-75.52907,-13.72843],[-75.51946,-13.7192],[-75.51591,-13.69639],[-75.50165,-13.68713],[-75.49621,-13.67333],[-75.48859,-13.6761],[-75.48487,-13.65097],[-75.49239,-13.63536],[-75.51401,-13.61709],[-75.51948,-13.60285],[-75.51096,-13.5889],[-75.50969,-13.56541],[-75.49582,-13.56705],[-75.47731,-13.52548],[-75.45839,-13.50411],[-75.43569,-13.49529],[-75.43461,-13.46964],[-75.41384,-13.46915],[-75.39129,-13.46251],[-75.38519,-13.45607],[-75.36497,-13.45679],[-75.34892,-13.45215],[-75.34234,-13.46134],[-75.32959,-13.46039],[-75.31035,-13.45025],[-75.30969,-13.43372],[-75.30291,-13.4288],[-75.29113,-13.40168],[-75.26973,-13.4055],[-75.25583,-13.41747],[-75.23962,-13.41076],[-75.23562,-13.39674],[-75.21846,-13.37057],[-75.20551,-13.34443],[-75.21098,-13.33819],[-75.20417,-13.31197],[-75.19672,-13.30721],[-75.17439,-13.28105],[-75.16393,-13.27394],[-75.16923,-13.25966],[-75.168,-13.22451],[-75.12109,-13.21193],[-75.11695,-13.19674],[-75.11094,-13.19336],[-75.09486,-13.20169],[-75.06033,-13.18808],[-75.04911,-13.18656],[-75.03835,-13.16784],[-75.02264,-13.16466],[-75.00428,-13.14609],[-74.98895,-13.14152],[-74.98544,-13.16216],[-74.96532,-13.16943],[-74.95512,-13.18185],[-74.93276,-13.1812],[-74.92233,-13.18544],[-74.91046,-13.18102],[-74.91326,-13.16747],[-74.89687,-13.16542],[-74.89512,-13.15944],[-74.87711,-13.16272],[-74.8536,-13.15457],[-74.84142,-13.14372],[-74.82907,-13.1478],[-74.82609,-13.15809],[-74.80255,-13.16787],[-74.7925,-13.16751],[-74.78272,-13.15723],[-74.76052,-13.16096],[-74.74769,-13.17639],[-74.73963,-13.17412],[-74.72164,-13.17919],[-74.72264,-13.21808],[-74.73078,-13.2311],[-74.72355,-13.24479],[-74.721,-13.25987],[-74.72683,-13.27211],[-74.72212,-13.28964],[-74.71362,-13.29205],[-74.68606,-13.28637]]]}},{"type":"Feature","properties":{"ubigeo":"0907","nombre":"Tayacaja"},"geometry":{"type":"Polygon","coordinates":[[[-74.34595,-12.17374],[-74.3493,-12.16788],[-74.36375,-12.17568],[-74.3821,-12.17861],[-74.38886,-12.19267],[-74.37715,-12.21459],[-74.37627,-12.23013],[-74.39368,-12.25247],[-74.3861,-12.27362],[-74.40798,-12.29207],[-74.4164,-12.30477],[-74.424,-12.28951],[-74.43658,-12.2853],[-74.44153,-12.27213],[-74.45614,-12.27008],[-74.47637,-12.27277],[-74.49568,-12.28626],[-74.50629,-12.31218],[-74.55212,-12.28734],[-74.57223,-12.30978],[-74.58118,-12.33267],[-74.57564,-12.34598],[-74.57599,-12.37317],[-74.60009,-12.36025],[-74.61438,-12.36113],[-74.62452,-12.36876],[-74.61329,-12.38841],[-74.60088,-12.39991],[-74.59729,-12.41002],[-74.59535,-12.44996],[-74.58743,-12.47115],[-74.59777,-12.4751],[-74.60355,-12.46865],[-74.6335,-12.4848],[-74.62936,-12.50799],[-74.64522,-12.52413],[-74.66376,-12.52153],[-74.67484,-12.52712],[-74.69122,-12.52438],[-74.70675,-12.52208],[-74.70931,-12.50375],[-74.71783,-12.50432],[-74.72193,-12.48748],[-74.73479,-12.48304],[-74.75095,-12.48467],[-74.75399,-12.47818],[-74.76711,-12.47531],[-74.77594,-12.4662],[-74.79124,-12.46418],[-74.81348,-12.47471],[-74.82218,-12.49852],[-74.83738,-12.49696],[-74.84412,-12.50834],[-74.85311,-12.51047],[-74.86297,-12.52279],[-74.88187,-12.53254],[-74.88288,-12.51768],[-74.91462,-12.52615],[-74.92929,-12.53408],[-74.94385,-12.53305],[-74.9482,-12.51573],[-74.95512,-12.51054],[-74.96391,-12.51471],[-75.00706,-12.49323],[-75.00971,-12.47256],[-75.02182,-12.44987],[-75.02427,-12.43471],[-75.0352,-12.42911],[-75.04211,-12.40815],[-75.05988,-12.40228],[-75.0667,-12.39396],[-75.091,-12.38719],[-75.10111,-12.37721],[-75.10936,-12.38234],[-75.13101,-12.3785],[-75.14023,-12.3421],[-75.12935,-12.33436],[-75.12046,-12.308],[-75.11044,-12.30346],[-75.09825,-12.2836],[-75.10522,-12.27114],[-75.10045,-12.2511],[-75.09269,-12.25047],[-75.08551,-12.23673],[-75.07163,-12.2352],[-75.05917,-12.20578],[-75.04936,-12.20134],[-75.05376,-12.18764],[-75.04833,-12.17033],[-75.07262,-12.1578],[-75.07695,-12.14715],[-75.06315,-12.13348],[-75.06792,-12.12712],[-75.06513,-12.11529],[-75.07131,-12.10239],[-75.06582,-12.09387],[-75.07461,-12.06015],[-75.08605,-12.05483],[-75.07472,-12.03798],[-75.06735,-12.03615],[-75.06523,-12.02541],[-75.04705,-12.01156],[-75.04926,-11.99985],[-75.02681,-12.0022],[-75.02078,-12.01329],[-74.99638,-12.02084],[-74.98966,-12.0174],[-74.97421,-12.02369],[-74.95907,-12.02288],[-74.9538,-12.01645],[-74.93037,-12.02286],[-74.92,-12.03288],[-74.90787,-12.03652],[-74.89633,-12.04888],[-74.88086,-12.05369],[-74.87077,-12.06599],[-74.83737,-12.07082],[-74.81782,-12.05351],[-74.79428,-12.05829],[-74.77993,-12.053],[-74.75912,-12.05112],[-74.74861,-12.04142],[-74.73053,-12.04694],[-74.7169,-12.05942],[-74.69932,-12.04437],[-74.68374,-12.03847],[-74.67851,-12.01748],[-74.66143,-12.00561],[-74.65548,-11.99228],[-74.62416,-11.98518],[-74.61255,-11.98798],[-74.60355,-11.99954],[-74.59246,-11.99498],[-74.59466,-11.98745],[-74.57171,-11.98481],[-74.56923,-11.99458],[-74.55768,-12.00095],[-74.549,-11.99699],[-74.52908,-12.01466],[-74.50276,-12.02021],[-74.48838,-12.0332],[-74.46989,-12.02753],[-74.45554,-12.03358],[-74.45211,-12.04946],[-74.44525,-12.0451],[-74.43358,-12.06936],[-74.42278,-12.06735],[-74.4142,-12.07672],[-74.41952,-12.09378],[-74.40664,-12.1072],[-74.39882,-12.10361],[-74.37958,-12.11986],[-74.36348,-12.13784],[-74.35136,-12.13832],[-74.35238,-12.14776],[-74.36131,-12.15522],[-74.34706,-12.16506],[-74.34595,-12.17374]]]}}]}