{"type":"FeatureCollection","features":[{"type":"Feature","properties":{"ubigeo":"1001","nombre":"Huánuco"},"geometry":{"type":"Polygon","coordinates":[[[-76.13621,-9.98628],[-76.16425,-9.98132],[-76.1905,-10.00745],[-76.21265,-10.00959],[-76.22829,-10.01759],[-76.23365,-10.03044],[-76.22879,-10.03676],[-76.25331,-10.05046],[-76.26358,-10.06292],[-76.27894,-10.07207],[-76.28678,-10.07112],[-76.33032,-10.10717],[-76.34808,-10.1258],[-76.35548,-10.12217],[-76.36938,-10.13084],[-76.37359,-10.15058],[-76.41061,-10.13714],[-76.41637,-10.14914],[-76.41101,-10.17872],[-76.42953,-10.19922],[-76.42899,-10.21704],[-76.43608,-10.23353],[-76.44975,-10.21416],[-76.44755,-10.1873],[-76.45501,-10.1556],[-76.46147,-10.14909],[-76.47966,-10.15668],[-76.48874,-10.15089],[-76.49425,-10.15544],[-76.51001,-10.15227],[-76.514,-10.1598],[-76.5048,-10.17913],[-76.51765,-10.18707],[-76.5278,-10.1875],[-76.53895,-10.16572],[-76.53484,-10.14006],[-76.54087,-10.1254],[-76.55897,-10.09786],[-76.56768,-10.09652],[-76.59708,-10.10093],[-76.60553,-10.08585],[-76.60613,-10.07024],[-76.59648,-10.04027],[-76.57823,-10.03046],[-76.58564,-10.01929],[-76.58075,-10.00854],[-76.58071,-9.9848],[-76.57047,-9.95923],[-76.5566,-9.95524],[-76.54785,-9.94365],[-76.54877,-9.92263],[-76.53101,-9.91568],[-76.50715,-9.91299],[-76.4987,-9.90435],[-76.48689,-9.90612],[-76.48213,-9.89821],[-76.46717,-9.89163],[-76.48525,-9.88318],[-76.4914,-9.85303],[-76.49997,-9.8368],[-76.49087,-9.8313],[-76.46982,-9.80787],[-76.46775,-9.77091],[-76.4632,-9.76507],[-76.46716,-9.7502],[-76.48399,-9.74041],[-76.47675,-9.73505],[-76.47681,-9.72475],[-76.465,-9.72136],[-76.46299,-9.70696],[-76.43819,-9.70613],[-76.4244,-9.66969],[-76.41111,-9.66111],[-76.41374,-9.64142],[-76.39642,-9.60808],[-76.38696,-9.6029],[-76.36502,-9.57784],[-76.35981,-9.56481],[-76.36073,-9.54681],[-76.34273,-9.52982],[-76.31347,-9.51658],[-76.27215,-9.52549],[-76.24934,-9.52058],[-76.23503,-9.51009],[-76.21339,-9.5077],[-76.20469,-9.49888],[-76.19251,-9.49462],[-76.16993,-9.47211],[-76.16052,-9.46923],[-76.14762,-9.47371],[-76.139,-9.47073],[-76.1246,-9.48081],[-76.11381,-9.4757],[-76.10748,-9.47958],[-76.09141,-9.47069],[-76.07221,-9.4715],[-76.05032,-9.4782],[-76.03815,-9.49645],[-76.01973,-9.50121],[-76.01135,-9.50803],[-75.98027,-9.50388],[-75.9569,-9.4931],[-75.94664,-9.49703],[-75.93098,-9.51156],[-75.92336,-9.54353],[-75.90912,-9.57206],[-75.89687,-9.58359],[-75.89109,-9.59569],[-75.87337,-9.60562],[-75.87107,-9.61642],[-75.85671,-9.62949],[-75.85281,-9.63907],[-75.83982,-9.65158],[-75.83979,-9.66337],[-75.84668,-9.66868],[-75.85187,-9.68426],[-75.84304,-9.68856],[-75.81039,-9.72035],[-75.80501,-9.73193],[-75.80457,-9.75524],[-75.80923,-9.76729],[-75.79877,-9.79053],[-75.79533,-9.81158],[-75.80512,-9.8221],[-75.82519,-9.83104],[-75.83179,-9.82106],[-75.86752,-9.80416],[-75.87412,-9.79291],[-75.89132,-9.79107],[-75.92567,-9.7949],[-75.94179,-9.80817],[-75.97686,-9.81664],[-76.00812,-9.81831],[-76.04756,-9.82424],[-76.06091,-9.82385],[-76.07377,-9.8531],[-76.08063,-9.85877],[-76.08681,-9.88132],[-76.09955,-9.88885],[-76.12324,-9.88862],[-76.11721,-9.9031],[-76.12454,-9.92539],[-76.11678,-9.93562],[-76.11621,-9.95226],[-76.12541,-9.96016],[-76.12674,-9.97958],[-76.13621,-9.98628]]]}},{"type":"Feature","properties":{"ubigeo":"1002","nombre":"Ambo"},"geometry":{"type":"Polygon","coordinates":[[[-76.03167,-10.45593],[-76.04887,-10.45806],[-76.05764,-10.46515],[-76.07828,-10.45199],[-76.07472,-10.43951],[-76.09464,-10.42942],[-76.10419,-10.43555],[-76.1188,-10.42637],[-76.12886,-10.43097],[-76.14041,-10.41065],[-76.15197,-10.40825],[-76.16433,-10.41403],[-76.17995,-10.40607],[-76.1854,-10.39546],[-76.20717,-10.38871],[-76.20282,-10.37758],[-76.23089,-10.37179],[-76.22524,-10.3966],[-76.26648,-10.3692],[-76.27112,-10.3711],[-76.27508,-10.40305],[-76.2868,-10.4168],[-76.29763,-10.41005],[-76.30588,-10.41217],[-76.31262,-10.38346],[-76.32341,-10.35958],[-76.31685,-10.34099],[-76.32197,-10.32539],[-76.33085,-10.31383],[-76.32576,-10.30553],[-76.33579,-10.28632],[-76.34428,-10.28688],[-76.35304,-10.29658],[-76.36466,-10.29941],[-76.38722,-10.28929],[-76.40235,-10.30919],[-76.42294,-10.31868],[-76.44394,-10.32053],[-76.47255,-10.30991],[-76.49398,-10.31053],[-76.51289,-10.29184],[-76.51782,-10.27031],[-76.51229,-10.24239],[-76.52399,-10.21431],[-76.51765,-10.18707],[-76.5048,-10.17913],[-76.514,-10.1598],[-76.51001,-10.15227],[-76.49425,-10.15544],[-76.48874,-10.15089],[-76.47966,-10.15668],[-76.46147,-10.14909],[-76.45501,-10.1556],[-76.44755,-10.1873],[-76.44975,-10.21416],[-76.43608,-10.23353],[-76.42899,-10.21704],[-76.42953,-10.19922],[-76.41101,-10.17872],[-76.41637,-10.14914],[-76.41061,-10.13714],[-76.37359,-10.15058],[-76.36938,-10.13084],[-76.35548,-10.12217],[-76.34808,-10.1258],[-76.33032,-10.10717],[-76.28678,-10.07112],[-76.27894,-10.07207],[-76.26358,-10.06292],[-76.25331,-10.05046],[-76.22879,-10.03676],[-76.23365,-10.03044],[-76.22829,-10.01759],[-76.21265,-10.00959],[-76.1905,-10.00745],[-76.16425,-9.98132],[-76.13621,-9.98628],[-76.13608,-10.00019],[-76.12403,-10.0146],[-76.12676,-10.03756],[-76.11832,-10.04568],[-76.12531,-10.06692],[-76.11738,-10.0757],[-76.10458,-10.07266],[-76.06468,-10.09152],[-76.04364,-10.09904],[-76.04057,-10.10657],[-76.06381,-10.13084],[-76.05476,-10.14029],[-76.05334,-10.15671],[-76.06203,-10.19063],[-76.06738,-10.1946],[-76.05481,-10.20454],[-76.05959,-10.21795],[-76.04253,-10.22858],[-76.0412,-10.24929],[-76.03525,-10.26031],[-76.04771,-10.2658],[-76.04615,-10.30563],[-76.0662,-10.31664],[-76.04174,-10.33114],[-76.03699,-10.36178],[-76.04125,-10.37377],[-76.03361,-10.38171],[-76.04011,-10.39605],[-76.02897,-10.40598],[-76.03187,-10.41429],[-76.02595,-10.42614],[-76.03229,-10.43207],[-76.03167,-10.45593]]]}},{"type":"Feature","properties":{"ubigeo":"1003","nombre":"Dos de Mayo"},"geometry":{"type":"Polygon","coordinates":[[[-76.20469,-9.49888],[-76.21339,-9.5077],[-76.23503,-9.51009],[-76.24934,-9.52058],[-76.27215,-9.52549],[-76.31347,-9.51658],[-76.34273,-9.52982],[-76.36073,-9.54681],[-76.35981,-9.56481],[-76.36502,-9.57784],[-76.38696,-9.6029],[-76.39642,-9.60808],[-76.41374,-9.64142],[-76.41111,-9.66111],[-76.4244,-9.66969],[-76.43819,-9.70613],[-76.46299,-9.70696],[-76.47145,-9.69249],[-76.46797,-9.685],[-76.47646,-9.67452],[-76.49227,-9.68078],[-76.49699,-9.67501],[-76.51552,-9.6764],[-76.52629,-9.66565],[-76.54974,-9.68069],[-76.55888,-9.68271],[-76.59812,-9.67251],[-76.60658,-9.67801],[-76.61689,-9.67518],[-76.62989,-9.68475],[-76.64447,-9.68777],[-76.66397,-9.67734],[-76.68116,-9.68874],[-76.68972,-9.70154],[-76.70331,-9.69046],[-76.72121,-9.70208],[-76.72298,-9.71138],[-76.71468,-9.72817],[-76.70249,-9.73837],[-76.70249,-9.74804],[-76.73405,-9.75631],[-76.73332,-9.77977],[-76.74676,-9.81948],[-76.74978,-9.83673],[-76.75802,-9.84246],[-76.74328,-9.86093],[-76.74079,-9.86984],[-76.72671,-9.88215],[-76.72006,-9.89836],[-76.73349,-9.91183],[-76.73008,-9.92071],[-76.73595,-9.93393],[-76.75215,-9.94454],[-76.75818,-9.93819],[-76.76971,-9.95423],[-76.77991,-9.95702],[-76.77612,-9.96846],[-76.77853,-9.98096],[-76.77321,-9.99406],[-76.78828,-10.00447],[-76.80417,-10.0023],[-76.82405,-10.011],[-76.82562,-9.98929],[-76.81772,-9.97853],[-76.81368,-9.96157],[-76.82898,-9.93842],[-76.83894,-9.93455],[-76.84037,-9.91773],[-76.85075,-9.89456],[-76.85902,-9.88859],[-76.86211,-9.87545],[-76.87298,-9.86377],[-76.86936,-9.85993],[-76.8808,-9.83303],[-76.89521,-9.8156],[-76.90308,-9.78515],[-76.90138,-9.7705],[-76.91191,-9.76367],[-76.91735,-9.74366],[-76.93457,-9.72892],[-76.93466,-9.71999],[-76.94539,-9.70257],[-76.94669,-9.68051],[-76.93257,-9.68095],[-76.91641,-9.68841],[-76.91388,-9.66952],[-76.90746,-9.65337],[-76.89613,-9.65674],[-76.89027,-9.67446],[-76.88217,-9.66803],[-76.87145,-9.67547],[-76.86299,-9.66387],[-76.85032,-9.66723],[-76.86122,-9.64406],[-76.8396,-9.63674],[-76.83462,-9.62526],[-76.82145,-9.63297],[-76.80919,-9.62803],[-76.80824,-9.6127],[-76.78467,-9.61979],[-76.76134,-9.61764],[-76.75181,-9.58814],[-76.74169,-9.61666],[-76.72761,-9.59566],[-76.74141,-9.58571],[-76.74319,-9.5791],[-76.71508,-9.57012],[-76.69675,-9.55772],[-76.67393,-9.56086],[-76.66292,-9.55331],[-76.65122,-9.55495],[-76.62205,-9.54744],[-76.6087,-9.5508],[-76.59452,-9.54524],[-76.58305,-9.55209],[-76.55947,-9.53977],[-76.54121,-9.53997],[-76.52472,-9.52732],[-76.51136,-9.53348],[-76.49358,-9.52605],[-76.48563,-9.50669],[-76.46975,-9.50564],[-76.45692,-9.49857],[-76.44992,-9.50549],[-76.4354,-9.5028],[-76.42856,-9.50684],[-76.41509,-9.49987],[-76.39107,-9.49842],[-76.37782,-9.48788],[-76.37141,-9.44315],[-76.34666,-9.42346],[-76.31146,-9.41675],[-76.31512,-9.39478],[-76.29745,-9.38848],[-76.28338,-9.39466],[-76.26667,-9.39633],[-76.23535,-9.41821],[-76.22528,-9.43223],[-76.20404,-9.44671],[-76.19904,-9.47449],[-76.20469,-9.49888]]]}},{"type":"Feature","properties":{"ubigeo":"1004","nombre":"Huacaybamba"},"geometry":{"type":"Polygon","coordinates":[[[-76.27203,-9.21383],[-76.28576,-9.20507],[-76.31011,-9.19638],[-76.33429,-9.19826],[-76.34837,-9.20488],[-76.3639,-9.2285],[-76.39587,-9.23844],[-76.4133,-9.23171],[-76.43838,-9.22954],[-76.45794,-9.22052],[-76.48509,-9.19983],[-76.49276,-9.20027],[-76.5103,-9.18614],[-76.52848,-9.20262],[-76.54417,-9.20158],[-76.55725,-9.17702],[-76.56996,-9.17159],[-76.59207,-9.16895],[-76.61143,-9.15063],[-76.65572,-9.12342],[-76.67237,-9.12046],[-76.68587,-9.12421],[-76.69881,-9.11398],[-76.71669,-9.10818],[-76.73524,-9.11107],[-76.74543,-9.10683],[-76.74934,-9.11299],[-76.76303,-9.10715],[-76.77191,-9.0855],[-76.76759,-9.06475],[-76.77886,-9.05439],[-76.77424,-9.06864],[-76.79401,-9.08617],[-76.80495,-9.11071],[-76.81926,-9.12725],[-76.85154,-9.11428],[-76.86938,-9.11438],[-76.89849,-9.09846],[-76.91761,-9.07562],[-76.92928,-9.07057],[-76.9454,-9.07483],[-76.96514,-9.06183],[-76.98017,-9.06299],[-76.99585,-9.04714],[-77.00279,-9.03262],[-77.01678,-9.02662],[-77.03412,-9.01197],[-77.03719,-8.99929],[-77.06142,-8.99238],[-77.09316,-8.97173],[-77.10314,-8.97243],[-77.10607,-8.94891],[-77.12351,-8.94483],[-77.12963,-8.91987],[-77.14787,-8.89551],[-77.15953,-8.8971],[-77.16488,-8.88124],[-77.1725,-8.87662],[-77.16997,-8.85752],[-77.17712,-8.84722],[-77.17482,-8.83362],[-77.16508,-8.8282],[-77.15007,-8.8104],[-77.15564,-8.79772],[-77.14758,-8.77706],[-77.12628,-8.78154],[-77.12136,-8.7753],[-77.10711,-8.77431],[-77.10008,-8.76732],[-77.0894,-8.77597],[-77.08142,-8.77499],[-77.05165,-8.81097],[-77.03307,-8.82247],[-77.0371,-8.83444],[-77.01875,-8.84015],[-77.01012,-8.8486],[-76.99728,-8.84117],[-76.97818,-8.85173],[-76.96787,-8.83743],[-76.95121,-8.83975],[-76.93721,-8.84607],[-76.92937,-8.83654],[-76.9154,-8.84088],[-76.90706,-8.84992],[-76.89751,-8.8499],[-76.89501,-8.8615],[-76.86207,-8.86581],[-76.85768,-8.8526],[-76.83203,-8.84302],[-76.82231,-8.83446],[-76.78613,-8.84173],[-76.77089,-8.86239],[-76.75908,-8.86028],[-76.74592,-8.88173],[-76.73478,-8.87078],[-76.71879,-8.88586],[-76.71136,-8.91228],[-76.7009,-8.91509],[-76.69642,-8.92964],[-76.68377,-8.9313],[-76.6847,-8.94075],[-76.67446,-8.9605],[-76.65581,-8.98494],[-76.65606,-8.99383],[-76.64032,-9.01538],[-76.65244,-9.0253],[-76.62581,-9.05104],[-76.6161,-9.0545],[-76.59521,-9.04826],[-76.58628,-9.0387],[-76.57165,-9.0321],[-76.56188,-9.02159],[-76.54341,-9.01464],[-76.53255,-9.02727],[-76.51187,-9.01733],[-76.48499,-9.01638],[-76.47407,-9.01242],[-76.47344,-9.01396],[-76.48015,-9.17042],[-76.46269,-9.16951],[-76.44299,-9.18112],[-76.41286,-9.17723],[-76.40615,-9.18822],[-76.38501,-9.18469],[-76.35916,-9.19706],[-76.33821,-9.18462],[-76.32833,-9.18455],[-76.31159,-9.17608],[-76.30229,-9.17769],[-76.27809,-9.19503],[-76.27203,-9.21383]]]}},{"type":"Feature","properties":{"ubigeo":"1005","nombre":"Huamalíes"},"geometry":{"type":"Polygon","coordinates":[[[-76.23535,-9.41821],[-76.26667,-9.39633],[-76.28338,-9.39466],[-76.29745,-9.38848],[-76.31512,-9.39478],[-76.31146,-9.41675],[-76.34666,-9.42346],[-76.37141,-9.44315],[-76.37782,-9.48788],[-76.39107,-9.49842],[-76.41509,-9.49987],[-76.42856,-9.50684],[-76.4354,-9.5028],[-76.44992,-9.50549],[-76.45692,-9.49857],[-76.46975,-9.50564],[-76.48563,-9.50669],[-76.49358,-9.52605],[-76.51136,-9.53348],[-76.52472,-9.52732],[-76.54121,-9.53997],[-76.55947,-9.53977],[-76.58305,-9.55209],[-76.59452,-9.54524],[-76.6087,-9.5508],[-76.62205,-9.54744],[-76.65122,-9.55495],[-76.66292,-9.55331],[-76.67393,-9.56086],[-76.69675,-9.55772],[-76.71508,-9.57012],[-76.74319,-9.5791],[-76.74141,-9.58571],[-76.72761,-9.59566],[-76.74169,-9.61666],[-76.75181,-9.58814],[-76.76134,-9.61764],[-76.78467,-9.61979],[-76.80824,-9.6127],[-76.80919,-9.62803],[-76.82145,-9.63297],[-76.83462,-9.62526],[-76.8396,-9.63674],[-76.86122,-9.64406],[-76.85032,-9.66723],[-76.86299,-9.66387],[-76.87145,-9.67547],[-76.88217,-9.66803],[-76.89027,-9.67446],[-76.89613,-9.65674],[-76.90746,-9.65337],[-76.91388,-9.66952],[-76.91641,-9.68841],[-76.93257,-9.68095],[-76.94669,-9.68051],[-76.94539,-9.70257],[-76.96161,-9.71346],[-76.97039,-9.71149],[-76.98104,-9.72457],[-76.98029,-9.74029],[-76.96978,-9.75834],[-76.97428,-9.76024],[-76.98651,-9.74911],[-77.01023,-9.71728],[-77.02384,-9.70433],[-77.03087,-9.68482],[-77.04849,-9.64746],[-77.04568,-9.62915],[-77.02367,-9.61066],[-76.99527,-9.60344],[-76.98824,-9.59175],[-76.99021,-9.57937],[-76.98297,-9.57697],[-76.98152,-9.56542],[-76.95511,-9.5603],[-76.9551,-9.54269],[-76.93801,-9.52658],[-76.93862,-9.4917],[-76.95233,-9.4697],[-76.94867,-9.45314],[-76.94042,-9.44858],[-76.92924,-9.42613],[-76.93629,-9.40898],[-76.93524,-9.39855],[-76.92413,-9.39153],[-76.9179,-9.36951],[-76.90959,-9.36855],[-76.90011,-9.35714],[-76.89292,-9.33196],[-76.88183,-9.32668],[-76.8662,-9.30533],[-76.86873,-9.29275],[-76.85635,-9.29007],[-76.84229,-9.26173],[-76.83396,-9.26601],[-76.82944,-9.29302],[-76.81565,-9.31673],[-76.81548,-9.32646],[-76.79469,-9.33338],[-76.78287,-9.3429],[-76.76562,-9.36727],[-76.75794,-9.36221],[-76.73919,-9.31726],[-76.74546,-9.29672],[-76.74062,-9.27451],[-76.72597,-9.25615],[-76.73125,-9.24627],[-76.72836,-9.23292],[-76.73461,-9.20879],[-76.74159,-9.19614],[-76.76706,-9.17041],[-76.76894,-9.15702],[-76.78636,-9.14485],[-76.78996,-9.13589],[-76.81926,-9.12725],[-76.80495,-9.11071],[-76.79401,-9.08617],[-76.77424,-9.06864],[-76.77886,-9.05439],[-76.76759,-9.06475],[-76.77191,-9.0855],[-76.76303,-9.10715],[-76.74934,-9.11299],[-76.74543,-9.10683],[-76.73524,-9.11107],[-76.71669,-9.10818],[-76.69881,-9.11398],[-76.68587,-9.12421],[-76.67237,-9.12046],[-76.65572,-9.12342],[-76.61143,-9.15063],[-76.59207,-9.16895],[-76.56996,-9.17159],[-76.55725,-9.17702],[-76.54417,-9.20158],[-76.52848,-9.20262],[-76.5103,-9.18614],[-76.49276,-9.20027],[-76.48509,-9.19983],[-76.45794,-9.22052],[-76.43838,-9.22954],[-76.4133,-9.23171],[-76.39587,-9.23844],[-76.3639,-9.2285],[-76.34837,-9.20488],[-76.33429,-9.19826],[-76.31011,-9.19638],[-76.28576,-9.20507],[-76.27203,-9.21383],[-76.25903,-9.19365],[-76.25272,-9.16568],[-76.24416,-9.14699],[-76.23486,-9.14027],[-76.22897,-9.1498],[-76.23451,-9.17224],[-76.22561,-9.18285],[-76.21562,-9.20335],[-76.19067,-9.20045],[-76.18598,-9.20749],[-76.17545,-9.19954],[-76.14549,-9.19997],[-76.10672,-9.20704],[-76.08533,-9.22223],[-76.07485,-9.24288],[-76.07686,-9.26839],[-76.05881,-9.27686],[-76.07038,-9.29237],[-76.08319,-9.30323],[-76.10542,-9.29638],[-76.11947,-9.30293],[-76.14015,-9.30253],[-76.16459,-9.32541],[-76.17997,-9.33399],[-76.21022,-9.36106],[-76.20491,-9.36371],[-76.22661,-9.37768],[-76.23203,-9.39192],[-76.23535,-9.41821]]]}},{"type":"Feature","properties":{"ubigeo":"1006","nombre":"Leoncio Prado"},"geometry":{"type":"Polygon","coordinates":[[[-75.94601,-8.71519],[-75.94789,-8.72251],[-75.94003,-8.73775],[-75.93661,-8.75464],[-75.92165,-8.78081],[-75.92877,-8.80801],[-75.9276,-8.84609],[-75.9217,-8.86684],[-75.91118,-8.88489],[-75.90988,-8.89679],[-75.90127,-8.89815],[-75.90312,-8.9155],[-75.89904,-8.91886],[-75.88937,-8.94963],[-75.88487,-8.98015],[-75.8945,-8.98371],[-75.89186,-9.00202],[-75.87898,-9.01763],[-75.87575,-9.02947],[-75.86657,-9.03569],[-75.85852,-9.05151],[-75.84965,-9.05114],[-75.83788,-9.06194],[-75.83787,-9.08489],[-75.82502,-9.09005],[-75.82013,-9.10059],[-75.82152,-9.11801],[-75.80999,-9.13239],[-75.79963,-9.16173],[-75.79581,-9.18195],[-75.7957,-9.20332],[-75.78429,-9.20801],[-75.77081,-9.22031],[-75.76379,-9.2171],[-75.7592,-9.23204],[-75.76412,-9.23684],[-75.74976,-9.24426],[-75.74019,-9.26383],[-75.72024,-9.27723],[-75.71604,-9.30796],[-75.71078,-9.314],[-75.70569,-9.33627],[-75.68862,-9.34937],[-75.69501,-9.36292],[-75.67113,-9.38587],[-75.67045,-9.41794],[-75.62918,-9.41086],[-75.62772,-9.41934],[-75.63363,-9.45022],[-75.64909,-9.47407],[-75.66094,-9.50037],[-75.66875,-9.50959],[-75.67844,-9.5472],[-75.67759,-9.56006],[-75.68865,-9.57825],[-75.69901,-9.58041],[-75.70977,-9.59663],[-75.71388,-9.6125],[-75.72092,-9.61711],[-75.73837,-9.60816],[-75.74997,-9.59072],[-75.75708,-9.56494],[-75.75578,-9.5447],[-75.77623,-9.52231],[-75.77752,-9.49877],[-75.793,-9.46194],[-75.78988,-9.45373],[-75.79131,-9.43019],[-75.78409,-9.41405],[-75.78633,-9.40498],[-75.81153,-9.39054],[-75.83737,-9.41089],[-75.85343,-9.42676],[-75.87077,-9.42152],[-75.8924,-9.43315],[-75.91446,-9.46505],[-75.94232,-9.48797],[-75.94664,-9.49703],[-75.9569,-9.4931],[-75.98027,-9.50388],[-76.01135,-9.50803],[-76.01973,-9.50121],[-76.03815,-9.49645],[-76.05032,-9.4782],[-76.07221,-9.4715],[-76.09141,-9.47069],[-76.10748,-9.47958],[-76.11381,-9.4757],[-76.1246,-9.48081],[-76.139,-9.47073],[-76.14762,-9.47371],[-76.16052,-9.46923],[-76.16993,-9.47211],[-76.19251,-9.49462],[-76.20469,-9.49888],[-76.19904,-9.47449],[-76.20404,-9.44671],[-76.22528,-9.43223],[-76.23535,-9.41821],[-76.23203,-9.39192],[-76.22661,-9.37768],[-76.20491,-9.36371],[-76.21022,-9.36106],[-76.17997,-9.33399],[-76.16459,-9.32541],[-76.14015,-9.30253],[-76.11947,-9.30293],[-76.10542,-9.29638],[-76.08319,-9.30323],[-76.07038,-9.29237],[-76.05881,-9.27686],[-76.07686,-9.26839],[-76.07485,-9.24288],[-76.08533,-9.22223],[-76.10672,-9.20704],[-76.14549,-9.19997],[-76.17545,-9.19954],[-76.18598,-9.20749],[-76.19067,-9.20045],[-76.21562,-9.20335],[-76.22561,-9.18285],[-76.23451,-9.17224],[-76.22897,-9.1498],[-76.23486,-9.14027],[-76.24416,-9.14699],[-76.25272,-9.16568],[-76.25903,-9.19365],[-76.27203,-9.21383],[-76.27809,-9.19503],[-76.30229,-9.17769],[-76.31159,-9.17608],[-76.32833,-9.18455],[-76.33821,-9.18462],[-76.35916,-9.19706],[-76.38501,-9.18469],[-76.40615,-9.18822],[-76.41286,-9.17723],[-76.44299,-9.18112],[-76.46269,-9.16951],[-76.48015,-9.17042],[-76.47344,-9.01396],[-76.47407,-9.01242],[-76.45823,-8.99671],[-76.4373,-8.9856],[-76.41923,-8.9864],[-76.3964,-9.00421],[-76.38912,-9.01309],[-76.37067,-9.02534],[-76.35304,-9.02418],[-76.30877,-9.0093],[-76.29199,-8.99891],[-76.27836,-8.99633],[-76.26687,-8.97913],[-76.25275,-8.97708],[-76.25271,-8.9708],[-76.23017,-8.95751],[-76.2361,-8.9469],[-76.22539,-8.93525],[-76.21764,-8.917],[-76.2243,-8.90536],[-76.21847,-8.8913],[-76.22502,-8.88667],[-76.22404,-8.87118],[-76.22905,-8.86611],[-76.22325,-8.85074],[-76.20678,-8.83963],[-76.20446,-8.8231],[-76.19984,-8.82401],[-76.19725,-8.78201],[-76.20999,-8.78872],[-76.23712,-8.79311],[-76.23253,-8.78076],[-76.22626,-8.78586],[-76.2038,-8.77395],[-76.18611,-8.75554],[-76.16685,-8.75632],[-76.1618,-8.72948],[-76.15702,-8.73373],[-76.14527,-8.71144],[-76.14542,-8.68787],[-76.13653,-8.67405],[-76.13971,-8.66715],[-76.12385,-8.65292],[-76.10974,-8.65406],[-76.107,-8.64245],[-76.11988,-8.63537],[-76.12451,-8.6045],[-76.12287,-8.59397],[-76.13468,-8.57256],[-76.1264,-8.54542],[-76.13115,-8.52771],[-76.12609,-8.51694],[-76.13021,-8.48037],[-76.12865,-8.4571],[-76.11693,-8.44218],[-76.11882,-8.43041],[-76.10941,-8.41779],[-76.1079,-8.39774],[-76.11323,-8.38424],[-76.10917,-8.37961],[-76.12823,-8.36053],[-76.11457,-8.34689],[-76.10697,-8.33177],[-76.0858,-8.32803],[-76.07363,-8.33342],[-76.05635,-8.32929],[-76.04141,-8.34083],[-76.03598,-8.32941],[-76.01011,-8.31693],[-76.00556,-8.30607],[-75.99601,-8.30667],[-75.99412,-8.31923],[-75.98565,-8.32222],[-75.9852,-8.33095],[-75.96759,-8.34581],[-75.96835,-8.35621],[-75.94634,-8.39912],[-75.94717,-8.4224],[-75.9587,-8.44589],[-75.96491,-8.45174],[-75.9619,-8.47565],[-75.95545,-8.48447],[-75.95491,-8.50202],[-75.96782,-8.50745],[-75.97094,-8.51704],[-75.96538,-8.54605],[-75.9709,-8.55799],[-75.96631,-8.56878],[-75.96631,-8.59203],[-75.97223,-8.59951],[-75.97976,-8.636],[-75.97885,-8.65482],[-75.96779,-8.67241],[-75.9649,-8.69575],[-75.94601,-8.71519]]]}},{"type":"Feature","properties":{"ubigeo":"1007","nombre":"Marañón"},"geometry":{"type":"Polygon","coordinates":[[[-76.47407,-9.01242],[-76.48499,-9.01638],[-76.51187,-9.01733],[-76.53255,-9.02727],[-76.54341,-9.01464],[-76.56188,-9.02159],[-76.57165,-9.0321],[-76.58628,-9.0387],[-76.59521,-9.04826],[-76.6161,-9.0545],[-76.62581,-9.05104],[-76.65244,-9.0253],[-76.64032,-9.01538],[-76.65606,-8.99383],[-76.65581,-8.98494],[-76.67446,-8.9605],[-76.6847,-8.94075],[-76.68377,-8.9313],[-76.69642,-8.92964],[-76.7009,-8.91509],[-76.71136,-8.91228],[-76.71879,-8.88586],[-76.73478,-8.87078],[-76.74592,-8.88173],[-76.75908,-8.86028],[-76.77089,-8.86239],[-76.78613,-8.84173],[-76.82231,-8.83446],[-76.83203,-8.84302],[-76.85768,-8.8526],[-76.86207,-8.86581],[-76.89501,-8.8615],[-76.89751,-8.8499],[-76.90706,-8.84992],[-76.9154,-8.84088],[-76.92937,-8.83654],[-76.93721,-8.84607],[-76.95121,-8.83975],[-76.96787,-8.83743],[-76.97818,-8.85173],[-76.99728,-8.84117],[-77.01012,-8.8486],[-77.01875,-8.84015],[-77.0371,-8.83444],[-77.03307,-8.82247],[-77.05165,-8.81097],[-77.08142,-8.77499],[-77.0894,-8.77597],[-77.10008,-8.76732],[-77.10711,-8.77431],[-77.12136,-8.7753],[-77.12628,-8.78154],[-77.14758,-8.77706],[-77.15564,-8.79772],[-77.15007,-8.8104],[-77.16508,-8.8282],[-77.17482,-8.83362],[-77.19573,-8.81499],[-77.20013,-8.79359],[-77.20605,-8.78234],[-77.22197,-8.77315],[-77.22749,-8.74283],[-77.24817,-8.72731],[-77.24736,-8.71276],[-77.25172,-8.68339],[-77.26163,-8.66447],[-77.2606,-8.64852],[-77.28512,-8.64435],[-77.29485,-8.63293],[-77.28903,-8.5893],[-77.30501,-8.56544],[-77.31541,-8.54375],[-77.31749,-8.53015],[-77.31009,-8.52192],[-77.29338,-8.51712],[-77.2771,-8.49574],[-77.27131,-8.47543],[-77.26408,-8.46753],[-77.2341,-8.47854],[-77.20421,-8.48569],[-77.18554,-8.48019],[-77.14674,-8.45451],[-77.13384,-8.44002],[-77.1335,-8.46239],[-77.14257,-8.47583],[-77.12516,-8.48379],[-77.10873,-8.47983],[-77.1009,-8.48823],[-77.08888,-8.48282],[-77.08083,-8.48818],[-77.08055,-8.49833],[-77.09165,-8.51698],[-77.07566,-8.5342],[-77.06065,-8.53855],[-77.0498,-8.55372],[-77.03737,-8.55334],[-77.03071,-8.54082],[-77.0116,-8.53769],[-76.99578,-8.55495],[-76.9773,-8.5606],[-76.96702,-8.55959],[-76.95537,-8.54559],[-76.94003,-8.55258],[-76.93597,-8.56697],[-76.9163,-8.57016],[-76.89708,-8.56875],[-76.89056,-8.55612],[-76.87489,-8.5582],[-76.8647,-8.56635],[-76.86171,-8.55201],[-76.84727,-8.54648],[-76.84349,-8.52673],[-76.83158,-8.51666],[-76.81872,-8.51766],[-76.79675,-8.51085],[-76.79137,-8.52236],[-76.77859,-8.52164],[-76.76842,-8.52681],[-76.75459,-8.51964],[-76.74099,-8.52465],[-76.7299,-8.51482],[-76.70729,-8.53018],[-76.69353,-8.53205],[-76.67976,-8.5275],[-76.67835,-8.52127],[-76.66632,-8.52601],[-76.64147,-8.52289],[-76.63706,-8.51515],[-76.61399,-8.5106],[-76.60131,-8.51216],[-76.56629,-8.50815],[-76.54781,-8.49764],[-76.5395,-8.5135],[-76.51542,-8.53351],[-76.50513,-8.53555],[-76.49351,-8.55184],[-76.49909,-8.56394],[-76.49531,-8.57576],[-76.46617,-8.56974],[-76.46786,-8.55843],[-76.45547,-8.53544],[-76.45733,-8.52802],[-76.44959,-8.51753],[-76.43617,-8.47011],[-76.4168,-8.44344],[-76.40043,-8.43747],[-76.38962,-8.42633],[-76.37579,-8.42258],[-76.37127,-8.41092],[-76.35704,-8.42441],[-76.34126,-8.42448],[-76.33347,-8.42947],[-76.32812,-8.4619],[-76.3222,-8.46756],[-76.32743,-8.47991],[-76.32217,-8.49373],[-76.31318,-8.50356],[-76.3249,-8.52312],[-76.31591,-8.5313],[-76.31519,-8.54044],[-76.30078,-8.55497],[-76.30383,-8.57432],[-76.2861,-8.56912],[-76.28036,-8.57356],[-76.28616,-8.5873],[-76.27303,-8.5949],[-76.27524,-8.60471],[-76.26406,-8.6103],[-76.27078,-8.62846],[-76.26344,-8.63605],[-76.26823,-8.65462],[-76.25274,-8.66543],[-76.24834,-8.68303],[-76.25563,-8.68303],[-76.2574,-8.70664],[-76.24687,-8.71539],[-76.24259,-8.72721],[-76.22868,-8.74503],[-76.24393,-8.74772],[-76.2421,-8.75533],[-76.23027,-8.75961],[-76.24014,-8.77068],[-76.23253,-8.78076],[-76.23712,-8.79311],[-76.20999,-8.78872],[-76.19725,-8.78201],[-76.19984,-8.82401],[-76.20446,-8.8231],[-76.20678,-8.83963],[-76.22325,-8.85074],[-76.22905,-8.86611],[-76.22404,-8.87118],[-76.22502,-8.88667],[-76.21847,-8.8913],[-76.2243,-8.90536],[-76.21764,-8.917],[-76.22539,-8.93525],[-76.2361,-8.9469],[-76.23017,-8.95751],[-76.25271,-8.9708],[-76.25275,-8.97708],[-76.26687,-8.97913],[-76.27836,-8.99633],[-76.29199,-8.99891],[-76.30877,-9.0093],[-76.35304,-9.02418],[-76.37067,-9.02534],[-76.38912,-9.01309],[-76.3964,-9.00421],[-76.41923,-8.9864],[-76.4373,-8.9856],[-76.45823,-8.99671],[-76.47407,-9.01242]]]}},{"type":"Feature","properties":{"ubigeo":"1008","nombre":"Pachitea"},"geometry":{"type":"Polygon","coordinates":[[[-75.59227,-9.95196],[-75.59797,-9.95811],[-75.59488,-9.98468],[-75.59529,-10.01017],[-75.60311,-10.02548],[-75.64027,-10.02641],[-75.67695,-10.05621],[-75.68628,-10.09154],[-75.69324,-10.10401],[-75.68962,-10.11671],[-75.70107,-10.12964],[-75.70574,-10.15909],[-75.69925,-10.17173],[-75.70397,-10.20669],[-75.7215,-10.2274],[-75.75136,-10.24001],[-75.75953,-10.23768],[-75.7856,-10.25237],[-75.81271,-10.24409],[-75.82626,-10.24788],[-75.8429,-10.26244],[-75.84895,-10.29075],[-75.85972,-10.30283],[-75.87876,-10.3136],[-75.90366,-10.33423],[-75.92441,-10.35603],[-75.93454,-10.37498],[-75.92515,-10.40676],[-75.94349,-10.42873],[-75.95848,-10.45696],[-75.97581,-10.47934],[-76.00279,-10.48889],[-76.01069,-10.4554],[-76.02812,-10.4671],[-76.03167,-10.45593],[-76.03229,-10.43207],[-76.02595,-10.42614],[-76.03187,-10.41429],[-76.02897,-10.40598],[-76.04011,-10.39605],[-76.03361,-10.38171],[-76.04125,-10.37377],[-76.03699,-10.36178],[-76.04174,-10.33114],[-76.0662,-10.31664],[-76.04615,-10.30563],[-76.04771,-10.2658],[-76.03525,-10.26031],[-76.0412,-10.24929],[-76.04253,-10.22858],[-76.05959,-10.21795],[-76.05481,-10.20454],[-76.06738,-10.1946],[-76.06203,-10.19063],[-76.05334,-10.15671],[-76.05476,-10.14029],[-76.06381,-10.13084],[-76.04057,-10.10657],[-76.04364,-10.09904],[-76.06468,-10.09152],[-76.10458,-10.07266],[-76.11738,-10.0757],[-76.12531,-10.06692],[-76.11832,-10.04568],[-76.12676,-10.03756],[-76.12403,-10.0146],[-76.13608,-10.00019],[-76.13621,-9.98628],[-76.12674,-9.97958],[-76.12541,-9.96016],[-76.11621,-9.95226],[-76.11678,-9.93562],[-76.12454,-9.92539],[-76.11721,-9.9031],[-76.12324,-9.88862],[-76.09955,-9.88885],[-76.08681,-9.88132],[-76.08063,-9.85877],[-76.07377,-9.8531],[-76.06091,-9.82385],[-76.04756,-9.82424],[-76.00812,-9.81831],[-75.97686,-9.81664],[-75.94179,-9.80817],[-75.92567,-9.7949],[-75.89132,-9.79107],[-75.87412,-9.79291],[-75.86752,-9.80416],[-75.83179,-9.82106],[-75.82519,-9.83104],[-75.80512,-9.8221],[-75.79533,-9.81158],[-75.79877,-9.79053],[-75.80923,-9.76729],[-75.80457,-9.75524],[-75.80501,-9.73193],[-75.81039,-9.72035],[-75.84304,-9.68856],[-75.85187,-9.68426],[-75.84668,-9.66868],[-75.83979,-9.66337],[-75.83982,-9.65158],[-75.85281,-9.63907],[-75.85671,-9.62949],[-75.87107,-9.61642],[-75.87337,-9.60562],[-75.89109,-9.59569],[-75.89687,-9.58359],[-75.90912,-9.57206],[-75.92336,-9.54353],[-75.93098,-9.51156],[-75.94664,-9.49703],[-75.94232,-9.48797],[-75.91446,-9.46505],[-75.8924,-9.43315],[-75.87077,-9.42152],[-75.85343,-9.42676],[-75.83737,-9.41089],[-75.81153,-9.39054],[-75.78633,-9.40498],[-75.78409,-9.41405],[-75.79131,-9.43019],[-75.78988,-9.45373],[-75.793,-9.46194],[-75.77752,-9.49877],[-75.77623,-9.52231],[-75.75578,-9.5447],[-75.75708,-9.56494],[-75.74997,-9.59072],[-75.73837,-9.60816],[-75.72092,-9.61711],[-75.71388,-9.6125],[-75.71661,-9.63335],[-75.71232,-9.65517],[-75.71455,-9.66849],[-75.71147,-9.69077],[-75.72095,-9.70948],[-75.72454,-9.74],[-75.71591,-9.76567],[-75.71628,-9.8023],[-75.74357,-9.80571],[-75.75293,-9.81698],[-75.75454,-9.84206],[-75.76141,-9.85644],[-75.75304,-9.86879],[-75.75271,-9.88352],[-75.74024,-9.8839],[-75.72682,-9.90392],[-75.7093,-9.9158],[-75.69747,-9.91323],[-75.68535,-9.91747],[-75.67275,-9.94015],[-75.64922,-9.94823],[-75.62993,-9.94653],[-75.62625,-9.94163],[-75.61261,-9.94523],[-75.59431,-9.94452],[-75.59227,-9.95196]]]}},{"type":"Feature","properties":{"ubigeo":"1009","nombre":"Puerto Inca"},"geometry":{"type":"Polygon","coordinates":[[[-75.59227,-9.95196],[-75.59431,-9.94452],[-75.61261,-9.94523],[-75.62625,-9.94163],[-75.62993,-9.94653],[-75.64922,-9.94823],[-75.67275,-9.94015],[-75.68535,-9.91747],[-75.69747,-9.91323],[-75.7093,-9.9158],[-75.72682,-9.90392],[-75.74024,-9.8839],[-75.75271,-9.88352],[-75.75304,-9.86879],[-75.76141,-9.85644],[-75.75454,-9.84206],[-75.75293,-9.81698],[-75.74357,-9.80571],[-75.71628,-9.8023],[-75.71591,-9.76567],[-75.72454,-9.74],[-75.72095,-9.70948],[-75.71147,-9.69077],[-75.71455,-9.66849],[-75.71232,-9.65517],[-75.71661,-9.63335],[-75.71388,-9.6125],[-75.70977,-9.59663],[-75.69901,-9.58041],[-75.68865,-9.57825],[-75.67759,-9.56006],[-75.67844,-9.5472],[-75.66875,-9.50959],[-75.66094,-9.50037],[-75.64909,-9.47407],[-75.63363,-9.45022],[-75.62772,-9.41934],[-75.62918,-9.41086],[-75.61666,-9.41408],[-75.61138,-9.40614],[-75.60066,-9.41381],[-75.5822,-9.4028],[-75.56247,-9.40118],[-75.53864,-9.39347],[-75.51796,-9.38217],[-75.50967,-9.38315],[-75.48779,-9.37265],[-75.48141,-9.35967],[-75.45625,-9.325],[-75.45197,-9.29634],[-75.42809,-9.29636],[-75.41849,-9.29261],[-75.40225,-9.30196],[-75.39233,-9.3004],[-75.37215,-9.31023],[-75.34949,-9.30454],[-75.33406,-9.28876],[-75.31903,-9.29366],[-75.3147,-9.30161],[-75.2797,-9.27694],[-75.27188,-9.26632],[-75.26811,-9.25001],[-75.27192,-9.23342],[-75.25669,-9.23248],[-75.233,-9.20932],[-75.21914,-9.17825],[-75.21282,-9.17716],[-75.21648,-9.15508],[-75.22875,-9.1477],[-75.2339,-9.12882],[-75.23176,-9.11844],[-75.24058,-9.10015],[-75.22007,-9.10462],[-75.20528,-9.09937],[-75.2049,-9.08029],[-75.19607,-9.0759],[-75.20122,-9.06384],[-75.17638,-9.04155],[-75.1624,-9.03395],[-75.17571,-9.02473],[-75.17453,-9.01253],[-75.15762,-9.0105],[-75.15469,-8.99964],[-75.13921,-8.9995],[-75.14009,-8.99433],[-75.11958,-8.98118],[-75.12056,-8.95985],[-75.13474,-8.94483],[-75.12856,-8.93571],[-75.11022,-8.92928],[-75.12008,-8.90434],[-75.12259,-8.88095],[-75.10872,-8.88254],[-75.09431,-8.87636],[-75.07139,-8.8736],[-75.06737,-8.88141],[-75.04687,-8.86824],[-75.03322,-8.86772],[-75.02365,-8.85907],[-75.005,-8.86973],[-74.97898,-8.87165],[-74.95447,-8.86357],[-74.94071,-8.85789],[-74.89574,-8.80476],[-74.86534,-8.78095],[-74.85056,-8.75689],[-74.85071,-8.73001],[-74.84651,-8.71351],[-74.84708,-8.68893],[-74.84155,-8.68227],[-74.84668,-8.66124],[-74.79753,-8.63171],[-74.6925,-8.58118],[-74.66415,-8.56191],[-74.64419,-8.55413],[-74.61782,-8.54872],[-74.58975,-8.54872],[-74.57757,-8.55379],[-74.54713,-8.58457],[-74.53612,-8.62986],[-74.52779,-8.71097],[-74.52535,-8.74932],[-74.53218,-8.77613],[-74.57287,-8.79265],[-74.58809,-8.81265],[-74.60892,-8.82023],[-74.61831,-8.83203],[-74.62141,-8.84557],[-74.62422,-8.88873],[-74.63638,-8.91225],[-74.64431,-8.91878],[-74.65274,-8.97958],[-74.6478,-8.98957],[-74.65108,-8.99983],[-74.66171,-9.00383],[-74.66916,-9.02026],[-74.66406,-9.03392],[-74.65137,-9.04877],[-74.65706,-9.0686],[-74.67809,-9.09404],[-74.67186,-9.11054],[-74.64071,-9.11856],[-74.63654,-9.12551],[-74.64098,-9.1418],[-74.63956,-9.15968],[-74.62697,-9.19705],[-74.62447,-9.21556],[-74.61529,-9.23798],[-74.5899,-9.26717],[-74.59121,-9.29109],[-74.58715,-9.29558],[-74.59394,-9.30947],[-74.60709,-9.3215],[-74.61557,-9.33988],[-74.62537,-9.35021],[-74.62661,-9.36306],[-74.63623,-9.36944],[-74.65632,-9.3702],[-74.65783,-9.38201],[-74.67275,-9.38888],[-74.68328,-9.40718],[-74.69635,-9.41794],[-74.70942,-9.42221],[-74.69767,-9.43564],[-74.68907,-9.4349],[-74.67596,-9.44691],[-74.68939,-9.4457],[-74.71677,-9.45908],[-74.72882,-9.47241],[-74.73979,-9.49726],[-74.74194,-9.51734],[-74.75052,-9.52461],[-74.74805,-9.54291],[-74.73517,-9.57271],[-74.75585,-9.58405],[-74.75574,-9.60654],[-74.76301,-9.60446],[-74.77238,-9.61432],[-74.76373,-9.62664],[-74.76579,-9.63831],[-74.78165,-9.65296],[-74.7866,-9.66451],[-74.79755,-9.66564],[-74.80842,-9.67551],[-74.81806,-9.67107],[-74.82188,-9.67719],[-74.81865,-9.69358],[-74.82877,-9.70396],[-74.81684,-9.73643],[-74.8438,-9.74915],[-74.83924,-9.76392],[-74.84707,-9.78048],[-74.84252,-9.78746],[-74.82137,-9.78492],[-74.8156,-9.79543],[-74.82303,-9.80049],[-74.82379,-9.81591],[-74.83624,-9.82005],[-74.8304,-9.83381],[-74.835,-9.84711],[-74.8526,-9.84836],[-74.87908,-9.82047],[-74.88587,-9.82004],[-74.90339,-9.83889],[-74.95162,-9.85991],[-74.98555,-9.86406],[-74.99362,-9.8398],[-75.01309,-9.8381],[-75.02174,-9.83094],[-75.03521,-9.8308],[-75.04326,-9.82285],[-75.05677,-9.81921],[-75.08013,-9.8392],[-75.1084,-9.84625],[-75.13519,-9.83861],[-75.16012,-9.83997],[-75.20261,-9.81537],[-75.24075,-9.78584],[-75.25688,-9.77858],[-75.27978,-9.77919],[-75.28483,-9.77606],[-75.30991,-9.7761],[-75.29761,-9.79426],[-75.29263,-9.81617],[-75.28262,-9.83049],[-75.27582,-9.84976],[-75.28822,-9.8707],[-75.32521,-9.87691],[-75.36936,-9.87083],[-75.3996,-9.87846],[-75.41118,-9.88843],[-75.40896,-9.90283],[-75.39662,-9.90896],[-75.40426,-9.92603],[-75.42292,-9.94357],[-75.44174,-9.93626],[-75.4508,-9.94376],[-75.4537,-9.95577],[-75.46231,-9.95728],[-75.4681,-9.98117],[-75.47455,-9.99217],[-75.49208,-9.98002],[-75.5371,-9.97996],[-75.54838,-9.98441],[-75.56074,-9.97011],[-75.56038,-9.96414],[-75.59039,-9.95559],[-75.59227,-9.95196]]]}},{"type":"Feature","properties":{"ubigeo":"1010","nombre":"Lauricocha"},"geometry":{"type":"Polygon","coordinates":[[[-76.51765,-10.18707],[-76.52399,-10.21431],[-76.51229,-10.24239],[-76.51782,-10.27031],[-76.51289,-10.29184],[-76.49398,-10.31053],[-76.4728,-10.33777],[-76.47599,-10.34732],[-76.48632,-10.35186],[-76.49094,-10.3789],[-76.50984,-10.3821],[-76.52419,-10.37736],[-76.53373,-10.38756],[-76.55188,-10.38464],[-76.55786,-10.39333],[-76.5751,-10.3758],[-76.59338,-10.38724],[-76.59336,-10.40149],[-76.60632,-10.40398],[-76.62039,-10.41525],[-76.6472,-10.41514],[-76.65882,-10.4213],[-76.66325,-10.43763],[-76.67679,-10.43762],[-76.69846,-10.44456],[-76.70217,-10.46154],[-76.71483,-10.46207],[-76.72915,-10.47907],[-76.74264,-10.4668],[-76.77281,-10.46364],[-76.77263,-10.45886],[-76.78815,-10.43812],[-76.79985,-10.43956],[-76.7999,-10.41913],[-76.80833,-10.39296],[-76.83167,-10.39307],[-76.83921,-10.37311],[-76.84449,-10.37006],[-76.85639,-10.37727],[-76.86585,-10.37484],[-76.863,-10.36619],[-76.87549,-10.34277],[-76.87226,-10.33478],[-76.88137,-10.30851],[-76.89451,-10.30433],[-76.89102,-10.29474],[-76.90625,-10.27419],[-76.90494,-10.23741],[-76.91345,-10.23045],[-76.91622,-10.21752],[-76.90944,-10.19902],[-76.91392,-10.18994],[-76.90854,-10.17678],[-76.91546,-10.11991],[-76.90194,-10.11334],[-76.87989,-10.11655],[-76.87268,-10.09489],[-76.85358,-10.10178],[-76.84604,-10.08874],[-76.83803,-10.08512],[-76.80717,-10.08436],[-76.81241,-10.07157],[-76.80904,-10.05411],[-76.81521,-10.02254],[-76.82405,-10.011],[-76.80417,-10.0023],[-76.78828,-10.00447],[-76.77321,-9.99406],[-76.77853,-9.98096],[-76.77612,-9.96846],[-76.77991,-9.95702],[-76.76971,-9.95423],[-76.75818,-9.93819],[-76.75215,-9.94454],[-76.73595,-9.93393],[-76.73008,-9.92071],[-76.73349,-9.91183],[-76.72006,-9.89836],[-76.70163,-9.9286],[-76.68279,-9.91325],[-76.67658,-9.89932],[-76.67636,-9.88073],[-76.66147,-9.86813],[-76.64892,-9.87127],[-76.64108,-9.8817],[-76.65124,-9.89503],[-76.65343,-9.91887],[-76.62654,-9.91919],[-76.63578,-9.93147],[-76.61155,-9.92688],[-76.58614,-9.94499],[-76.57238,-9.94161],[-76.57047,-9.95923],[-76.58071,-9.9848],[-76.58075,-10.00854],[-76.58564,-10.01929],[-76.57823,-10.03046],[-76.59648,-10.04027],[-76.60613,-10.07024],[-76.60553,-10.08585],[-76.59708,-10.10093],[-76.56768,-10.09652],[-76.55897,-10.09786],[-76.54087,-10.1254],[-76.53484,-10.14006],[-76.53895,-10.16572],[-76.5278,-10.1875],[-76.51765,-10.18707]]]}},{"type":"Feature","properties":{"ubigeo":"1011","nombre":"Yarowilca"},"geometry":{"type":"Polygon","coordinates":[[[-76.57047,-9.95923],[-76.57238,-9.94161],[-76.58614,-9.94499],[-76.61155,-9.92688],[-76.63578,-9.93147],[-76.62654,-9.91919],[-76.65343,-9.91887],[-76.65124,-9.89503],[-76.64108,-9.8817],[-76.64892,-9.87127],[-76.66147,-9.86813],[-76.67636,-9.88073],[-76.67658,-9.89932],[-76.68279,-9.91325],[-76.70163,-9.9286],[-76.72006,-9.89836],[-76.72671,-9.88215],[-76.74079,-9.86984],[-76.74328,-9.86093],[-76.75802,-9.84246],[-76.74978,-9.83673],[-76.74676,-9.81948],[-76.73332,-9.77977],[-76.73405,-9.75631],[-76.70249,-9.74804],[-76.70249,-9.73837],[-76.71468,-9.72817],[-76.72298,-9.71138],[-76.72121,-9.70208],[-76.70331,-9.69046],[-76.68972,-9.70154],[-76.68116,-9.68874],[-76.66397,-9.67734],[-76.64447,-9.68777],[-76.62989,-9.68475],[-76.61689,-9.67518],[-76.60658,-9.67801],[-76.59812,-9.67251],[-76.55888,-9.68271],[-76.54974,-9.68069],[-76.52629,-9.66565],[-76.51552,-9.6764],[-76.49699,-9.67501],[-76.49227,-9.68078],[-76.47646,-9.67452],[-76.46797,-9.685],[-76.47145,-9.69249],[-76.46299,-9.70696],[-76.465,-9.72136],[-76.47681,-9.72475],[-76.47675,-9.73505],[-76.48399,-9.74041],[-76.46716,-9.7502],[-76.4632,-9.76507],[-76.46775,-9.77091],[-76.46982,-9.80787],[-76.49087,-9.8313],[-76.49997,-9.8368],[-76.4914,-9.85303],[-76.48525,-9.88318],[-76.46717,-9.89163],[-76.48213,-9.89821],[-76.48689,-9.90612],[-76.4987,-9.90435],[-76.50715,-9.91299],[-76.53101,-9.91568],[-76.54877,-9.92263],[-76.54785,-9.94365],[-76.5566,-9.95524],[-76.57047,-9.95923]]]}}]}