{"type":"FeatureCollection","features":[{"type":"Feature","properties":{"ubigeo":"1101","nombre":"Ica"},"geometry":{"type":"Polygon","coordinates":[[[-75.21055,-14.05044],[-75.21722,-14.06258],[-75.23321,-14.0728],[-75.23972,-14.08405],[-75.22944,-14.08917],[-75.22446,-14.10055],[-75.22617,-14.12641],[-75.24087,-14.14046],[-75.24304,-14.15243],[-75.22968,-14.17293],[-75.23077,-14.19062],[-75.23699,-14.21466],[-75.22938,-14.23179],[-75.23262,-14.28971],[-75.23896,-14.30637],[-75.23979,-14.32078],[-75.23547,-14.34801],[-75.21838,-14.35281],[-75.22474,-14.36549],[-75.22792,-14.39541],[-75.24973,-14.42831],[-75.24467,-14.4396],[-75.26495,-14.44663],[-75.26763,-14.45746],[-75.28031,-14.45597],[-75.30125,-14.47254],[-75.31002,-14.48768],[-75.31685,-14.53078],[-75.33557,-14.54367],[-75.3521,-14.56222],[-75.36,-14.56579],[-75.36369,-14.58209],[-75.36862,-14.6069],[-75.36089,-14.62073],[-75.37653,-14.63924],[-75.39954,-14.6269],[-75.41343,-14.63132],[-75.42634,-14.64306],[-75.41452,-14.66367],[-75.41062,-14.68524],[-75.42644,-14.71012],[-75.4236,-14.71677],[-75.43267,-14.74996],[-75.43165,-14.75769],[-75.41608,-14.77474],[-75.41577,-14.78814],[-75.42571,-14.81368],[-75.42591,-14.83371],[-75.43241,-14.84816],[-75.44,-14.89492],[-75.47371,-14.92326],[-75.48147,-14.92182],[-75.49404,-14.92966],[-75.50979,-14.91077],[-75.54002,-14.88772],[-75.57452,-14.8678],[-75.63349,-14.83879],[-75.67994,-14.81782],[-75.70563,-14.79812],[-75.73638,-14.78255],[-75.73733,-14.7772],[-75.78436,-14.74829],[-75.85557,-14.71628],[-75.84937,-14.70456],[-75.85576,-14.69444],[-75.87797,-14.67886],[-75.91646,-14.65918],[-75.92746,-14.64312],[-75.92349,-14.63193],[-75.93227,-14.60966],[-75.9264,-14.60082],[-75.93204,-14.58947],[-75.93205,-14.56828],[-75.94599,-14.55591],[-75.9562,-14.53857],[-75.9742,-14.52525],[-75.96485,-14.50554],[-75.97228,-14.4705],[-75.98552,-14.45801],[-76.01145,-14.44439],[-76.01604,-14.43674],[-76.03668,-14.42605],[-76.02342,-14.40532],[-76.01318,-14.40369],[-76.0035,-14.39021],[-76.00393,-14.36894],[-75.98833,-14.34499],[-75.98225,-14.32535],[-75.98152,-14.30719],[-75.98618,-14.29632],[-76.0075,-14.28741],[-76.02142,-14.27097],[-76.03312,-14.27662],[-76.04651,-14.265],[-76.05199,-14.25363],[-76.07171,-14.23271],[-76.07149,-14.20689],[-76.05788,-14.18216],[-76.04815,-14.15896],[-76.02184,-14.12451],[-76.02651,-14.1093],[-76.01633,-14.09633],[-76.00062,-14.09062],[-75.98654,-14.06949],[-76.00508,-14.03975],[-75.99772,-14.02776],[-76.00284,-14.01827],[-76.02545,-14.00503],[-76.02744,-13.99004],[-76.02271,-13.97138],[-76.02505,-13.95923],[-76.04491,-13.93744],[-76.05595,-13.9293],[-76.06144,-13.90514],[-76.04914,-13.89157],[-76.04118,-13.86107],[-76.02798,-13.84012],[-76.01696,-13.84431],[-75.99194,-13.83341],[-75.98884,-13.84046],[-75.94623,-13.84997],[-75.93735,-13.85009],[-75.92296,-13.84175],[-75.89556,-13.84748],[-75.88454,-13.85517],[-75.86423,-13.8468],[-75.85322,-13.83705],[-75.81401,-13.85306],[-75.78914,-13.85646],[-75.7738,-13.84312],[-75.76295,-13.8463],[-75.74888,-13.83537],[-75.7259,-13.8361],[-75.71161,-13.82925],[-75.70165,-13.8172],[-75.67283,-13.81424],[-75.648,-13.80744],[-75.64138,-13.79922],[-75.61544,-13.78613],[-75.60846,-13.78596],[-75.59794,-13.7743],[-75.59075,-13.75778],[-75.57658,-13.75347],[-75.57047,-13.74293],[-75.55458,-13.74957],[-75.53759,-13.7624],[-75.54153,-13.78144],[-75.53836,-13.79282],[-75.52752,-13.79696],[-75.52488,-13.8179],[-75.54381,-13.83551],[-75.56338,-13.84086],[-75.56619,-13.85405],[-75.56008,-13.87093],[-75.5455,-13.88948],[-75.52206,-13.88511],[-75.50224,-13.90141],[-75.49789,-13.90022],[-75.47517,-13.91272],[-75.45755,-13.90546],[-75.43382,-13.9139],[-75.41543,-13.92737],[-75.40536,-13.94357],[-75.39588,-13.9447],[-75.38169,-13.96276],[-75.35922,-13.9715],[-75.35568,-13.99577],[-75.33323,-14.01598],[-75.31905,-14.019],[-75.30978,-14.01557],[-75.27089,-14.01063],[-75.25268,-13.99815],[-75.23233,-14.00477],[-75.23652,-14.01442],[-75.25959,-14.03787],[-75.25853,-14.04317],[-75.21055,-14.05044]]]}},{"type":"Feature","properties":{"ubigeo":"1102","nombre":"Chincha"},"geometry":{"type":"Polygon","coordinates":[[[-76.19183,-13.59378],[-76.18744,-13.56582],[-76.187,-13.53641],[-76.19109,-13.47125],[-76.18766,-13.45896],[-76.19327,-13.42344],[-76.20186,-13.39556],[-76.22269,-13.35507],[-76.24479,-13.32351],[-76.23373,-13.3158],[-76.20732,-13.3061],[-76.19979,-13.2959],[-76.18583,-13.25933],[-76.17187,-13.24279],[-76.16223,-13.21847],[-76.15525,-13.1922],[-76.13974,-13.18017],[-76.12847,-13.17754],[-76.09962,-13.15421],[-76.09582,-13.14722],[-76.04943,-13.1146],[-76.04193,-13.10575],[-76.02143,-13.09393],[-75.98423,-13.05287],[-75.9692,-13.04164],[-75.96082,-13.02042],[-75.9614,-13.00138],[-75.93768,-12.99132],[-75.91387,-13.00687],[-75.89826,-13.01329],[-75.87878,-13.01599],[-75.87187,-13.02464],[-75.848,-13.0361],[-75.83906,-13.03072],[-75.82165,-13.03324],[-75.81648,-13.05347],[-75.80775,-13.05157],[-75.80206,-13.06043],[-75.77248,-13.03786],[-75.76216,-13.01889],[-75.75215,-13.02816],[-75.744,-13.02542],[-75.72546,-13.03812],[-75.70701,-13.03959],[-75.69055,-13.03511],[-75.68607,-13.02532],[-75.67036,-13.02261],[-75.6649,-13.01202],[-75.66874,-13.00351],[-75.66324,-12.99404],[-75.65161,-12.99416],[-75.63424,-12.98539],[-75.6375,-12.97324],[-75.61439,-12.96493],[-75.60261,-12.98018],[-75.61021,-12.99687],[-75.60841,-13.00299],[-75.63859,-13.02997],[-75.6363,-13.0437],[-75.62861,-13.05707],[-75.65324,-13.07091],[-75.65799,-13.08233],[-75.68058,-13.07036],[-75.67517,-13.05654],[-75.67631,-13.0427],[-75.69275,-13.04896],[-75.69496,-13.07479],[-75.70552,-13.08044],[-75.70509,-13.08719],[-75.71877,-13.10976],[-75.71213,-13.11617],[-75.70785,-13.14272],[-75.69377,-13.1475],[-75.69544,-13.15998],[-75.70634,-13.18676],[-75.68895,-13.21427],[-75.70244,-13.22689],[-75.70067,-13.2423],[-75.70532,-13.24626],[-75.70648,-13.28829],[-75.73093,-13.31031],[-75.74375,-13.31359],[-75.75317,-13.30911],[-75.76044,-13.31732],[-75.78764,-13.33479],[-75.7954,-13.35566],[-75.80117,-13.38051],[-75.80782,-13.38414],[-75.80599,-13.40143],[-75.76252,-13.41377],[-75.75214,-13.41285],[-75.74494,-13.40479],[-75.71216,-13.41642],[-75.70273,-13.42248],[-75.68928,-13.43967],[-75.69754,-13.45216],[-75.70894,-13.45933],[-75.70593,-13.4684],[-75.73229,-13.49328],[-75.75559,-13.50053],[-75.75277,-13.514],[-75.7605,-13.5206],[-75.76275,-13.54316],[-75.77292,-13.55558],[-75.78414,-13.55888],[-75.78456,-13.56728],[-75.81384,-13.57945],[-75.80547,-13.58988],[-75.80696,-13.60465],[-75.81446,-13.61956],[-75.83523,-13.62518],[-75.86385,-13.61143],[-75.88106,-13.61704],[-75.89549,-13.61504],[-75.89996,-13.62625],[-75.9202,-13.62498],[-75.93556,-13.63105],[-75.94489,-13.61948],[-75.95754,-13.62042],[-75.96397,-13.59956],[-75.97331,-13.59772],[-75.98507,-13.58115],[-75.98697,-13.57164],[-76.00667,-13.56097],[-76.03412,-13.56131],[-76.04975,-13.57694],[-76.06675,-13.57278],[-76.07506,-13.56581],[-76.08849,-13.56448],[-76.12875,-13.5798],[-76.15108,-13.59178],[-76.16669,-13.59549],[-76.19183,-13.59378]]]}},{"type":"Feature","properties":{"ubigeo":"1103","nombre":"Nasca"},"geometry":{"type":"Polygon","coordinates":[[[-75.07333,-15.44294],[-75.07108,-15.43563],[-75.08257,-15.42369],[-75.09856,-15.42111],[-75.1076,-15.41186],[-75.12448,-15.40565],[-75.1404,-15.40717],[-75.15018,-15.39126],[-75.15818,-15.39292],[-75.1596,-15.38085],[-75.18589,-15.36724],[-75.19453,-15.36815],[-75.18307,-15.3549],[-75.16207,-15.35881],[-75.15568,-15.3552],[-75.1512,-15.33894],[-75.15539,-15.32375],[-75.16882,-15.30739],[-75.19678,-15.29106],[-75.21554,-15.29248],[-75.21898,-15.28475],[-75.22967,-15.28492],[-75.23724,-15.2676],[-75.25797,-15.25668],[-75.26188,-15.24979],[-75.22485,-15.25858],[-75.21892,-15.25017],[-75.21662,-15.23142],[-75.23221,-15.20277],[-75.27468,-15.16832],[-75.31687,-15.14993],[-75.33904,-15.14712],[-75.3495,-15.15833],[-75.34784,-15.14912],[-75.35567,-15.14045],[-75.36913,-15.15001],[-75.36921,-15.13368],[-75.37569,-15.12103],[-75.38413,-15.11641],[-75.38488,-15.10598],[-75.39293,-15.09873],[-75.39479,-15.08067],[-75.40921,-15.06799],[-75.41357,-15.04312],[-75.42998,-15.02871],[-75.44269,-15.00059],[-75.4753,-14.98416],[-75.5,-14.96697],[-75.50428,-14.95994],[-75.5,-14.9419],[-75.49275,-14.93965],[-75.49404,-14.92966],[-75.48147,-14.92182],[-75.47371,-14.92326],[-75.44,-14.89492],[-75.43241,-14.84816],[-75.42591,-14.83371],[-75.42571,-14.81368],[-75.41577,-14.78814],[-75.41608,-14.77474],[-75.43165,-14.75769],[-75.43267,-14.74996],[-75.4236,-14.71677],[-75.42644,-14.71012],[-75.41062,-14.68524],[-75.41452,-14.66367],[-75.42634,-14.64306],[-75.41343,-14.63132],[-75.39954,-14.6269],[-75.37653,-14.63924],[-75.36089,-14.62073],[-75.36862,-14.6069],[-75.36369,-14.58209],[-75.36286,-14.59668],[-75.3303,-14.61536],[-75.29345,-14.59969],[-75.2489,-14.58806],[-75.2392,-14.59102],[-75.22912,-14.60644],[-75.22556,-14.62135],[-75.2264,-14.6447],[-75.21877,-14.64639],[-75.18558,-14.63689],[-75.17565,-14.65355],[-75.15485,-14.67702],[-75.14221,-14.67884],[-75.13352,-14.65854],[-75.13265,-14.64443],[-75.11605,-14.62761],[-75.09516,-14.62396],[-75.07995,-14.60231],[-75.08971,-14.58915],[-75.089,-14.57666],[-75.08009,-14.56901],[-75.06586,-14.57448],[-75.0599,-14.62262],[-75.05199,-14.62672],[-75.03416,-14.61129],[-75.01003,-14.60616],[-74.99679,-14.61181],[-74.97802,-14.60237],[-74.95892,-14.60645],[-74.94721,-14.58189],[-74.91339,-14.56562],[-74.90368,-14.54781],[-74.88425,-14.54548],[-74.87534,-14.55527],[-74.88396,-14.57622],[-74.87845,-14.58752],[-74.85277,-14.61181],[-74.78817,-14.61556],[-74.81045,-14.63161],[-74.82863,-14.65622],[-74.84658,-14.66615],[-74.84593,-14.68938],[-74.83792,-14.69634],[-74.84574,-14.70798],[-74.83001,-14.72005],[-74.8274,-14.73403],[-74.8027,-14.75215],[-74.77642,-14.72893],[-74.74358,-14.72601],[-74.73185,-14.71439],[-74.71587,-14.70952],[-74.73548,-14.73199],[-74.73853,-14.75373],[-74.75601,-14.77113],[-74.7561,-14.7836],[-74.76462,-14.7902],[-74.75694,-14.79505],[-74.74646,-14.81362],[-74.72029,-14.81246],[-74.71598,-14.81941],[-74.7515,-14.82755],[-74.7506,-14.84225],[-74.73009,-14.84284],[-74.72019,-14.83663],[-74.69384,-14.83816],[-74.68982,-14.84818],[-74.67582,-14.86207],[-74.68107,-14.87308],[-74.66392,-14.89234],[-74.66345,-14.90793],[-74.68548,-14.92947],[-74.66554,-14.9557],[-74.66417,-14.96352],[-74.64773,-14.98198],[-74.66449,-15.00273],[-74.66719,-15.02803],[-74.66427,-15.0447],[-74.67097,-15.05497],[-74.69756,-15.06278],[-74.70453,-15.07104],[-74.72961,-15.0854],[-74.75748,-15.09258],[-74.76229,-15.09806],[-74.77783,-15.10768],[-74.79137,-15.12192],[-74.81592,-15.1395],[-74.85521,-15.15383],[-74.8706,-15.15123],[-74.88852,-15.16123],[-74.89985,-15.17395],[-74.9172,-15.18178],[-74.93987,-15.20601],[-74.9459,-15.23149],[-74.96364,-15.2539],[-74.96442,-15.285],[-74.9682,-15.29942],[-74.98241,-15.31683],[-75.00388,-15.33023],[-75.01656,-15.3511],[-75.01849,-15.38241],[-75.02892,-15.40428],[-75.04965,-15.4345],[-75.06111,-15.43528],[-75.07333,-15.44294]]]}},{"type":"Feature","properties":{"ubigeo":"1104","nombre":"Palpa"},"geometry":{"type":"Polygon","coordinates":[[[-75.08009,-14.56901],[-75.089,-14.57666],[-75.08971,-14.58915],[-75.07995,-14.60231],[-75.09516,-14.62396],[-75.11605,-14.62761],[-75.13265,-14.64443],[-75.13352,-14.65854],[-75.14221,-14.67884],[-75.15485,-14.67702],[-75.17565,-14.65355],[-75.18558,-14.63689],[-75.21877,-14.64639],[-75.2264,-14.6447],[-75.22556,-14.62135],[-75.22912,-14.60644],[-75.2392,-14.59102],[-75.2489,-14.58806],[-75.29345,-14.59969],[-75.3303,-14.61536],[-75.36286,-14.59668],[-75.36369,-14.58209],[-75.36,-14.56579],[-75.3521,-14.56222],[-75.33557,-14.54367],[-75.31685,-14.53078],[-75.31002,-14.48768],[-75.30125,-14.47254],[-75.28031,-14.45597],[-75.26763,-14.45746],[-75.26495,-14.44663],[-75.24467,-14.4396],[-75.24973,-14.42831],[-75.22792,-14.39541],[-75.22474,-14.36549],[-75.21838,-14.35281],[-75.23547,-14.34801],[-75.23979,-14.32078],[-75.23896,-14.30637],[-75.23262,-14.28971],[-75.22938,-14.23179],[-75.23699,-14.21466],[-75.23077,-14.19062],[-75.22968,-14.17293],[-75.24304,-14.15243],[-75.24087,-14.14046],[-75.22617,-14.12641],[-75.22446,-14.10055],[-75.22944,-14.08917],[-75.23972,-14.08405],[-75.23321,-14.0728],[-75.21722,-14.06258],[-75.21055,-14.05044],[-75.18267,-14.0561],[-75.16568,-14.07253],[-75.12678,-14.05088],[-75.10884,-14.03288],[-75.10399,-14.05046],[-75.0885,-14.08157],[-75.0696,-14.07985],[-75.06251,-14.09064],[-75.05905,-14.12962],[-75.07638,-14.16591],[-75.07837,-14.18638],[-75.08577,-14.20961],[-75.09079,-14.21518],[-75.08724,-14.23182],[-75.07367,-14.23561],[-75.0721,-14.24593],[-75.05512,-14.25521],[-75.03951,-14.25417],[-75.0322,-14.26568],[-75.03998,-14.27788],[-75.06336,-14.29543],[-75.08138,-14.29714],[-75.09393,-14.31242],[-75.1081,-14.34794],[-75.10509,-14.35878],[-75.13208,-14.39972],[-75.13983,-14.41591],[-75.11914,-14.42113],[-75.1214,-14.42752],[-75.10712,-14.43355],[-75.08897,-14.42641],[-75.06293,-14.42686],[-75.05299,-14.43115],[-75.07019,-14.44916],[-75.06846,-14.45836],[-75.09814,-14.4851],[-75.09074,-14.49544],[-75.09153,-14.52118],[-75.08586,-14.53108],[-75.0691,-14.52693],[-75.06764,-14.53844],[-75.08067,-14.55118],[-75.08009,-14.56901]]]}},{"type":"Feature","properties":{"ubigeo":"1105","nombre":"Pisco"},"geometry":{"type":"Polygon","coordinates":[[[-75.55458,-13.74957],[-75.57047,-13.74293],[-75.57658,-13.75347],[-75.59075,-13.75778],[-75.59794,-13.7743],[-75.60846,-13.78596],[-75.61544,-13.78613],[-75.64138,-13.79922],[-75.648,-13.80744],[-75.67283,-13.81424],[-75.70165,-13.8172],[-75.71161,-13.82925],[-75.7259,-13.8361],[-75.74888,-13.83537],[-75.76295,-13.8463],[-75.7738,-13.84312],[-75.78914,-13.85646],[-75.81401,-13.85306],[-75.85322,-13.83705],[-75.86423,-13.8468],[-75.88454,-13.85517],[-75.89556,-13.84748],[-75.92296,-13.84175],[-75.93735,-13.85009],[-75.94623,-13.84997],[-75.98884,-13.84046],[-75.99194,-13.83341],[-76.01696,-13.84431],[-76.02798,-13.84012],[-76.04118,-13.86107],[-76.04914,-13.89157],[-76.06144,-13.90514],[-76.05595,-13.9293],[-76.04491,-13.93744],[-76.02505,-13.95923],[-76.02271,-13.97138],[-76.02744,-13.99004],[-76.02545,-14.00503],[-76.00284,-14.01827],[-75.99772,-14.02776],[-76.00508,-14.03975],[-75.98654,-14.06949],[-76.00062,-14.09062],[-76.01633,-14.09633],[-76.02651,-14.1093],[-76.02184,-14.12451],[-76.04815,-14.15896],[-76.05788,-14.18216],[-76.07149,-14.20689],[-76.07171,-14.23271],[-76.05199,-14.25363],[-76.04651,-14.265],[-76.03312,-14.27662],[-76.02142,-14.27097],[-76.0075,-14.28741],[-75.98618,-14.29632],[-75.98152,-14.30719],[-75.98225,-14.32535],[-75.98833,-14.34499],[-76.00393,-14.36894],[-76.0035,-14.39021],[-76.01318,-14.40369],[-76.02342,-14.40532],[-76.03668,-14.42605],[-76.04125,-14.41624],[-76.0662,-14.38694],[-76.09916,-14.36821],[-76.12525,-14.35935],[-76.13186,-14.35426],[-76.14428,-14.32959],[-76.11096,-14.32922],[-76.1053,-14.31406],[-76.10995,-14.29269],[-76.12875,-14.26542],[-76.13009,-14.24814],[-76.14357,-14.22762],[-76.19075,-14.1975],[-76.19804,-14.17277],[-76.21786,-14.16792],[-76.21586,-14.15977],[-76.23053,-14.14912],[-76.25257,-14.15002],[-76.25952,-14.14244],[-76.27136,-14.14273],[-76.25602,-14.1672],[-76.26131,-14.18508],[-76.27171,-14.20009],[-76.27534,-14.18341],[-76.28884,-14.16422],[-76.27899,-14.154],[-76.2855,-14.13869],[-76.27997,-14.12453],[-76.28633,-14.11349],[-76.28456,-14.09968],[-76.29189,-14.08861],[-76.27613,-14.08249],[-76.27637,-14.06187],[-76.26438,-14.06228],[-76.26151,-14.05015],[-76.27051,-14.03615],[-76.26221,-14.02978],[-76.26262,-14.02023],[-76.28552,-13.99822],[-76.27507,-13.99248],[-76.27023,-13.98087],[-76.27304,-13.95187],[-76.2952,-13.92743],[-76.28252,-13.91805],[-76.28352,-13.90832],[-76.29557,-13.90463],[-76.2984,-13.89329],[-76.31211,-13.89245],[-76.31635,-13.91464],[-76.33001,-13.92503],[-76.34367,-13.91496],[-76.35601,-13.9228],[-76.36036,-13.91482],[-76.37265,-13.91023],[-76.39633,-13.9089],[-76.39836,-13.89207],[-76.38987,-13.87625],[-76.38595,-13.84385],[-76.37868,-13.83338],[-76.3707,-13.83204],[-76.37129,-13.80888],[-76.35684,-13.80054],[-76.34465,-13.80427],[-76.32794,-13.79418],[-76.29622,-13.79347],[-76.28987,-13.79739],[-76.29368,-13.8108],[-76.30459,-13.82529],[-76.31007,-13.84679],[-76.30077,-13.83772],[-76.28302,-13.8532],[-76.27133,-13.85658],[-76.26302,-13.86899],[-76.25051,-13.85284],[-76.25813,-13.83924],[-76.2472,-13.82875],[-76.25058,-13.81513],[-76.24103,-13.78991],[-76.23738,-13.76638],[-76.23232,-13.75838],[-76.22274,-13.72699],[-76.21983,-13.68162],[-76.20675,-13.65404],[-76.20036,-13.63483],[-76.19183,-13.59378],[-76.16669,-13.59549],[-76.15108,-13.59178],[-76.12875,-13.5798],[-76.08849,-13.56448],[-76.07506,-13.56581],[-76.06675,-13.57278],[-76.04975,-13.57694],[-76.03412,-13.56131],[-76.00667,-13.56097],[-75.98697,-13.57164],[-75.98507,-13.58115],[-75.97331,-13.59772],[-75.96397,-13.59956],[-75.95754,-13.62042],[-75.94489,-13.61948],[-75.93556,-13.63105],[-75.9202,-13.62498],[-75.89996,-13.62625],[-75.89549,-13.61504],[-75.88106,-13.61704],[-75.86385,-13.61143],[-75.83523,-13.62518],[-75.81446,-13.61956],[-75.80696,-13.60465],[-75.80547,-13.58988],[-75.81384,-13.57945],[-75.78456,-13.56728],[-75.78414,-13.55888],[-75.77292,-13.55558],[-75.76275,-13.54316],[-75.7605,-13.5206],[-75.75277,-13.514],[-75.75559,-13.50053],[-75.73229,-13.49328],[-75.70593,-13.4684],[-75.70894,-13.45933],[-75.69754,-13.45216],[-75.68928,-13.43967],[-75.67646,-13.42972],[-75.65339,-13.42775],[-75.63424,-13.41187],[-75.61495,-13.4168],[-75.59897,-13.38999],[-75.58512,-13.40267],[-75.53892,-13.40501],[-75.53047,-13.38917],[-75.52235,-13.39134],[-75.50292,-13.36595],[-75.50324,-13.35277],[-75.49235,-13.3785],[-75.49981,-13.38908],[-75.49139,-13.39607],[-75.48633,-13.4139],[-75.46578,-13.43216],[-75.47344,-13.46326],[-75.47045,-13.48426],[-75.48451,-13.50483],[-75.48372,-13.51419],[-75.49499,-13.52428],[-75.47731,-13.52548],[-75.49582,-13.56705],[-75.50969,-13.56541],[-75.51096,-13.5889],[-75.51948,-13.60285],[-75.51401,-13.61709],[-75.49239,-13.63536],[-75.48487,-13.65097],[-75.48859,-13.6761],[-75.49621,-13.67333],[-75.50165,-13.68713],[-75.51591,-13.69639],[-75.51946,-13.7192],[-75.52907,-13.72843],[-75.52944,-13.74007],[-75.55458,-13.74957]]]}}]}