{"type":"FeatureCollection","features":[{"type":"Feature","properties":{"ubigeo":"1201","nombre":"Huancayo"},"geometry":{"type":"Polygon","coordinates":[[[-75.13101,-12.3785],[-75.14687,-12.39555],[-75.1646,-12.38908],[-75.18237,-12.36028],[-75.20789,-12.38349],[-75.22008,-12.39045],[-75.2149,-12.42062],[-75.22328,-12.43553],[-75.21487,-12.45184],[-75.21552,-12.46342],[-75.22965,-12.47557],[-75.24288,-12.46425],[-75.25188,-12.46288],[-75.27836,-12.46783],[-75.29766,-12.48525],[-75.30949,-12.47913],[-75.32472,-12.48713],[-75.31868,-12.50342],[-75.31934,-12.5145],[-75.33652,-12.52203],[-75.34751,-12.53438],[-75.36239,-12.5396],[-75.39915,-12.58252],[-75.40945,-12.58473],[-75.41205,-12.59992],[-75.41013,-12.61793],[-75.41785,-12.62897],[-75.43145,-12.62573],[-75.44265,-12.61774],[-75.46079,-12.63139],[-75.45263,-12.65766],[-75.45928,-12.67467],[-75.4672,-12.68333],[-75.48421,-12.67605],[-75.49085,-12.64794],[-75.49905,-12.63856],[-75.51056,-12.63447],[-75.52609,-12.61841],[-75.56882,-12.6326],[-75.57961,-12.64148],[-75.58284,-12.62176],[-75.57803,-12.59219],[-75.57278,-12.58984],[-75.56663,-12.5709],[-75.57184,-12.56407],[-75.55887,-12.54515],[-75.55199,-12.54493],[-75.54537,-12.52561],[-75.5362,-12.51728],[-75.53927,-12.50032],[-75.55741,-12.45659],[-75.55544,-12.43122],[-75.55959,-12.41072],[-75.5409,-12.40343],[-75.50742,-12.40307],[-75.5,-12.39652],[-75.4904,-12.39865],[-75.47161,-12.39228],[-75.44285,-12.36983],[-75.40998,-12.36396],[-75.37666,-12.33957],[-75.35974,-12.33515],[-75.35254,-12.32761],[-75.35723,-12.30892],[-75.31461,-12.27015],[-75.30356,-12.2711],[-75.29985,-12.25827],[-75.28739,-12.26548],[-75.27158,-12.26662],[-75.27391,-12.25764],[-75.26268,-12.24892],[-75.24963,-12.25415],[-75.24445,-12.24182],[-75.24933,-12.22291],[-75.25787,-12.21336],[-75.26312,-12.19711],[-75.27129,-12.19038],[-75.27592,-12.17761],[-75.2653,-12.15677],[-75.24041,-12.14939],[-75.23593,-12.12323],[-75.23184,-12.1204],[-75.23189,-12.09249],[-75.23879,-12.06307],[-75.25838,-12.05794],[-75.26866,-12.06053],[-75.27786,-12.0551],[-75.2916,-12.05597],[-75.31478,-12.04263],[-75.31312,-12.03376],[-75.32507,-12.00933],[-75.31109,-12.00651],[-75.30396,-11.98534],[-75.2792,-11.98052],[-75.29266,-11.96551],[-75.29949,-11.95014],[-75.31278,-11.938],[-75.2941,-11.92165],[-75.29051,-11.89623],[-75.29488,-11.88739],[-75.2666,-11.87305],[-75.27428,-11.86398],[-75.26382,-11.85134],[-75.26406,-11.83528],[-75.25255,-11.82274],[-75.25071,-11.80994],[-75.21408,-11.80372],[-75.19872,-11.79471],[-75.1724,-11.79766],[-75.15978,-11.82156],[-75.15119,-11.82284],[-75.14398,-11.83263],[-75.12928,-11.84224],[-75.11798,-11.83544],[-75.09219,-11.83414],[-75.0897,-11.84401],[-75.07606,-11.8628],[-75.07108,-11.88092],[-75.06249,-11.88896],[-75.05089,-11.87596],[-75.04511,-11.85655],[-75.03222,-11.8467],[-75.0282,-11.83614],[-75.0156,-11.82125],[-74.99354,-11.81664],[-74.98145,-11.82697],[-74.9684,-11.84452],[-74.96131,-11.84323],[-74.95141,-11.82673],[-74.93986,-11.83721],[-74.92995,-11.83534],[-74.92535,-11.84465],[-74.91278,-11.84717],[-74.89652,-11.84189],[-74.88747,-11.84618],[-74.88536,-11.8356],[-74.87599,-11.83015],[-74.86529,-11.81503],[-74.85096,-11.80227],[-74.8689,-11.77747],[-74.84942,-11.7737],[-74.83861,-11.76287],[-74.83141,-11.76651],[-74.81738,-11.76225],[-74.80442,-11.7664],[-74.77,-11.76235],[-74.77874,-11.7412],[-74.77418,-11.72251],[-74.76533,-11.70761],[-74.74479,-11.7034],[-74.7368,-11.67487],[-74.72101,-11.66466],[-74.70949,-11.67424],[-74.69839,-11.66642],[-74.67963,-11.66125],[-74.67568,-11.67178],[-74.65137,-11.68768],[-74.65154,-11.69667],[-74.64254,-11.70095],[-74.65028,-11.73631],[-74.63993,-11.74074],[-74.63723,-11.75136],[-74.6255,-11.76046],[-74.62448,-11.77352],[-74.60634,-11.79311],[-74.61075,-11.80575],[-74.5967,-11.8185],[-74.59673,-11.84278],[-74.58184,-11.85376],[-74.58324,-11.87236],[-74.57071,-11.88444],[-74.54921,-11.87803],[-74.53601,-11.87836],[-74.52488,-11.88895],[-74.5243,-11.89752],[-74.50736,-11.91611],[-74.49051,-11.91367],[-74.48783,-11.92309],[-74.49557,-11.92547],[-74.50479,-11.93767],[-74.49894,-11.95324],[-74.5005,-11.9767],[-74.50765,-11.98708],[-74.54307,-11.98405],[-74.549,-11.99699],[-74.55768,-12.00095],[-74.56923,-11.99458],[-74.57171,-11.98481],[-74.59466,-11.98745],[-74.59246,-11.99498],[-74.60355,-11.99954],[-74.61255,-11.98798],[-74.62416,-11.98518],[-74.65548,-11.99228],[-74.66143,-12.00561],[-74.67851,-12.01748],[-74.68374,-12.03847],[-74.69932,-12.04437],[-74.7169,-12.05942],[-74.73053,-12.04694],[-74.74861,-12.04142],[-74.75912,-12.05112],[-74.77993,-12.053],[-74.79428,-12.05829],[-74.81782,-12.05351],[-74.83737,-12.07082],[-74.87077,-12.06599],[-74.88086,-12.05369],[-74.89633,-12.04888],[-74.90787,-12.03652],[-74.92,-12.03288],[-74.93037,-12.02286],[-74.9538,-12.01645],[-74.95907,-12.02288],[-74.97421,-12.02369],[-74.98966,-12.0174],[-74.99638,-12.02084],[-75.02078,-12.01329],[-75.02681,-12.0022],[-75.04926,-11.99985],[-75.04705,-12.01156],[-75.06523,-12.02541],[-75.06735,-12.03615],[-75.07472,-12.03798],[-75.08605,-12.05483],[-75.07461,-12.06015],[-75.06582,-12.09387],[-75.07131,-12.10239],[-75.06513,-12.11529],[-75.06792,-12.12712],[-75.06315,-12.13348],[-75.07695,-12.14715],[-75.07262,-12.1578],[-75.04833,-12.17033],[-75.05376,-12.18764],[-75.04936,-12.20134],[-75.05917,-12.20578],[-75.07163,-12.2352],[-75.08551,-12.23673],[-75.09269,-12.25047],[-75.10045,-12.2511],[-75.10522,-12.27114],[-75.09825,-12.2836],[-75.11044,-12.30346],[-75.12046,-12.308],[-75.12935,-12.33436],[-75.14023,-12.3421],[-75.13101,-12.3785]]]}},{"type":"Feature","properties":{"ubigeo":"1202","nombre":"Concepción"},"geometry":{"type":"Polygon","coordinates":[[[-74.72101,-11.66466],[-74.7368,-11.67487],[-74.74479,-11.7034],[-74.76533,-11.70761],[-74.77418,-11.72251],[-74.77874,-11.7412],[-74.77,-11.76235],[-74.80442,-11.7664],[-74.81738,-11.76225],[-74.83141,-11.76651],[-74.83861,-11.76287],[-74.84942,-11.7737],[-74.8689,-11.77747],[-74.85096,-11.80227],[-74.86529,-11.81503],[-74.87599,-11.83015],[-74.88536,-11.8356],[-74.88747,-11.84618],[-74.89652,-11.84189],[-74.91278,-11.84717],[-74.92535,-11.84465],[-74.92995,-11.83534],[-74.93986,-11.83721],[-74.95141,-11.82673],[-74.96131,-11.84323],[-74.9684,-11.84452],[-74.98145,-11.82697],[-74.99354,-11.81664],[-75.0156,-11.82125],[-75.0282,-11.83614],[-75.03222,-11.8467],[-75.04511,-11.85655],[-75.05089,-11.87596],[-75.06249,-11.88896],[-75.07108,-11.88092],[-75.07606,-11.8628],[-75.0897,-11.84401],[-75.09219,-11.83414],[-75.11798,-11.83544],[-75.12928,-11.84224],[-75.14398,-11.83263],[-75.15119,-11.82284],[-75.15978,-11.82156],[-75.1724,-11.79766],[-75.19872,-11.79471],[-75.21408,-11.80372],[-75.25071,-11.80994],[-75.25255,-11.82274],[-75.26406,-11.83528],[-75.26382,-11.85134],[-75.27428,-11.86398],[-75.2666,-11.87305],[-75.29488,-11.88739],[-75.29051,-11.89623],[-75.2941,-11.92165],[-75.31278,-11.938],[-75.29949,-11.95014],[-75.29266,-11.96551],[-75.2792,-11.98052],[-75.30396,-11.98534],[-75.31109,-12.00651],[-75.32507,-12.00933],[-75.33277,-12.0087],[-75.34804,-12.02301],[-75.38504,-12.03833],[-75.41407,-12.04779],[-75.42082,-12.05997],[-75.45982,-12.06685],[-75.45837,-12.07837],[-75.4691,-12.08227],[-75.47432,-12.10007],[-75.48662,-12.11167],[-75.51821,-12.12173],[-75.53239,-12.1457],[-75.52568,-12.16369],[-75.53621,-12.18735],[-75.54669,-12.18346],[-75.5722,-12.15953],[-75.58293,-12.15517],[-75.58586,-12.14515],[-75.59926,-12.14652],[-75.62752,-12.14174],[-75.63039,-12.12806],[-75.63882,-12.12086],[-75.63454,-12.11501],[-75.65474,-12.10273],[-75.65938,-12.0939],[-75.67327,-12.0852],[-75.68822,-12.08213],[-75.68469,-12.07126],[-75.67382,-12.05835],[-75.6943,-12.04269],[-75.68307,-12.03598],[-75.68786,-12.0166],[-75.67563,-12.00825],[-75.65653,-12.00867],[-75.64653,-12.01687],[-75.62276,-12.0223],[-75.61252,-12.01634],[-75.60979,-12.00751],[-75.58804,-12.00038],[-75.57745,-12.01017],[-75.54336,-12.02726],[-75.52334,-12.02208],[-75.50831,-12.00995],[-75.48951,-12.00746],[-75.47122,-11.99133],[-75.49829,-11.96817],[-75.49669,-11.95808],[-75.47921,-11.93553],[-75.46002,-11.93828],[-75.45229,-11.95859],[-75.43122,-11.95323],[-75.41815,-11.94365],[-75.40835,-11.92659],[-75.39308,-11.92605],[-75.35786,-11.9003],[-75.36788,-11.89656],[-75.40099,-11.87424],[-75.37869,-11.86431],[-75.37068,-11.86808],[-75.33734,-11.85681],[-75.31986,-11.85362],[-75.31321,-11.85815],[-75.30527,-11.83097],[-75.28093,-11.81616],[-75.26623,-11.8125],[-75.26976,-11.80028],[-75.26244,-11.79056],[-75.23757,-11.78084],[-75.23628,-11.7695],[-75.21823,-11.76471],[-75.19524,-11.77645],[-75.18693,-11.77612],[-75.19765,-11.76353],[-75.20025,-11.75064],[-75.19229,-11.70763],[-75.20289,-11.69218],[-75.21079,-11.68933],[-75.21439,-11.67548],[-75.2241,-11.66118],[-75.21231,-11.64967],[-75.21731,-11.63763],[-75.21156,-11.62486],[-75.19492,-11.62531],[-75.20263,-11.5992],[-75.18927,-11.5909],[-75.18656,-11.57328],[-75.17749,-11.57093],[-75.16346,-11.53622],[-75.1445,-11.52591],[-75.13202,-11.52405],[-75.12801,-11.51475],[-75.1151,-11.51187],[-75.09827,-11.49674],[-75.07294,-11.49295],[-75.06196,-11.48689],[-75.05266,-11.47037],[-75.03561,-11.47279],[-75.03278,-11.45505],[-75.01233,-11.44633],[-75.00056,-11.42701],[-74.98577,-11.43975],[-74.97294,-11.43818],[-74.95076,-11.46269],[-74.93265,-11.46842],[-74.93212,-11.47385],[-74.91495,-11.48002],[-74.91598,-11.48822],[-74.93666,-11.49969],[-74.95414,-11.50395],[-74.94768,-11.51705],[-74.96304,-11.52827],[-74.96268,-11.53649],[-74.97496,-11.55076],[-74.97095,-11.5711],[-74.95888,-11.57272],[-74.94148,-11.56487],[-74.93338,-11.55615],[-74.91708,-11.52841],[-74.88692,-11.53868],[-74.8715,-11.55401],[-74.84969,-11.56257],[-74.84037,-11.57571],[-74.83271,-11.57477],[-74.82025,-11.58836],[-74.81,-11.58726],[-74.78295,-11.60316],[-74.76947,-11.59784],[-74.7625,-11.61116],[-74.74758,-11.60519],[-74.72514,-11.614],[-74.72693,-11.63276],[-74.71786,-11.6585],[-74.72101,-11.66466]]]}},{"type":"Feature","properties":{"ubigeo":"1203","nombre":"Chanchamayo"},"geometry":{"type":"Polygon","coordinates":[[[-75.0284,-11.35023],[-75.30659,-11.30085],[-75.35825,-11.28501],[-75.43479,-11.25821],[-75.50556,-11.22428],[-75.57931,-11.22873],[-75.58636,-11.22225],[-75.58837,-11.17713],[-75.58394,-11.1679],[-75.59052,-11.16481],[-75.60221,-11.17249],[-75.61511,-11.15705],[-75.62296,-11.15582],[-75.63768,-11.1642],[-75.64289,-11.14498],[-75.65583,-11.12135],[-75.66965,-11.11531],[-75.67091,-11.10375],[-75.6233,-11.0769],[-75.60429,-11.07508],[-75.5844,-11.0514],[-75.56361,-11.04576],[-75.55451,-11.05337],[-75.54095,-11.04674],[-75.52777,-11.05006],[-75.51537,-11.04342],[-75.50419,-11.02632],[-75.48193,-11.01616],[-75.46412,-11.02421],[-75.44525,-11.00766],[-75.45425,-11.00225],[-75.44424,-10.98452],[-75.43765,-10.96517],[-75.42278,-10.95789],[-75.4235,-10.93689],[-75.43015,-10.93285],[-75.4369,-10.91021],[-75.45335,-10.9003],[-75.44734,-10.88809],[-75.43088,-10.87929],[-75.41827,-10.89035],[-75.41058,-10.87703],[-75.41072,-10.8617],[-75.39805,-10.85331],[-75.38693,-10.86494],[-75.37897,-10.85612],[-75.36274,-10.85011],[-75.35648,-10.8368],[-75.35526,-10.82027],[-75.36188,-10.81917],[-75.3534,-10.80411],[-75.33879,-10.80066],[-75.32647,-10.81936],[-75.31047,-10.82775],[-75.30427,-10.83824],[-75.28837,-10.84206],[-75.26236,-10.82529],[-75.25752,-10.80991],[-75.24747,-10.80196],[-75.24347,-10.79056],[-75.24419,-10.76416],[-75.22973,-10.75943],[-75.20418,-10.76468],[-75.18995,-10.7804],[-75.17665,-10.7499],[-75.15729,-10.76008],[-75.14233,-10.74125],[-75.12701,-10.73823],[-75.09773,-10.7084],[-75.08845,-10.68354],[-75.07162,-10.67785],[-75.07432,-10.66581],[-75.06507,-10.65289],[-75.05444,-10.65708],[-75.03921,-10.67278],[-75.03564,-10.68232],[-75.0207,-10.67369],[-75.00731,-10.68739],[-75.00878,-10.71062],[-75.0055,-10.72033],[-74.98651,-10.73551],[-74.98282,-10.74979],[-74.96063,-10.739],[-74.95648,-10.73282],[-74.93932,-10.74884],[-74.91736,-10.75457],[-74.91452,-10.7483],[-74.89331,-10.76917],[-74.86594,-10.75897],[-74.87068,-10.73905],[-74.88702,-10.71245],[-74.88232,-10.70185],[-74.86971,-10.70767],[-74.85114,-10.73297],[-74.8365,-10.7713],[-74.80574,-10.81717],[-74.7918,-10.83116],[-74.77613,-10.82665],[-74.76816,-10.83048],[-74.76036,-10.82514],[-74.74061,-10.83618],[-74.73171,-10.83493],[-74.72213,-10.84788],[-74.70795,-10.85816],[-74.70017,-10.87789],[-74.6954,-10.89456],[-74.70202,-10.915],[-74.69375,-10.93307],[-74.69875,-10.95655],[-74.67811,-10.95136],[-74.67088,-10.95804],[-74.66124,-10.95283],[-74.62776,-10.96511],[-74.62262,-10.97586],[-74.64353,-11.00005],[-74.64742,-11.00905],[-74.68603,-11.01016],[-74.69243,-11.01629],[-74.7144,-11.01567],[-74.71902,-11.02037],[-74.73391,-11.01186],[-74.74571,-11.01075],[-74.75014,-11.01651],[-74.75219,-11.0356],[-74.74623,-11.06988],[-74.76301,-11.07239],[-74.76664,-11.08448],[-74.77961,-11.08875],[-74.78545,-11.10165],[-74.81042,-11.10794],[-74.82528,-11.12714],[-74.84849,-11.13634],[-74.86819,-11.15465],[-74.87694,-11.15567],[-74.88318,-11.16475],[-74.89928,-11.16854],[-74.89063,-11.17859],[-74.89182,-11.19007],[-74.906,-11.1886],[-74.90294,-11.1999],[-74.91105,-11.21308],[-74.91027,-11.22243],[-74.90057,-11.23792],[-74.89083,-11.23401],[-74.89479,-11.246],[-74.89122,-11.27063],[-74.91505,-11.27577],[-74.92812,-11.28846],[-74.96824,-11.3003],[-75.01594,-11.29598],[-75.03777,-11.30413],[-75.04416,-11.29759],[-75.05047,-11.30696],[-75.04349,-11.32047],[-75.03332,-11.32903],[-75.03507,-11.33582],[-75.02472,-11.34438],[-75.0284,-11.35023]]]}},{"type":"Feature","properties":{"ubigeo":"1204","nombre":"Jauja"},"geometry":{"type":"Polygon","coordinates":[[[-74.97294,-11.43818],[-74.98577,-11.43975],[-75.00056,-11.42701],[-75.01233,-11.44633],[-75.03278,-11.45505],[-75.03561,-11.47279],[-75.05266,-11.47037],[-75.06196,-11.48689],[-75.07294,-11.49295],[-75.09827,-11.49674],[-75.1151,-11.51187],[-75.12801,-11.51475],[-75.13202,-11.52405],[-75.1445,-11.52591],[-75.16346,-11.53622],[-75.17749,-11.57093],[-75.18656,-11.57328],[-75.18927,-11.5909],[-75.20263,-11.5992],[-75.19492,-11.62531],[-75.21156,-11.62486],[-75.21731,-11.63763],[-75.21231,-11.64967],[-75.2241,-11.66118],[-75.21439,-11.67548],[-75.21079,-11.68933],[-75.20289,-11.69218],[-75.19229,-11.70763],[-75.20025,-11.75064],[-75.19765,-11.76353],[-75.18693,-11.77612],[-75.19524,-11.77645],[-75.21823,-11.76471],[-75.23628,-11.7695],[-75.23757,-11.78084],[-75.26244,-11.79056],[-75.26976,-11.80028],[-75.26623,-11.8125],[-75.28093,-11.81616],[-75.30527,-11.83097],[-75.31321,-11.85815],[-75.31986,-11.85362],[-75.33734,-11.85681],[-75.37068,-11.86808],[-75.37869,-11.86431],[-75.40099,-11.87424],[-75.36788,-11.89656],[-75.35786,-11.9003],[-75.39308,-11.92605],[-75.40835,-11.92659],[-75.41815,-11.94365],[-75.43122,-11.95323],[-75.45229,-11.95859],[-75.46002,-11.93828],[-75.47921,-11.93553],[-75.49669,-11.95808],[-75.49829,-11.96817],[-75.47122,-11.99133],[-75.48951,-12.00746],[-75.50831,-12.00995],[-75.52334,-12.02208],[-75.54336,-12.02726],[-75.57745,-12.01017],[-75.58804,-12.00038],[-75.60979,-12.00751],[-75.61252,-12.01634],[-75.62276,-12.0223],[-75.64653,-12.01687],[-75.65653,-12.00867],[-75.67563,-12.00825],[-75.68786,-12.0166],[-75.68307,-12.03598],[-75.6943,-12.04269],[-75.70109,-12.04816],[-75.71673,-12.04652],[-75.74218,-12.03668],[-75.74305,-12.04684],[-75.75203,-12.05538],[-75.76566,-12.05963],[-75.7866,-12.03938],[-75.79959,-12.03461],[-75.81894,-12.01374],[-75.83401,-12.02432],[-75.84255,-12.00645],[-75.85276,-12.00819],[-75.88429,-11.99363],[-75.90744,-11.99641],[-75.91063,-11.98933],[-75.92599,-11.98429],[-75.94858,-11.9944],[-75.95919,-11.98522],[-75.97531,-11.98394],[-75.99318,-11.99468],[-76.00071,-11.98508],[-76.01425,-11.98433],[-76.01962,-11.97596],[-76.03873,-11.96282],[-76.05259,-11.94824],[-76.05186,-11.93896],[-76.03378,-11.92918],[-76.02433,-11.89763],[-76.01566,-11.90404],[-75.99348,-11.89963],[-75.97872,-11.89134],[-75.97438,-11.88344],[-75.95815,-11.87653],[-75.95575,-11.87049],[-75.93554,-11.86961],[-75.9211,-11.87647],[-75.90665,-11.87364],[-75.90444,-11.86041],[-75.89559,-11.84492],[-75.90147,-11.82379],[-75.89634,-11.81428],[-75.89831,-11.80326],[-75.89185,-11.79757],[-75.89308,-11.78355],[-75.87367,-11.77023],[-75.85504,-11.76759],[-75.83226,-11.76985],[-75.81496,-11.78964],[-75.79782,-11.79024],[-75.78288,-11.77844],[-75.75465,-11.77475],[-75.74103,-11.74856],[-75.7345,-11.74678],[-75.71354,-11.72299],[-75.70038,-11.71231],[-75.71538,-11.70075],[-75.72021,-11.67601],[-75.74154,-11.6474],[-75.75644,-11.63957],[-75.75759,-11.62833],[-75.76587,-11.62179],[-75.76635,-11.61072],[-75.78164,-11.58801],[-75.78743,-11.55924],[-75.80176,-11.54477],[-75.79362,-11.54533],[-75.77055,-11.53689],[-75.74947,-11.54236],[-75.73705,-11.52267],[-75.72763,-11.52548],[-75.72706,-11.53554],[-75.71842,-11.5443],[-75.71161,-11.56605],[-75.70136,-11.55719],[-75.68936,-11.55636],[-75.68381,-11.56546],[-75.64919,-11.57015],[-75.64434,-11.56433],[-75.63401,-11.5685],[-75.63197,-11.58389],[-75.62503,-11.5891],[-75.60079,-11.57763],[-75.58062,-11.59586],[-75.57624,-11.58163],[-75.5491,-11.59829],[-75.55331,-11.57713],[-75.56855,-11.55695],[-75.57301,-11.54249],[-75.5672,-11.53429],[-75.54742,-11.52571],[-75.5519,-11.51398],[-75.53269,-11.49417],[-75.52413,-11.49794],[-75.51153,-11.51649],[-75.49764,-11.50945],[-75.47854,-11.52299],[-75.47084,-11.51208],[-75.47222,-11.49555],[-75.47946,-11.48575],[-75.45747,-11.45343],[-75.46082,-11.4283],[-75.45162,-11.41327],[-75.4395,-11.40726],[-75.42891,-11.39112],[-75.41615,-11.39358],[-75.40967,-11.38777],[-75.40212,-11.3457],[-75.4112,-11.33397],[-75.43096,-11.33231],[-75.43327,-11.31011],[-75.4431,-11.30275],[-75.43795,-11.29059],[-75.447,-11.27174],[-75.43319,-11.26525],[-75.43479,-11.25821],[-75.35825,-11.28501],[-75.30659,-11.30085],[-75.0284,-11.35023],[-74.99967,-11.36163],[-74.98807,-11.37456],[-74.99854,-11.38964],[-74.99866,-11.39722],[-74.97367,-11.43023],[-74.97294,-11.43818]]]}},{"type":"Feature","properties":{"ubigeo":"1205","nombre":"Junín"},"geometry":{"type":"Polygon","coordinates":[[[-75.41072,-10.8617],[-75.41058,-10.87703],[-75.41827,-10.89035],[-75.43088,-10.87929],[-75.44734,-10.88809],[-75.45335,-10.9003],[-75.46522,-10.90113],[-75.4652,-10.90841],[-75.48648,-10.91818],[-75.49758,-10.92779],[-75.49439,-10.94029],[-75.50281,-10.96207],[-75.51516,-10.95355],[-75.53698,-10.94835],[-75.56647,-10.95408],[-75.59892,-10.95444],[-75.6142,-10.96088],[-75.65224,-10.95814],[-75.66546,-10.94958],[-75.6742,-10.9506],[-75.68189,-10.96456],[-75.69927,-10.9702],[-75.70558,-10.97907],[-75.7256,-10.99162],[-75.7274,-10.99917],[-75.7396,-11.00074],[-75.76233,-11.01002],[-75.77527,-10.99892],[-75.80255,-11.01493],[-75.80637,-11.027],[-75.81717,-11.03444],[-75.81312,-11.05019],[-75.83231,-11.05133],[-75.83856,-11.08441],[-75.83246,-11.09462],[-75.83894,-11.11941],[-75.85219,-11.11971],[-75.85642,-11.13889],[-75.86244,-11.14485],[-75.87766,-11.14033],[-75.88836,-11.149],[-75.88448,-11.15715],[-75.90447,-11.17563],[-75.90185,-11.2003],[-75.91145,-11.20478],[-75.92204,-11.21975],[-75.96012,-11.21744],[-75.97193,-11.21417],[-75.94476,-11.24541],[-75.92467,-11.28082],[-75.91344,-11.29312],[-75.91388,-11.30171],[-75.8968,-11.31746],[-75.89014,-11.33316],[-75.89602,-11.3367],[-75.92435,-11.32976],[-75.94204,-11.33514],[-75.96019,-11.33332],[-75.97051,-11.34442],[-75.96911,-11.35081],[-75.9792,-11.35791],[-76.00635,-11.36526],[-76.01331,-11.37567],[-76.028,-11.37972],[-76.04258,-11.3718],[-76.07076,-11.38742],[-76.08377,-11.38652],[-76.09357,-11.37411],[-76.09689,-11.36091],[-76.10544,-11.35295],[-76.10812,-11.33549],[-76.13607,-11.31537],[-76.14127,-11.29412],[-76.15393,-11.2856],[-76.16527,-11.27015],[-76.17755,-11.2356],[-76.16938,-11.2198],[-76.18058,-11.21902],[-76.19074,-11.20048],[-76.18302,-11.17998],[-76.19781,-11.17935],[-76.19843,-11.17152],[-76.20888,-11.16921],[-76.20302,-11.14923],[-76.21463,-11.15031],[-76.2189,-11.13904],[-76.23859,-11.11535],[-76.24938,-11.10729],[-76.25125,-11.09538],[-76.24414,-11.07658],[-76.24016,-11.04693],[-76.25079,-11.04022],[-76.25957,-11.02592],[-76.25567,-11.0024],[-76.26358,-10.99882],[-76.26582,-10.98071],[-76.27295,-10.97102],[-76.26615,-10.96107],[-76.27672,-10.95035],[-76.27886,-10.92345],[-76.25985,-10.92143],[-76.24802,-10.93318],[-76.23683,-10.95785],[-76.21403,-10.98803],[-76.20851,-11.00166],[-76.19675,-11.01507],[-76.192,-11.02827],[-76.17831,-11.03566],[-76.17633,-11.04421],[-76.1567,-11.05582],[-76.14686,-11.07894],[-76.12367,-11.08601],[-76.12203,-11.10121],[-76.09872,-11.11764],[-76.09759,-11.11012],[-76.08683,-11.10675],[-76.08027,-11.11289],[-76.06514,-11.11275],[-76.06904,-11.10675],[-76.05896,-11.09205],[-76.04368,-11.09247],[-76.02966,-11.0872],[-76.02518,-11.08028],[-76.02891,-11.06546],[-76.01191,-11.04602],[-76.01138,-11.03249],[-76.03506,-11.02318],[-76.04458,-11.02473],[-76.04896,-10.99848],[-76.05586,-10.99489],[-76.07102,-10.97603],[-76.10584,-10.97211],[-76.1116,-10.96169],[-76.12293,-10.96264],[-76.10915,-10.93894],[-76.09896,-10.93031],[-76.09134,-10.90656],[-76.06808,-10.88662],[-76.05079,-10.88349],[-76.01503,-10.84268],[-76.00814,-10.83035],[-75.99267,-10.82098],[-75.97019,-10.84323],[-75.96163,-10.84396],[-75.95573,-10.85878],[-75.93715,-10.87151],[-75.93592,-10.88972],[-75.92275,-10.88315],[-75.91711,-10.87444],[-75.89698,-10.86884],[-75.87405,-10.86768],[-75.86526,-10.87654],[-75.86176,-10.86841],[-75.83838,-10.8863],[-75.83061,-10.87658],[-75.816,-10.87288],[-75.81832,-10.85405],[-75.80698,-10.83908],[-75.78599,-10.82456],[-75.76267,-10.83021],[-75.743,-10.82253],[-75.73237,-10.80919],[-75.69325,-10.81722],[-75.68853,-10.82732],[-75.69342,-10.8342],[-75.67855,-10.84018],[-75.6661,-10.82858],[-75.64977,-10.82338],[-75.64085,-10.82679],[-75.6056,-10.82189],[-75.60147,-10.81393],[-75.58967,-10.8109],[-75.5841,-10.80157],[-75.57432,-10.77037],[-75.57382,-10.74699],[-75.56385,-10.72977],[-75.55692,-10.74407],[-75.53142,-10.74329],[-75.52308,-10.75367],[-75.49833,-10.75867],[-75.49025,-10.75683],[-75.48293,-10.7655],[-75.48182,-10.77866],[-75.46971,-10.7762],[-75.46468,-10.75159],[-75.4351,-10.74758],[-75.42392,-10.75484],[-75.4135,-10.75082],[-75.3951,-10.75901],[-75.39647,-10.76906],[-75.38694,-10.79945],[-75.39076,-10.83226],[-75.40168,-10.84507],[-75.40957,-10.84595],[-75.41072,-10.8617]]]}},{"type":"Feature","properties":{"ubigeo":"1206","nombre":"Satipo"},"geometry":{"type":"Polygon","coordinates":[[[-73.97223,-12.29433],[-73.97172,-12.28962],[-73.97108,-12.27341],[-73.98322,-12.24712],[-73.98638,-12.26832],[-74.00198,-12.28403],[-74.01896,-12.27841],[-74.04022,-12.26147],[-74.05744,-12.27505],[-74.07674,-12.2819],[-74.09836,-12.28491],[-74.10137,-12.30401],[-74.12144,-12.3336],[-74.12918,-12.33208],[-74.13116,-12.31461],[-74.14733,-12.32438],[-74.15932,-12.32114],[-74.16525,-12.31317],[-74.17968,-12.31742],[-74.18762,-12.31438],[-74.18674,-12.30435],[-74.20695,-12.29828],[-74.21545,-12.30339],[-74.21804,-12.27808],[-74.23305,-12.26746],[-74.24711,-12.26821],[-74.24903,-12.2575],[-74.25815,-12.2559],[-74.27052,-12.23914],[-74.28407,-12.24064],[-74.29726,-12.22604],[-74.31267,-12.22451],[-74.32187,-12.22978],[-74.33652,-12.21493],[-74.33067,-12.21208],[-74.33419,-12.19446],[-74.34424,-12.19533],[-74.35149,-12.1764],[-74.34595,-12.17374],[-74.34706,-12.16506],[-74.36131,-12.15522],[-74.35238,-12.14776],[-74.35136,-12.13832],[-74.36348,-12.13784],[-74.37958,-12.11986],[-74.39882,-12.10361],[-74.40664,-12.1072],[-74.41952,-12.09378],[-74.4142,-12.07672],[-74.42278,-12.06735],[-74.43358,-12.06936],[-74.44525,-12.0451],[-74.45211,-12.04946],[-74.45554,-12.03358],[-74.46989,-12.02753],[-74.48838,-12.0332],[-74.50276,-12.02021],[-74.52908,-12.01466],[-74.549,-11.99699],[-74.54307,-11.98405],[-74.50765,-11.98708],[-74.5005,-11.9767],[-74.49894,-11.95324],[-74.50479,-11.93767],[-74.49557,-11.92547],[-74.48783,-11.92309],[-74.49051,-11.91367],[-74.50736,-11.91611],[-74.5243,-11.89752],[-74.52488,-11.88895],[-74.53601,-11.87836],[-74.54921,-11.87803],[-74.57071,-11.88444],[-74.58324,-11.87236],[-74.58184,-11.85376],[-74.59673,-11.84278],[-74.5967,-11.8185],[-74.61075,-11.80575],[-74.60634,-11.79311],[-74.62448,-11.77352],[-74.6255,-11.76046],[-74.63723,-11.75136],[-74.63993,-11.74074],[-74.65028,-11.73631],[-74.64254,-11.70095],[-74.65154,-11.69667],[-74.65137,-11.68768],[-74.67568,-11.67178],[-74.67963,-11.66125],[-74.69839,-11.66642],[-74.70949,-11.67424],[-74.72101,-11.66466],[-74.71786,-11.6585],[-74.72693,-11.63276],[-74.72514,-11.614],[-74.74758,-11.60519],[-74.7625,-11.61116],[-74.76947,-11.59784],[-74.78295,-11.60316],[-74.81,-11.58726],[-74.82025,-11.58836],[-74.83271,-11.57477],[-74.84037,-11.57571],[-74.84969,-11.56257],[-74.8715,-11.55401],[-74.88692,-11.53868],[-74.91708,-11.52841],[-74.93338,-11.55615],[-74.94148,-11.56487],[-74.95888,-11.57272],[-74.97095,-11.5711],[-74.97496,-11.55076],[-74.96268,-11.53649],[-74.96304,-11.52827],[-74.94768,-11.51705],[-74.95414,-11.50395],[-74.93666,-11.49969],[-74.91598,-11.48822],[-74.91495,-11.48002],[-74.93212,-11.47385],[-74.93265,-11.46842],[-74.95076,-11.46269],[-74.97294,-11.43818],[-74.97367,-11.43023],[-74.99866,-11.39722],[-74.99854,-11.38964],[-74.98807,-11.37456],[-74.99967,-11.36163],[-75.0284,-11.35023],[-75.02472,-11.34438],[-75.03507,-11.33582],[-75.03332,-11.32903],[-75.04349,-11.32047],[-75.05047,-11.30696],[-75.04416,-11.29759],[-75.03777,-11.30413],[-75.01594,-11.29598],[-74.96824,-11.3003],[-74.92812,-11.28846],[-74.91505,-11.27577],[-74.89122,-11.27063],[-74.89479,-11.246],[-74.89083,-11.23401],[-74.90057,-11.23792],[-74.91027,-11.22243],[-74.91105,-11.21308],[-74.90294,-11.1999],[-74.906,-11.1886],[-74.89182,-11.19007],[-74.89063,-11.17859],[-74.89928,-11.16854],[-74.88318,-11.16475],[-74.87694,-11.15567],[-74.86819,-11.15465],[-74.84849,-11.13634],[-74.82528,-11.12714],[-74.81042,-11.10794],[-74.78545,-11.10165],[-74.77961,-11.08875],[-74.76664,-11.08448],[-74.76301,-11.07239],[-74.74623,-11.06988],[-74.75219,-11.0356],[-74.75014,-11.01651],[-74.74571,-11.01075],[-74.73391,-11.01186],[-74.71902,-11.02037],[-74.7144,-11.01567],[-74.69243,-11.01629],[-74.68603,-11.01016],[-74.64742,-11.00905],[-74.64353,-11.00005],[-74.62262,-10.97586],[-74.62776,-10.96511],[-74.66124,-10.95283],[-74.67088,-10.95804],[-74.67811,-10.95136],[-74.69875,-10.95655],[-74.69375,-10.93307],[-74.70202,-10.915],[-74.6954,-10.89456],[-74.70017,-10.87789],[-74.69491,-10.88492],[-74.68135,-10.88916],[-74.67918,-10.87907],[-74.65781,-10.87396],[-74.6493,-10.86707],[-74.63417,-10.87356],[-74.63355,-10.88411],[-74.62354,-10.8909],[-74.6141,-10.90463],[-74.59481,-10.91149],[-74.56996,-10.91521],[-74.56236,-10.91368],[-74.54107,-10.93154],[-74.50838,-10.9503],[-74.50268,-10.96516],[-74.50008,-10.996],[-74.49453,-11.00112],[-74.46244,-11.00055],[-74.44541,-11.00485],[-74.41864,-11.02524],[-74.41342,-11.03357],[-74.37365,-11.05652],[-74.33945,-11.05396],[-74.32002,-11.03842],[-74.29386,-11.03133],[-74.28154,-11.03313],[-74.25644,-11.01822],[-74.20147,-11.01966],[-74.19837,-10.99715],[-74.19087,-10.986],[-74.14799,-10.99884],[-74.13685,-10.9886],[-74.11652,-10.99086],[-74.09178,-10.98681],[-74.06136,-10.99574],[-74.03626,-10.98901],[-74.02211,-10.99335],[-74.0055,-10.99319],[-73.99075,-11.02687],[-73.98911,-11.04112],[-73.97874,-11.07003],[-73.97828,-11.08314],[-73.98366,-11.09271],[-73.97827,-11.12063],[-73.95842,-11.14153],[-73.95738,-11.14814],[-73.94183,-11.15122],[-73.93474,-11.14234],[-73.91649,-11.1431],[-73.8993,-11.15578],[-73.89227,-11.16811],[-73.86306,-11.16912],[-73.85271,-11.16433],[-73.8613,-11.14553],[-73.85968,-11.13256],[-73.86565,-11.09868],[-73.86283,-11.07012],[-73.86657,-11.03735],[-73.86109,-10.97412],[-73.85575,-10.95697],[-73.82341,-10.92107],[-73.82684,-10.91279],[-73.8142,-10.8916],[-73.82077,-10.87901],[-73.81601,-10.85795],[-73.82216,-10.83607],[-73.81679,-10.83014],[-73.81422,-10.7999],[-73.7907,-10.79636],[-73.77848,-10.77504],[-73.78328,-10.75802],[-73.77653,-10.7493],[-73.7572,-10.7359],[-73.74212,-10.73401],[-73.734,-10.75109],[-73.71486,-10.75989],[-73.70426,-10.77126],[-73.69619,-10.77303],[-73.67678,-10.79008],[-73.66565,-10.79316],[-73.66754,-10.79941],[-73.6104,-10.84657],[-73.59433,-10.85256],[-73.57427,-10.85226],[-73.56026,-10.86061],[-73.55902,-10.87414],[-73.56727,-10.90595],[-73.56484,-10.93675],[-73.57149,-10.95809],[-73.55867,-10.97535],[-73.55824,-10.99914],[-73.55301,-11.01405],[-73.54134,-11.02155],[-73.54258,-11.04742],[-73.52294,-11.05797],[-73.50659,-11.05789],[-73.49827,-11.06399],[-73.4826,-11.06524],[-73.47133,-11.087],[-73.47418,-11.09896],[-73.46692,-11.11997],[-73.47519,-11.12836],[-73.45838,-11.19545],[-73.4592,-11.20878],[-73.4501,-11.22475],[-73.44987,-11.23557],[-73.46113,-11.27694],[-73.46011,-11.30271],[-73.47132,-11.30556],[-73.48409,-11.31934],[-73.47987,-11.33033],[-73.48564,-11.34432],[-73.48069,-11.3541],[-73.47065,-11.34401],[-73.44976,-11.36808],[-73.41975,-11.38394],[-73.4301,-11.39992],[-73.4433,-11.40968],[-73.45258,-11.42473],[-73.45584,-11.4402],[-73.46905,-11.44522],[-73.47972,-11.47136],[-73.46904,-11.48227],[-73.45381,-11.50533],[-73.44973,-11.53194],[-73.47618,-11.53904],[-73.48713,-11.53492],[-73.49213,-11.5518],[-73.50324,-11.56382],[-73.55965,-11.59205],[-73.58203,-11.61558],[-73.59436,-11.64033],[-73.60827,-11.66016],[-73.61241,-11.67466],[-73.60861,-11.68521],[-73.58318,-11.71883],[-73.57448,-11.73415],[-73.57052,-11.76289],[-73.57991,-11.76939],[-73.58166,-11.80696],[-73.57751,-11.83648],[-73.55526,-11.85236],[-73.54558,-11.85229],[-73.51113,-11.86241],[-73.49053,-11.87817],[-73.48572,-11.8923],[-73.46372,-11.9233],[-73.46266,-11.92981],[-73.44713,-11.93495],[-73.44113,-11.9442],[-73.44519,-11.95925],[-73.43032,-11.98126],[-73.43769,-11.98963],[-73.41812,-12.01506],[-73.40681,-12.00557],[-73.39788,-12.02094],[-73.39887,-12.04575],[-73.40857,-12.06142],[-73.40034,-12.07346],[-73.3913,-12.07674],[-73.40045,-12.08859],[-73.38886,-12.10089],[-73.35537,-12.11425],[-73.36189,-12.13596],[-73.38175,-12.14058],[-73.39699,-12.13947],[-73.41742,-12.14527],[-73.42901,-12.15261],[-73.43952,-12.15201],[-73.44606,-12.16029],[-73.46965,-12.21997],[-73.46987,-12.23689],[-73.49244,-12.25046],[-73.50755,-12.25287],[-73.5168,-12.24911],[-73.53374,-12.25898],[-73.54812,-12.26093],[-73.55895,-12.27489],[-73.57433,-12.27684],[-73.58495,-12.31311],[-73.5867,-12.33001],[-73.59205,-12.33423],[-73.58644,-12.34867],[-73.58607,-12.36618],[-73.5991,-12.3859],[-73.62882,-12.37383],[-73.63363,-12.37901],[-73.64465,-12.37181],[-73.65598,-12.35166],[-73.66496,-12.32113],[-73.68907,-12.29941],[-73.69088,-12.291],[-73.70781,-12.26791],[-73.72274,-12.26376],[-73.73694,-12.26679],[-73.752,-12.25542],[-73.76141,-12.25325],[-73.77898,-12.26278],[-73.79562,-12.26228],[-73.82054,-12.24611],[-73.8382,-12.24252],[-73.86306,-12.2434],[-73.8782,-12.24883],[-73.88334,-12.26225],[-73.8998,-12.267],[-73.92493,-12.28319],[-73.95084,-12.28118],[-73.97223,-12.29433]]]}},{"type":"Feature","properties":{"ubigeo":"1207","nombre":"Tarma"},"geometry":{"type":"Polygon","coordinates":[[[-75.80176,-11.54477],[-75.81162,-11.54693],[-75.82683,-11.5371],[-75.83922,-11.52239],[-75.85931,-11.50541],[-75.87092,-11.50708],[-75.87439,-11.49093],[-75.88621,-11.47422],[-75.90848,-11.43175],[-75.91497,-11.43051],[-75.91638,-11.41583],[-75.88532,-11.40408],[-75.91286,-11.38338],[-75.90864,-11.37648],[-75.93945,-11.34713],[-75.96019,-11.33332],[-75.94204,-11.33514],[-75.92435,-11.32976],[-75.89602,-11.3367],[-75.89014,-11.33316],[-75.8968,-11.31746],[-75.91388,-11.30171],[-75.91344,-11.29312],[-75.92467,-11.28082],[-75.94476,-11.24541],[-75.97193,-11.21417],[-75.96012,-11.21744],[-75.92204,-11.21975],[-75.91145,-11.20478],[-75.90185,-11.2003],[-75.90447,-11.17563],[-75.88448,-11.15715],[-75.88836,-11.149],[-75.87766,-11.14033],[-75.86244,-11.14485],[-75.85642,-11.13889],[-75.85219,-11.11971],[-75.83894,-11.11941],[-75.83246,-11.09462],[-75.83856,-11.08441],[-75.83231,-11.05133],[-75.81312,-11.05019],[-75.81717,-11.03444],[-75.80637,-11.027],[-75.80255,-11.01493],[-75.77527,-10.99892],[-75.76233,-11.01002],[-75.7396,-11.00074],[-75.7274,-10.99917],[-75.7256,-10.99162],[-75.70558,-10.97907],[-75.69927,-10.9702],[-75.68189,-10.96456],[-75.6742,-10.9506],[-75.66546,-10.94958],[-75.65224,-10.95814],[-75.6142,-10.96088],[-75.59892,-10.95444],[-75.56647,-10.95408],[-75.53698,-10.94835],[-75.51516,-10.95355],[-75.50281,-10.96207],[-75.49439,-10.94029],[-75.49758,-10.92779],[-75.48648,-10.91818],[-75.4652,-10.90841],[-75.46522,-10.90113],[-75.45335,-10.9003],[-75.4369,-10.91021],[-75.43015,-10.93285],[-75.4235,-10.93689],[-75.42278,-10.95789],[-75.43765,-10.96517],[-75.44424,-10.98452],[-75.45425,-11.00225],[-75.44525,-11.00766],[-75.46412,-11.02421],[-75.48193,-11.01616],[-75.50419,-11.02632],[-75.51537,-11.04342],[-75.52777,-11.05006],[-75.54095,-11.04674],[-75.55451,-11.05337],[-75.56361,-11.04576],[-75.5844,-11.0514],[-75.60429,-11.07508],[-75.6233,-11.0769],[-75.67091,-11.10375],[-75.66965,-11.11531],[-75.65583,-11.12135],[-75.64289,-11.14498],[-75.63768,-11.1642],[-75.62296,-11.15582],[-75.61511,-11.15705],[-75.60221,-11.17249],[-75.59052,-11.16481],[-75.58394,-11.1679],[-75.58837,-11.17713],[-75.58636,-11.22225],[-75.57931,-11.22873],[-75.50556,-11.22428],[-75.43479,-11.25821],[-75.43319,-11.26525],[-75.447,-11.27174],[-75.43795,-11.29059],[-75.4431,-11.30275],[-75.43327,-11.31011],[-75.43096,-11.33231],[-75.4112,-11.33397],[-75.40212,-11.3457],[-75.40967,-11.38777],[-75.41615,-11.39358],[-75.42891,-11.39112],[-75.4395,-11.40726],[-75.45162,-11.41327],[-75.46082,-11.4283],[-75.45747,-11.45343],[-75.47946,-11.48575],[-75.47222,-11.49555],[-75.47084,-11.51208],[-75.47854,-11.52299],[-75.49764,-11.50945],[-75.51153,-11.51649],[-75.52413,-11.49794],[-75.53269,-11.49417],[-75.5519,-11.51398],[-75.54742,-11.52571],[-75.5672,-11.53429],[-75.57301,-11.54249],[-75.56855,-11.55695],[-75.55331,-11.57713],[-75.5491,-11.59829],[-75.57624,-11.58163],[-75.58062,-11.59586],[-75.60079,-11.57763],[-75.62503,-11.5891],[-75.63197,-11.58389],[-75.63401,-11.5685],[-75.64434,-11.56433],[-75.64919,-11.57015],[-75.68381,-11.56546],[-75.68936,-11.55636],[-75.70136,-11.55719],[-75.71161,-11.56605],[-75.71842,-11.5443],[-75.72706,-11.53554],[-75.72763,-11.52548],[-75.73705,-11.52267],[-75.74947,-11.54236],[-75.77055,-11.53689],[-75.79362,-11.54533],[-75.80176,-11.54477]]]}},{"type":"Feature","properties":{"ubigeo":"1208","nombre":"Yauli"},"geometry":{"type":"Polygon","coordinates":[[[-75.96019,-11.33332],[-75.93945,-11.34713],[-75.90864,-11.37648],[-75.91286,-11.38338],[-75.88532,-11.40408],[-75.91638,-11.41583],[-75.91497,-11.43051],[-75.90848,-11.43175],[-75.88621,-11.47422],[-75.87439,-11.49093],[-75.87092,-11.50708],[-75.85931,-11.50541],[-75.83922,-11.52239],[-75.82683,-11.5371],[-75.81162,-11.54693],[-75.80176,-11.54477],[-75.78743,-11.55924],[-75.78164,-11.58801],[-75.76635,-11.61072],[-75.76587,-11.62179],[-75.75759,-11.62833],[-75.75644,-11.63957],[-75.74154,-11.6474],[-75.72021,-11.67601],[-75.71538,-11.70075],[-75.70038,-11.71231],[-75.71354,-11.72299],[-75.7345,-11.74678],[-75.74103,-11.74856],[-75.75465,-11.77475],[-75.78288,-11.77844],[-75.79782,-11.79024],[-75.81496,-11.78964],[-75.83226,-11.76985],[-75.85504,-11.76759],[-75.87367,-11.77023],[-75.89308,-11.78355],[-75.89185,-11.79757],[-75.89831,-11.80326],[-75.89634,-11.81428],[-75.90147,-11.82379],[-75.89559,-11.84492],[-75.90444,-11.86041],[-75.90665,-11.87364],[-75.9211,-11.87647],[-75.93554,-11.86961],[-75.95575,-11.87049],[-75.95815,-11.87653],[-75.97438,-11.88344],[-75.97872,-11.89134],[-75.99348,-11.89963],[-76.01566,-11.90404],[-76.02433,-11.89763],[-76.03378,-11.92918],[-76.05186,-11.93896],[-76.05822,-11.91281],[-76.05034,-11.9096],[-76.05175,-11.89086],[-76.05818,-11.87996],[-76.08459,-11.86038],[-76.10417,-11.83165],[-76.1126,-11.81158],[-76.12521,-11.79545],[-76.1335,-11.79238],[-76.14375,-11.77658],[-76.14992,-11.7837],[-76.17288,-11.76256],[-76.17538,-11.75038],[-76.18889,-11.73772],[-76.1982,-11.73781],[-76.20233,-11.72805],[-76.2048,-11.69455],[-76.19721,-11.69338],[-76.1933,-11.67349],[-76.20488,-11.65953],[-76.18829,-11.64239],[-76.19878,-11.62755],[-76.19474,-11.61966],[-76.17981,-11.61092],[-76.18787,-11.60231],[-76.18771,-11.59279],[-76.19939,-11.58843],[-76.2055,-11.57442],[-76.21693,-11.57157],[-76.22734,-11.55389],[-76.23741,-11.56901],[-76.26202,-11.56667],[-76.27184,-11.58012],[-76.29671,-11.59587],[-76.30437,-11.56753],[-76.31751,-11.5627],[-76.32786,-11.54432],[-76.3501,-11.54214],[-76.35092,-11.52007],[-76.3594,-11.52287],[-76.36176,-11.51457],[-76.37684,-11.50149],[-76.38102,-11.48634],[-76.37151,-11.47552],[-76.37741,-11.44422],[-76.39434,-11.44501],[-76.41183,-11.4146],[-76.40142,-11.40285],[-76.4204,-11.37366],[-76.42268,-11.35486],[-76.43175,-11.34556],[-76.44336,-11.34728],[-76.45702,-11.33443],[-76.46452,-11.32046],[-76.46327,-11.31251],[-76.47859,-11.29128],[-76.46217,-11.26582],[-76.47663,-11.26421],[-76.49071,-11.2466],[-76.48512,-11.24423],[-76.48412,-11.23019],[-76.494,-11.2107],[-76.49208,-11.18931],[-76.50687,-11.16979],[-76.50318,-11.16602],[-76.50542,-11.14314],[-76.5184,-11.11608],[-76.49539,-11.10906],[-76.49121,-11.08944],[-76.47752,-11.0831],[-76.46457,-11.08473],[-76.45192,-11.07981],[-76.44681,-11.07125],[-76.43001,-11.07646],[-76.39722,-11.07576],[-76.39235,-11.07042],[-76.38357,-11.08026],[-76.35931,-11.08754],[-76.35096,-11.09419],[-76.3378,-11.08274],[-76.31807,-11.09164],[-76.31788,-11.11042],[-76.3079,-11.13266],[-76.28025,-11.13817],[-76.26294,-11.1496],[-76.25218,-11.15052],[-76.2449,-11.14298],[-76.22778,-11.1556],[-76.21463,-11.15031],[-76.20302,-11.14923],[-76.20888,-11.16921],[-76.19843,-11.17152],[-76.19781,-11.17935],[-76.18302,-11.17998],[-76.19074,-11.20048],[-76.18058,-11.21902],[-76.16938,-11.2198],[-76.17755,-11.2356],[-76.16527,-11.27015],[-76.15393,-11.2856],[-76.14127,-11.29412],[-76.13607,-11.31537],[-76.10812,-11.33549],[-76.10544,-11.35295],[-76.09689,-11.36091],[-76.09357,-11.37411],[-76.08377,-11.38652],[-76.07076,-11.38742],[-76.04258,-11.3718],[-76.028,-11.37972],[-76.01331,-11.37567],[-76.00635,-11.36526],[-75.9792,-11.35791],[-75.96911,-11.35081],[-75.97051,-11.34442],[-75.96019,-11.33332]]]}},{"type":"Feature","properties":{"ubigeo":"1209","nombre":"Chupaca"},"geometry":{"type":"Polygon","coordinates":[[[-75.62752,-12.14174],[-75.59926,-12.14652],[-75.58586,-12.14515],[-75.58293,-12.15517],[-75.5722,-12.15953],[-75.54669,-12.18346],[-75.53621,-12.18735],[-75.52568,-12.16369],[-75.53239,-12.1457],[-75.51821,-12.12173],[-75.48662,-12.11167],[-75.47432,-12.10007],[-75.4691,-12.08227],[-75.45837,-12.07837],[-75.45982,-12.06685],[-75.42082,-12.05997],[-75.41407,-12.04779],[-75.38504,-12.03833],[-75.34804,-12.02301],[-75.33277,-12.0087],[-75.32507,-12.00933],[-75.31312,-12.03376],[-75.31478,-12.04263],[-75.2916,-12.05597],[-75.27786,-12.0551],[-75.26866,-12.06053],[-75.25838,-12.05794],[-75.23879,-12.06307],[-75.23189,-12.09249],[-75.23184,-12.1204],[-75.23593,-12.12323],[-75.24041,-12.14939],[-75.2653,-12.15677],[-75.27592,-12.17761],[-75.27129,-12.19038],[-75.26312,-12.19711],[-75.25787,-12.21336],[-75.24933,-12.22291],[-75.24445,-12.24182],[-75.24963,-12.25415],[-75.26268,-12.24892],[-75.27391,-12.25764],[-75.27158,-12.26662],[-75.28739,-12.26548],[-75.29985,-12.25827],[-75.30356,-12.2711],[-75.31461,-12.27015],[-75.35723,-12.30892],[-75.35254,-12.32761],[-75.35974,-12.33515],[-75.37666,-12.33957],[-75.40998,-12.36396],[-75.44285,-12.36983],[-75.47161,-12.39228],[-75.4904,-12.39865],[-75.5,-12.39652],[-75.50742,-12.40307],[-75.5409,-12.40343],[-75.55959,-12.41072],[-75.56698,-12.40989],[-75.56164,-12.39089],[-75.55119,-12.37581],[-75.5487,-12.36424],[-75.55454,-12.35944],[-75.5641,-12.33629],[-75.57106,-12.32984],[-75.5888,-12.3247],[-75.59264,-12.3141],[-75.58641,-12.30078],[-75.59145,-12.29734],[-75.61612,-12.25649],[-75.62732,-12.24838],[-75.65208,-12.21448],[-75.65203,-12.20676],[-75.67087,-12.18648],[-75.65849,-12.17525],[-75.64847,-12.17421],[-75.64898,-12.16306],[-75.64142,-12.14922],[-75.62752,-12.14174]]]}}]}