{"type":"FeatureCollection","features":[{"type":"Feature","properties":{"ubigeo":"1301","nombre":"Trujillo"},"geometry":{"type":"Polygon","coordinates":[[[-78.63909,-8.143],[-78.6427,-8.14754],[-78.65935,-8.1469],[-78.66824,-8.14085],[-78.68097,-8.15181],[-78.69983,-8.15388],[-78.71022,-8.16303],[-78.72802,-8.17094],[-78.76387,-8.17383],[-78.77742,-8.18272],[-78.78112,-8.20791],[-78.7967,-8.2012],[-78.80984,-8.20633],[-78.83147,-8.20359],[-78.84266,-8.19311],[-78.83832,-8.2091],[-78.83747,-8.22931],[-78.81603,-8.23296],[-78.80336,-8.24995],[-78.8025,-8.25755],[-78.81531,-8.27296],[-78.80835,-8.28574],[-78.81676,-8.30999],[-78.84002,-8.31801],[-78.84904,-8.32849],[-78.88137,-8.34266],[-78.89271,-8.3665],[-78.90053,-8.37145],[-78.95857,-8.28987],[-78.95557,-8.28252],[-78.96257,-8.26187],[-78.98872,-8.2324],[-78.98121,-8.22763],[-78.98388,-8.21321],[-79.01618,-8.17982],[-79.04563,-8.15379],[-79.11557,-8.09666],[-79.12258,-8.08748],[-79.1194,-8.07539],[-79.13008,-8.05985],[-79.17685,-8.0227],[-79.2108,-7.99882],[-79.20183,-7.98943],[-79.17848,-7.97771],[-79.14997,-7.94382],[-79.13291,-7.94338],[-79.12684,-7.93752],[-79.11687,-7.94599],[-79.11242,-7.97103],[-79.10589,-7.98198],[-79.04001,-7.98832],[-79.03681,-7.97051],[-79.01228,-7.9597],[-79.00153,-7.93112],[-79.0001,-7.91956],[-78.98509,-7.89349],[-78.97586,-7.8937],[-78.95521,-7.90285],[-78.94471,-7.89285],[-78.9266,-7.89266],[-78.9133,-7.88619],[-78.90337,-7.88738],[-78.88845,-7.86712],[-78.88475,-7.84198],[-78.8747,-7.83205],[-78.85584,-7.82528],[-78.83733,-7.80361],[-78.82488,-7.804],[-78.81626,-7.79687],[-78.80333,-7.8001],[-78.78166,-7.79971],[-78.77379,-7.80385],[-78.78173,-7.81827],[-78.76803,-7.83368],[-78.77471,-7.85439],[-78.7831,-7.86303],[-78.78022,-7.88362],[-78.76378,-7.88142],[-78.74341,-7.88687],[-78.72967,-7.88473],[-78.7368,-7.91051],[-78.73193,-7.92778],[-78.72015,-7.92721],[-78.6889,-7.94741],[-78.6902,-7.96648],[-78.69439,-7.97211],[-78.68417,-7.98703],[-78.68363,-7.99719],[-78.69687,-8.00816],[-78.71645,-8.01684],[-78.70812,-8.02535],[-78.70586,-8.03865],[-78.72011,-8.05002],[-78.72232,-8.09041],[-78.70709,-8.09417],[-78.68399,-8.09091],[-78.68237,-8.09722],[-78.6818,-8.12542],[-78.63763,-8.13044],[-78.63909,-8.143]]]}},{"type":"Feature","properties":{"ubigeo":"1302","nombre":"Ascope"},"geometry":{"type":"Polygon","coordinates":[[[-78.80377,-7.63411],[-78.81908,-7.63952],[-78.82502,-7.63352],[-78.88036,-7.64049],[-78.89598,-7.64539],[-78.89563,-7.66839],[-78.90608,-7.68403],[-78.91229,-7.68608],[-78.90786,-7.70987],[-78.91397,-7.71951],[-78.90316,-7.72365],[-78.89307,-7.74897],[-78.88555,-7.75892],[-78.88985,-7.7718],[-78.87315,-7.77008],[-78.86224,-7.77493],[-78.85913,-7.78886],[-78.85225,-7.78466],[-78.83272,-7.78375],[-78.82093,-7.7873],[-78.81626,-7.79687],[-78.82488,-7.804],[-78.83733,-7.80361],[-78.85584,-7.82528],[-78.8747,-7.83205],[-78.88475,-7.84198],[-78.88845,-7.86712],[-78.90337,-7.88738],[-78.9133,-7.88619],[-78.9266,-7.89266],[-78.94471,-7.89285],[-78.95521,-7.90285],[-78.97586,-7.8937],[-78.98509,-7.89349],[-79.0001,-7.91956],[-79.00153,-7.93112],[-79.01228,-7.9597],[-79.03681,-7.97051],[-79.04001,-7.98832],[-79.10589,-7.98198],[-79.11242,-7.97103],[-79.11687,-7.94599],[-79.12684,-7.93752],[-79.13291,-7.94338],[-79.14997,-7.94382],[-79.17848,-7.97771],[-79.20183,-7.98943],[-79.2108,-7.99882],[-79.22129,-7.98972],[-79.28581,-7.94334],[-79.30729,-7.92597],[-79.30987,-7.91405],[-79.3527,-7.87221],[-79.37575,-7.8421],[-79.38674,-7.80979],[-79.3845,-7.79992],[-79.39243,-7.78781],[-79.44772,-7.73628],[-79.46546,-7.71657],[-79.46571,-7.71193],[-79.44662,-7.70471],[-79.43529,-7.69336],[-79.43682,-7.6736],[-79.45576,-7.63664],[-79.38564,-7.59768],[-79.37011,-7.5759],[-79.36832,-7.56623],[-79.35674,-7.55866],[-79.3495,-7.56258],[-79.34102,-7.57732],[-79.33238,-7.58218],[-79.32643,-7.57445],[-79.31779,-7.58321],[-79.30993,-7.57757],[-79.30037,-7.54976],[-79.29214,-7.54682],[-79.29606,-7.51295],[-79.28399,-7.51401],[-79.26166,-7.5039],[-79.2674,-7.48828],[-79.25285,-7.46175],[-79.23809,-7.45618],[-79.24168,-7.45005],[-79.23019,-7.4403],[-79.22547,-7.42829],[-79.21152,-7.42147],[-79.20724,-7.40173],[-79.18733,-7.38866],[-79.18711,-7.39764],[-79.16213,-7.41797],[-79.15272,-7.43982],[-79.12276,-7.44164],[-79.06543,-7.47271],[-79.06911,-7.47962],[-79.07155,-7.50535],[-79.06595,-7.52081],[-79.05717,-7.52733],[-79.05985,-7.54668],[-79.0391,-7.5612],[-79.04123,-7.59989],[-79.03433,-7.60392],[-79.02642,-7.62545],[-79.0186,-7.62906],[-78.99215,-7.66095],[-78.96086,-7.65783],[-78.95171,-7.64654],[-78.94294,-7.62279],[-78.94145,-7.61704],[-78.90776,-7.59807],[-78.87086,-7.59228],[-78.85804,-7.59507],[-78.83182,-7.58622],[-78.8231,-7.57467],[-78.80702,-7.57376],[-78.79854,-7.5866],[-78.79355,-7.60863],[-78.79443,-7.6202],[-78.80377,-7.63411]]]}},{"type":"Feature","properties":{"ubigeo":"1303","nombre":"Bolívar"},"geometry":{"type":"Polygon","coordinates":[[[-77.70145,-7.59364],[-77.6982,-7.56455],[-77.70566,-7.56282],[-77.72086,-7.54113],[-77.72075,-7.5305],[-77.73307,-7.51432],[-77.74405,-7.50587],[-77.74221,-7.48771],[-77.74598,-7.47916],[-77.74137,-7.46669],[-77.75542,-7.44105],[-77.76744,-7.44077],[-77.77392,-7.42647],[-77.77199,-7.41846],[-77.78073,-7.41088],[-77.80057,-7.40301],[-77.82514,-7.3783],[-77.82093,-7.36912],[-77.8296,-7.34764],[-77.83837,-7.34112],[-77.83105,-7.31003],[-77.8394,-7.29099],[-77.85658,-7.2832],[-77.85441,-7.27207],[-77.8596,-7.26487],[-77.85696,-7.24532],[-77.84924,-7.23557],[-77.8809,-7.22139],[-77.8874,-7.18523],[-77.89778,-7.18249],[-77.89787,-7.16681],[-77.92269,-7.15746],[-77.92952,-7.10636],[-77.9398,-7.09618],[-77.94929,-7.07842],[-77.95115,-7.06461],[-77.96592,-7.05077],[-77.96526,-7.03829],[-77.97289,-7.02403],[-77.97985,-7.02142],[-77.98828,-7.00622],[-77.98585,-7.00034],[-78.00055,-6.9892],[-77.98849,-6.97532],[-77.99951,-6.97053],[-77.98358,-6.96309],[-77.96289,-6.97618],[-77.94915,-6.97343],[-77.92753,-6.98671],[-77.91529,-6.98057],[-77.90001,-6.98067],[-77.88034,-6.9625],[-77.84586,-6.9764],[-77.83924,-6.97323],[-77.83343,-6.95678],[-77.80989,-6.96118],[-77.80193,-6.96614],[-77.78763,-6.95491],[-77.7793,-6.94145],[-77.76594,-6.96212],[-77.75893,-6.96451],[-77.7471,-6.98672],[-77.74566,-7.01955],[-77.73194,-7.04872],[-77.70674,-7.07247],[-77.71761,-7.08636],[-77.71338,-7.10789],[-77.70072,-7.11787],[-77.6891,-7.12132],[-77.68126,-7.13164],[-77.64353,-7.149],[-77.63363,-7.17003],[-77.62082,-7.17257],[-77.61542,-7.17944],[-77.62105,-7.19163],[-77.61298,-7.20637],[-77.60738,-7.20611],[-77.60553,-7.21916],[-77.64675,-7.24074],[-77.64513,-7.25345],[-77.63734,-7.2545],[-77.64692,-7.26961],[-77.63488,-7.29268],[-77.62865,-7.32002],[-77.63908,-7.34326],[-77.62942,-7.3815],[-77.62168,-7.39736],[-77.63038,-7.41327],[-77.61365,-7.41995],[-77.61027,-7.43486],[-77.59897,-7.44851],[-77.59293,-7.44349],[-77.55954,-7.46482],[-77.54953,-7.4959],[-77.53908,-7.50739],[-77.52692,-7.50484],[-77.52174,-7.51159],[-77.52913,-7.51619],[-77.52986,-7.53635],[-77.53563,-7.54383],[-77.5339,-7.55488],[-77.54019,-7.5629],[-77.5367,-7.58228],[-77.52225,-7.57706],[-77.51545,-7.58378],[-77.49603,-7.5836],[-77.48576,-7.60399],[-77.49419,-7.61361],[-77.52169,-7.61268],[-77.52918,-7.62035],[-77.52271,-7.63182],[-77.53656,-7.64411],[-77.53095,-7.65448],[-77.53189,-7.66257],[-77.54556,-7.67218],[-77.55852,-7.67379],[-77.57006,-7.66207],[-77.59253,-7.65517],[-77.60594,-7.64713],[-77.62178,-7.62257],[-77.64454,-7.61069],[-77.66852,-7.60684],[-77.70145,-7.59364]]]}},{"type":"Feature","properties":{"ubigeo":"1304","nombre":"Chepén"},"geometry":{"type":"Polygon","coordinates":[[[-79.2518,-7.19835],[-79.27134,-7.21512],[-79.26977,-7.22706],[-79.27932,-7.2477],[-79.27139,-7.25877],[-79.26892,-7.27841],[-79.28263,-7.27506],[-79.30883,-7.28539],[-79.32753,-7.30894],[-79.3591,-7.32524],[-79.36928,-7.32412],[-79.38706,-7.30882],[-79.40397,-7.30235],[-79.41724,-7.2826],[-79.42319,-7.25717],[-79.45879,-7.22546],[-79.47168,-7.2302],[-79.48858,-7.22123],[-79.49068,-7.23545],[-79.50111,-7.23435],[-79.50491,-7.25464],[-79.5183,-7.2587],[-79.52447,-7.25149],[-79.54183,-7.24657],[-79.54181,-7.25393],[-79.55227,-7.26726],[-79.55314,-7.28076],[-79.56109,-7.28855],[-79.58269,-7.28386],[-79.59972,-7.28575],[-79.6098,-7.26659],[-79.63996,-7.22879],[-79.69062,-7.17713],[-79.53529,-7.01148],[-79.51442,-6.98633],[-79.51473,-6.97858],[-79.50332,-6.96742],[-79.47838,-6.97065],[-79.46792,-6.96608],[-79.45501,-6.94631],[-79.43085,-6.95337],[-79.40076,-6.95693],[-79.38932,-6.97517],[-79.3691,-6.99169],[-79.35961,-7.00497],[-79.34232,-7.0108],[-79.33054,-7.02422],[-79.32259,-7.02568],[-79.33162,-7.05735],[-79.32615,-7.08299],[-79.31292,-7.09039],[-79.31214,-7.12252],[-79.29619,-7.12962],[-79.30627,-7.14338],[-79.28256,-7.15595],[-79.27455,-7.18278],[-79.26533,-7.19409],[-79.2518,-7.19835]]]}},{"type":"Feature","properties":{"ubigeo":"1305","nombre":"Julcán"},"geometry":{"type":"Polygon","coordinates":[[[-78.63909,-8.143],[-78.63763,-8.13044],[-78.6818,-8.12542],[-78.68237,-8.09722],[-78.65109,-8.09117],[-78.63578,-8.09764],[-78.62987,-8.09313],[-78.62543,-8.0765],[-78.60944,-8.06293],[-78.59572,-8.06157],[-78.56708,-8.07605],[-78.5359,-8.08389],[-78.53065,-8.0667],[-78.53312,-8.04267],[-78.51606,-8.02995],[-78.51359,-8.0229],[-78.49954,-8.02573],[-78.48828,-8.01147],[-78.47185,-7.99716],[-78.45757,-7.99155],[-78.42893,-7.99984],[-78.42279,-7.99219],[-78.40615,-7.9901],[-78.38147,-8.01716],[-78.36983,-8.01742],[-78.35165,-8.02556],[-78.35429,-8.03199],[-78.31999,-8.05754],[-78.30118,-8.05258],[-78.28868,-8.06224],[-78.28954,-8.0745],[-78.29939,-8.08237],[-78.29924,-8.10305],[-78.31796,-8.13314],[-78.3163,-8.14632],[-78.32439,-8.15412],[-78.30414,-8.16859],[-78.29909,-8.20264],[-78.3007,-8.23634],[-78.31292,-8.25335],[-78.33061,-8.25747],[-78.34653,-8.27117],[-78.35523,-8.28983],[-78.3773,-8.31018],[-78.38997,-8.30144],[-78.41206,-8.30414],[-78.4152,-8.33445],[-78.42487,-8.35876],[-78.42985,-8.36024],[-78.43611,-8.36494],[-78.4425,-8.38228],[-78.46596,-8.3876],[-78.48379,-8.38161],[-78.4944,-8.37134],[-78.47914,-8.35108],[-78.49836,-8.34097],[-78.51659,-8.33832],[-78.5367,-8.32239],[-78.55038,-8.32421],[-78.57114,-8.31989],[-78.58062,-8.30872],[-78.5883,-8.3075],[-78.5832,-8.27931],[-78.57655,-8.27571],[-78.56614,-8.24953],[-78.5883,-8.24111],[-78.60469,-8.22207],[-78.60114,-8.20846],[-78.60697,-8.19539],[-78.62153,-8.18859],[-78.64375,-8.19011],[-78.65247,-8.18466],[-78.65071,-8.17561],[-78.6368,-8.15553],[-78.63909,-8.143]]]}},{"type":"Feature","properties":{"ubigeo":"1306","nombre":"Otuzco"},"geometry":{"type":"Polygon","coordinates":[[[-78.26115,-7.75402],[-78.26126,-7.77301],[-78.27335,-7.78491],[-78.26967,-7.81335],[-78.25232,-7.83718],[-78.24888,-7.85494],[-78.25301,-7.88653],[-78.2602,-7.89358],[-78.27159,-7.88788],[-78.28961,-7.8889],[-78.32047,-7.90595],[-78.32446,-7.93007],[-78.34076,-7.93912],[-78.34443,-7.94637],[-78.36622,-7.95018],[-78.37859,-7.97636],[-78.38827,-7.97702],[-78.40615,-7.9901],[-78.42279,-7.99219],[-78.42893,-7.99984],[-78.45757,-7.99155],[-78.47185,-7.99716],[-78.48828,-8.01147],[-78.49954,-8.02573],[-78.51359,-8.0229],[-78.51606,-8.02995],[-78.53312,-8.04267],[-78.53065,-8.0667],[-78.5359,-8.08389],[-78.56708,-8.07605],[-78.59572,-8.06157],[-78.60944,-8.06293],[-78.62543,-8.0765],[-78.62987,-8.09313],[-78.63578,-8.09764],[-78.65109,-8.09117],[-78.68237,-8.09722],[-78.68399,-8.09091],[-78.70709,-8.09417],[-78.72232,-8.09041],[-78.72011,-8.05002],[-78.70586,-8.03865],[-78.70812,-8.02535],[-78.71645,-8.01684],[-78.69687,-8.00816],[-78.68363,-7.99719],[-78.68417,-7.98703],[-78.69439,-7.97211],[-78.6902,-7.96648],[-78.6889,-7.94741],[-78.72015,-7.92721],[-78.73193,-7.92778],[-78.7368,-7.91051],[-78.72967,-7.88473],[-78.74341,-7.88687],[-78.76378,-7.88142],[-78.78022,-7.88362],[-78.7831,-7.86303],[-78.77471,-7.85439],[-78.76803,-7.83368],[-78.78173,-7.81827],[-78.77379,-7.80385],[-78.78166,-7.79971],[-78.80333,-7.8001],[-78.81626,-7.79687],[-78.82093,-7.7873],[-78.83272,-7.78375],[-78.85225,-7.78466],[-78.85913,-7.78886],[-78.86224,-7.77493],[-78.87315,-7.77008],[-78.88985,-7.7718],[-78.88555,-7.75892],[-78.89307,-7.74897],[-78.90316,-7.72365],[-78.91397,-7.71951],[-78.90786,-7.70987],[-78.91229,-7.68608],[-78.90608,-7.68403],[-78.89563,-7.66839],[-78.89598,-7.64539],[-78.88036,-7.64049],[-78.82502,-7.63352],[-78.81908,-7.63952],[-78.80377,-7.63411],[-78.77469,-7.65453],[-78.77003,-7.66664],[-78.75109,-7.67291],[-78.74262,-7.68837],[-78.73069,-7.68876],[-78.71246,-7.70398],[-78.71243,-7.72127],[-78.70471,-7.72606],[-78.70176,-7.74706],[-78.68901,-7.77354],[-78.67253,-7.78527],[-78.66504,-7.79699],[-78.64448,-7.77006],[-78.62732,-7.75129],[-78.60045,-7.73517],[-78.59596,-7.70388],[-78.58715,-7.70261],[-78.57971,-7.71282],[-78.5614,-7.71875],[-78.55092,-7.7262],[-78.53263,-7.72031],[-78.5122,-7.70359],[-78.49905,-7.69668],[-78.49662,-7.68575],[-78.4799,-7.66858],[-78.45528,-7.65704],[-78.46844,-7.64574],[-78.48736,-7.63976],[-78.45789,-7.63141],[-78.44712,-7.6238],[-78.44161,-7.64061],[-78.41953,-7.63917],[-78.38746,-7.64399],[-78.37606,-7.63996],[-78.36073,-7.6443],[-78.34796,-7.68572],[-78.33565,-7.69054],[-78.33014,-7.69963],[-78.3152,-7.70318],[-78.3028,-7.69646],[-78.27572,-7.72022],[-78.28209,-7.7264],[-78.28325,-7.7421],[-78.27242,-7.75352],[-78.26115,-7.75402]]]}},{"type":"Feature","properties":{"ubigeo":"1307","nombre":"Pacasmayo"},"geometry":{"type":"Polygon","coordinates":[[[-79.18733,-7.38866],[-79.20724,-7.40173],[-79.21152,-7.42147],[-79.22547,-7.42829],[-79.23019,-7.4403],[-79.24168,-7.45005],[-79.23809,-7.45618],[-79.25285,-7.46175],[-79.2674,-7.48828],[-79.26166,-7.5039],[-79.28399,-7.51401],[-79.29606,-7.51295],[-79.29214,-7.54682],[-79.30037,-7.54976],[-79.30993,-7.57757],[-79.31779,-7.58321],[-79.32643,-7.57445],[-79.33238,-7.58218],[-79.34102,-7.57732],[-79.3495,-7.56258],[-79.35674,-7.55866],[-79.36832,-7.56623],[-79.37011,-7.5759],[-79.38564,-7.59768],[-79.45576,-7.63664],[-79.47174,-7.61225],[-79.49526,-7.58119],[-79.49599,-7.57533],[-79.54088,-7.52126],[-79.53948,-7.51402],[-79.55007,-7.49453],[-79.57661,-7.46151],[-79.57894,-7.44251],[-79.58848,-7.4141],[-79.57286,-7.40039],[-79.56976,-7.39001],[-79.5744,-7.37388],[-79.58854,-7.35093],[-79.5905,-7.32692],[-79.58762,-7.31838],[-79.59972,-7.28575],[-79.58269,-7.28386],[-79.56109,-7.28855],[-79.55314,-7.28076],[-79.55227,-7.26726],[-79.54181,-7.25393],[-79.54183,-7.24657],[-79.52447,-7.25149],[-79.5183,-7.2587],[-79.50491,-7.25464],[-79.50111,-7.23435],[-79.49068,-7.23545],[-79.48858,-7.22123],[-79.47168,-7.2302],[-79.45879,-7.22546],[-79.42319,-7.25717],[-79.41724,-7.2826],[-79.40397,-7.30235],[-79.38706,-7.30882],[-79.36928,-7.32412],[-79.3656,-7.33241],[-79.34713,-7.33664],[-79.33427,-7.35288],[-79.31492,-7.35968],[-79.29312,-7.34726],[-79.28026,-7.3509],[-79.27924,-7.35953],[-79.26087,-7.379],[-79.23087,-7.39095],[-79.20203,-7.37821],[-79.18707,-7.37709],[-79.18733,-7.38866]]]}},{"type":"Feature","properties":{"ubigeo":"1308","nombre":"Pataz"},"geometry":{"type":"Polygon","coordinates":[[[-77.0687,-8.03951],[-77.03137,-8.04612],[-77.01956,-8.05269],[-77.00359,-8.08135],[-76.99732,-8.0823],[-76.98625,-8.10388],[-76.98672,-8.11123],[-76.96921,-8.12068],[-76.94703,-8.13992],[-76.93021,-8.13846],[-76.91177,-8.1589],[-76.907,-8.17074],[-76.91227,-8.18978],[-76.92363,-8.20645],[-76.9256,-8.2185],[-76.91503,-8.2324],[-76.90124,-8.28347],[-76.91112,-8.29749],[-76.907,-8.30443],[-76.91375,-8.32609],[-76.93185,-8.34348],[-76.927,-8.35926],[-76.9442,-8.36177],[-76.95006,-8.37502],[-76.96555,-8.36967],[-76.97455,-8.37893],[-76.97648,-8.39594],[-76.99268,-8.39538],[-77.00247,-8.38305],[-77.0325,-8.40397],[-77.04372,-8.40454],[-77.06525,-8.3966],[-77.07536,-8.40587],[-77.08548,-8.40622],[-77.09399,-8.42775],[-77.0932,-8.43447],[-77.10392,-8.44404],[-77.12078,-8.44741],[-77.13384,-8.44002],[-77.14674,-8.45451],[-77.18554,-8.48019],[-77.20421,-8.48569],[-77.2341,-8.47854],[-77.26408,-8.46753],[-77.27131,-8.47543],[-77.2771,-8.49574],[-77.29338,-8.51712],[-77.31009,-8.52192],[-77.31749,-8.53015],[-77.3371,-8.53145],[-77.34735,-8.51793],[-77.36602,-8.50709],[-77.36907,-8.49986],[-77.3863,-8.49408],[-77.40034,-8.48197],[-77.39898,-8.46415],[-77.40546,-8.44148],[-77.41834,-8.43965],[-77.43836,-8.42233],[-77.4386,-8.39791],[-77.44848,-8.38162],[-77.44696,-8.36937],[-77.45944,-8.35494],[-77.4589,-8.33566],[-77.47799,-8.32655],[-77.47364,-8.3205],[-77.48213,-8.31392],[-77.49137,-8.28255],[-77.50341,-8.27455],[-77.52863,-8.26569],[-77.52783,-8.24722],[-77.55276,-8.23642],[-77.56571,-8.23739],[-77.57534,-8.23006],[-77.57079,-8.20726],[-77.55729,-8.19373],[-77.57541,-8.16815],[-77.60319,-8.15718],[-77.60787,-8.14678],[-77.60338,-8.13476],[-77.61595,-8.13146],[-77.62401,-8.11789],[-77.63652,-8.10619],[-77.6254,-8.09447],[-77.61883,-8.07983],[-77.6233,-8.07353],[-77.64273,-8.06722],[-77.64741,-8.04971],[-77.64939,-8.03221],[-77.64157,-8.00655],[-77.64082,-7.98333],[-77.64049,-7.96057],[-77.62741,-7.95137],[-77.62983,-7.93652],[-77.62406,-7.92352],[-77.62779,-7.89972],[-77.63568,-7.89066],[-77.62362,-7.87654],[-77.62436,-7.86431],[-77.63351,-7.85129],[-77.63335,-7.8412],[-77.64026,-7.82237],[-77.64985,-7.81344],[-77.64838,-7.80176],[-77.65648,-7.79789],[-77.65359,-7.77046],[-77.66885,-7.7222],[-77.6652,-7.71215],[-77.65502,-7.70877],[-77.66369,-7.69388],[-77.67457,-7.69001],[-77.67874,-7.6777],[-77.67215,-7.66494],[-77.67967,-7.63191],[-77.69762,-7.61572],[-77.70145,-7.59364],[-77.66852,-7.60684],[-77.64454,-7.61069],[-77.62178,-7.62257],[-77.60594,-7.64713],[-77.59253,-7.65517],[-77.57006,-7.66207],[-77.55852,-7.67379],[-77.54556,-7.67218],[-77.53189,-7.66257],[-77.53095,-7.65448],[-77.51126,-7.65773],[-77.50947,-7.67654],[-77.49789,-7.68635],[-77.46653,-7.67488],[-77.46128,-7.69137],[-77.47149,-7.69145],[-77.48453,-7.69971],[-77.48294,-7.71935],[-77.49551,-7.73706],[-77.52778,-7.75758],[-77.52547,-7.76834],[-77.50655,-7.77038],[-77.50532,-7.77863],[-77.49313,-7.78576],[-77.47983,-7.80329],[-77.44286,-7.81364],[-77.44262,-7.82419],[-77.43157,-7.84174],[-77.43746,-7.85172],[-77.42389,-7.87918],[-77.40678,-7.90249],[-77.40165,-7.89845],[-77.38883,-7.9077],[-77.37691,-7.90882],[-77.37537,-7.92006],[-77.38266,-7.92514],[-77.38556,-7.94386],[-77.39052,-7.94731],[-77.38781,-7.96381],[-77.397,-7.96947],[-77.40713,-7.99199],[-77.39961,-8.00806],[-77.37523,-8.03256],[-77.3813,-8.03789],[-77.38547,-8.05539],[-77.37328,-8.06468],[-77.3493,-8.05438],[-77.32449,-8.05804],[-77.30721,-8.0566],[-77.30328,-8.06304],[-77.29226,-8.06009],[-77.28134,-8.04878],[-77.2588,-8.04683],[-77.25472,-8.03375],[-77.23829,-8.01332],[-77.20487,-8.01255],[-77.18214,-8.02249],[-77.16492,-8.02212],[-77.15054,-8.03204],[-77.13199,-8.03197],[-77.11832,-8.02524],[-77.10152,-8.02723],[-77.0687,-8.03951]]]}},{"type":"Feature","properties":{"ubigeo":"1309","nombre":"Sánchez Carrión"},"geometry":{"type":"Polygon","coordinates":[[[-77.70145,-7.59364],[-77.69762,-7.61572],[-77.67967,-7.63191],[-77.67215,-7.66494],[-77.67874,-7.6777],[-77.67457,-7.69001],[-77.66369,-7.69388],[-77.65502,-7.70877],[-77.6652,-7.71215],[-77.66885,-7.7222],[-77.65359,-7.77046],[-77.65648,-7.79789],[-77.64838,-7.80176],[-77.64985,-7.81344],[-77.64026,-7.82237],[-77.63335,-7.8412],[-77.63351,-7.85129],[-77.62436,-7.86431],[-77.62362,-7.87654],[-77.63568,-7.89066],[-77.62779,-7.89972],[-77.62406,-7.92352],[-77.62983,-7.93652],[-77.62741,-7.95137],[-77.64049,-7.96057],[-77.64082,-7.98333],[-77.67156,-7.98272],[-77.69126,-7.97596],[-77.70368,-7.96075],[-77.71825,-7.95854],[-77.71907,-7.96752],[-77.75201,-7.98604],[-77.75971,-8.00371],[-77.78153,-8.00749],[-77.80428,-8.00718],[-77.81457,-7.9951],[-77.83827,-7.97518],[-77.86459,-7.9872],[-77.87725,-7.98014],[-77.88782,-7.99959],[-77.90561,-7.99308],[-77.91999,-8.00022],[-77.93248,-7.98411],[-77.96064,-7.97064],[-77.95884,-8.00108],[-77.97384,-8.01163],[-77.98563,-7.98232],[-78.0049,-7.984],[-78.00427,-7.97438],[-78.01358,-7.95096],[-78.02225,-7.93977],[-78.02538,-7.91617],[-78.03269,-7.90692],[-78.05175,-7.92735],[-78.06433,-7.92723],[-78.0682,-7.94114],[-78.10756,-7.95075],[-78.11879,-7.94981],[-78.13286,-7.95735],[-78.14493,-7.93417],[-78.16529,-7.93287],[-78.16888,-7.94131],[-78.18765,-7.94137],[-78.21184,-7.89685],[-78.21885,-7.9009],[-78.2442,-7.88135],[-78.25301,-7.88653],[-78.24888,-7.85494],[-78.25232,-7.83718],[-78.26967,-7.81335],[-78.27335,-7.78491],[-78.26126,-7.77301],[-78.26115,-7.75402],[-78.24232,-7.7545],[-78.22465,-7.75933],[-78.21386,-7.75798],[-78.21164,-7.74321],[-78.21965,-7.72857],[-78.19284,-7.72721],[-78.19029,-7.7175],[-78.17135,-7.71339],[-78.15886,-7.69335],[-78.14911,-7.69165],[-78.141,-7.68272],[-78.14256,-7.66569],[-78.12781,-7.65348],[-78.11605,-7.65401],[-78.09333,-7.67534],[-78.08122,-7.69617],[-78.06321,-7.68881],[-78.05093,-7.67892],[-78.02597,-7.68251],[-77.99864,-7.67907],[-77.9732,-7.66705],[-77.96673,-7.67515],[-77.95782,-7.6548],[-77.94835,-7.65973],[-77.9323,-7.65179],[-77.94029,-7.64045],[-77.92625,-7.63709],[-77.91278,-7.6249],[-77.92277,-7.60031],[-77.88789,-7.58821],[-77.87044,-7.58533],[-77.8618,-7.55226],[-77.86264,-7.53485],[-77.85749,-7.5242],[-77.84417,-7.51438],[-77.81346,-7.50439],[-77.79187,-7.50039],[-77.77,-7.48178],[-77.74598,-7.47916],[-77.74221,-7.48771],[-77.74405,-7.50587],[-77.73307,-7.51432],[-77.72075,-7.5305],[-77.72086,-7.54113],[-77.70566,-7.56282],[-77.6982,-7.56455],[-77.70145,-7.59364]]]}},{"type":"Feature","properties":{"ubigeo":"1310","nombre":"Santiago de Chuco"},"geometry":{"type":"Polygon","coordinates":[[[-77.64741,-8.04971],[-77.68468,-8.063],[-77.69137,-8.06052],[-77.71839,-8.07347],[-77.74339,-8.07018],[-77.75023,-8.0772],[-77.76105,-8.07523],[-77.78578,-8.0792],[-77.7958,-8.07102],[-77.81044,-8.06774],[-77.83328,-8.07574],[-77.85221,-8.07478],[-77.86556,-8.05708],[-77.88352,-8.06371],[-77.89694,-8.06323],[-77.89795,-8.07616],[-77.90543,-8.09492],[-77.90446,-8.10455],[-77.9142,-8.12144],[-77.92037,-8.14726],[-77.92655,-8.15714],[-77.93411,-8.19419],[-77.9574,-8.20827],[-77.97887,-8.21049],[-77.98233,-8.21537],[-78.01863,-8.22432],[-78.03431,-8.24543],[-78.03489,-8.25392],[-78.04551,-8.25787],[-78.06646,-8.27759],[-78.08198,-8.28109],[-78.10223,-8.30538],[-78.11595,-8.3101],[-78.12064,-8.31869],[-78.10854,-8.3359],[-78.12247,-8.36008],[-78.1375,-8.36867],[-78.13923,-8.39016],[-78.13464,-8.39305],[-78.14061,-8.41413],[-78.13947,-8.42783],[-78.15674,-8.46357],[-78.1573,-8.47819],[-78.17041,-8.49204],[-78.17366,-8.50354],[-78.2026,-8.52607],[-78.2169,-8.55799],[-78.21515,-8.56571],[-78.2019,-8.57389],[-78.19362,-8.59968],[-78.20715,-8.6327],[-78.22835,-8.64479],[-78.23557,-8.65292],[-78.2609,-8.61475],[-78.2641,-8.59262],[-78.28264,-8.57193],[-78.2812,-8.56237],[-78.29009,-8.54837],[-78.26672,-8.53756],[-78.27611,-8.51096],[-78.27355,-8.48327],[-78.26093,-8.47268],[-78.2637,-8.46738],[-78.28262,-8.46694],[-78.29776,-8.46183],[-78.33065,-8.46659],[-78.34455,-8.47546],[-78.36094,-8.46421],[-78.37427,-8.45964],[-78.37721,-8.4424],[-78.37308,-8.42428],[-78.37389,-8.40454],[-78.3965,-8.40266],[-78.40524,-8.41245],[-78.40724,-8.39842],[-78.42017,-8.38736],[-78.42461,-8.39016],[-78.42991,-8.37376],[-78.42985,-8.36024],[-78.42487,-8.35876],[-78.4152,-8.33445],[-78.41206,-8.30414],[-78.38997,-8.30144],[-78.3773,-8.31018],[-78.35523,-8.28983],[-78.34653,-8.27117],[-78.33061,-8.25747],[-78.31292,-8.25335],[-78.3007,-8.23634],[-78.29909,-8.20264],[-78.30414,-8.16859],[-78.32439,-8.15412],[-78.3163,-8.14632],[-78.31796,-8.13314],[-78.29924,-8.10305],[-78.29939,-8.08237],[-78.28954,-8.0745],[-78.28868,-8.06224],[-78.30118,-8.05258],[-78.31999,-8.05754],[-78.35429,-8.03199],[-78.35165,-8.02556],[-78.36983,-8.01742],[-78.38147,-8.01716],[-78.40615,-7.9901],[-78.38827,-7.97702],[-78.37859,-7.97636],[-78.36622,-7.95018],[-78.34443,-7.94637],[-78.34076,-7.93912],[-78.32446,-7.93007],[-78.32047,-7.90595],[-78.28961,-7.8889],[-78.27159,-7.88788],[-78.2602,-7.89358],[-78.25301,-7.88653],[-78.2442,-7.88135],[-78.21885,-7.9009],[-78.21184,-7.89685],[-78.18765,-7.94137],[-78.16888,-7.94131],[-78.16529,-7.93287],[-78.14493,-7.93417],[-78.13286,-7.95735],[-78.11879,-7.94981],[-78.10756,-7.95075],[-78.0682,-7.94114],[-78.06433,-7.92723],[-78.05175,-7.92735],[-78.03269,-7.90692],[-78.02538,-7.91617],[-78.02225,-7.93977],[-78.01358,-7.95096],[-78.00427,-7.97438],[-78.0049,-7.984],[-77.98563,-7.98232],[-77.97384,-8.01163],[-77.95884,-8.00108],[-77.96064,-7.97064],[-77.93248,-7.98411],[-77.91999,-8.00022],[-77.90561,-7.99308],[-77.88782,-7.99959],[-77.87725,-7.98014],[-77.86459,-7.9872],[-77.83827,-7.97518],[-77.81457,-7.9951],[-77.80428,-8.00718],[-77.78153,-8.00749],[-77.75971,-8.00371],[-77.75201,-7.98604],[-77.71907,-7.96752],[-77.71825,-7.95854],[-77.70368,-7.96075],[-77.69126,-7.97596],[-77.67156,-7.98272],[-77.64082,-7.98333],[-77.64157,-8.00655],[-77.64939,-8.03221],[-77.64741,-8.04971]]]}},{"type":"Feature","properties":{"ubigeo":"1311","nombre":"Gran Chimú"},"geometry":{"type":"Polygon","coordinates":[[[-78.33583,-7.49525],[-78.32222,-7.50333],[-78.32575,-7.5099],[-78.33905,-7.50787],[-78.34958,-7.51182],[-78.36083,-7.52996],[-78.36386,-7.54547],[-78.35978,-7.55107],[-78.35679,-7.57401],[-78.37017,-7.59328],[-78.37976,-7.60027],[-78.37689,-7.62465],[-78.38282,-7.63011],[-78.37606,-7.63996],[-78.38746,-7.64399],[-78.41953,-7.63917],[-78.44161,-7.64061],[-78.44712,-7.6238],[-78.45789,-7.63141],[-78.48736,-7.63976],[-78.46844,-7.64574],[-78.45528,-7.65704],[-78.4799,-7.66858],[-78.49662,-7.68575],[-78.49905,-7.69668],[-78.5122,-7.70359],[-78.53263,-7.72031],[-78.55092,-7.7262],[-78.5614,-7.71875],[-78.57971,-7.71282],[-78.58715,-7.70261],[-78.59596,-7.70388],[-78.60045,-7.73517],[-78.62732,-7.75129],[-78.64448,-7.77006],[-78.66504,-7.79699],[-78.67253,-7.78527],[-78.68901,-7.77354],[-78.70176,-7.74706],[-78.70471,-7.72606],[-78.71243,-7.72127],[-78.71246,-7.70398],[-78.73069,-7.68876],[-78.74262,-7.68837],[-78.75109,-7.67291],[-78.77003,-7.66664],[-78.77469,-7.65453],[-78.80377,-7.63411],[-78.79443,-7.6202],[-78.79355,-7.60863],[-78.79854,-7.5866],[-78.80702,-7.57376],[-78.8231,-7.57467],[-78.83182,-7.58622],[-78.85804,-7.59507],[-78.87086,-7.59228],[-78.90776,-7.59807],[-78.94145,-7.61704],[-78.94294,-7.62279],[-78.94434,-7.59842],[-78.93649,-7.5949],[-78.93516,-7.58185],[-78.9139,-7.55832],[-78.91277,-7.55109],[-78.89591,-7.53744],[-78.87393,-7.5312],[-78.8615,-7.53186],[-78.85149,-7.52255],[-78.86185,-7.4972],[-78.88669,-7.4841],[-78.87658,-7.47034],[-78.84776,-7.45277],[-78.84162,-7.43762],[-78.80341,-7.41899],[-78.80141,-7.40351],[-78.78991,-7.39515],[-78.77973,-7.42365],[-78.76012,-7.40198],[-78.74527,-7.407],[-78.73821,-7.42009],[-78.73046,-7.41993],[-78.71333,-7.40964],[-78.69623,-7.41336],[-78.6733,-7.41162],[-78.66428,-7.4036],[-78.6522,-7.42761],[-78.63829,-7.43359],[-78.62984,-7.4455],[-78.62753,-7.47945],[-78.6362,-7.5043],[-78.6496,-7.52902],[-78.62457,-7.54856],[-78.5901,-7.55019],[-78.58054,-7.54712],[-78.56065,-7.55253],[-78.52387,-7.54986],[-78.51097,-7.55668],[-78.49139,-7.55487],[-78.4595,-7.52796],[-78.45157,-7.51258],[-78.41563,-7.48507],[-78.40308,-7.48349],[-78.3929,-7.49202],[-78.36043,-7.50048],[-78.3442,-7.49409],[-78.33583,-7.49525]]]}},{"type":"Feature","properties":{"ubigeo":"1312","nombre":"Virú"},"geometry":{"type":"Polygon","coordinates":[[[-78.42985,-8.36024],[-78.42991,-8.37376],[-78.42461,-8.39016],[-78.42017,-8.38736],[-78.40724,-8.39842],[-78.40524,-8.41245],[-78.3965,-8.40266],[-78.37389,-8.40454],[-78.37308,-8.42428],[-78.37721,-8.4424],[-78.37427,-8.45964],[-78.36094,-8.46421],[-78.34455,-8.47546],[-78.33065,-8.46659],[-78.29776,-8.46183],[-78.28262,-8.46694],[-78.2637,-8.46738],[-78.26093,-8.47268],[-78.27355,-8.48327],[-78.27611,-8.51096],[-78.26672,-8.53756],[-78.29009,-8.54837],[-78.2812,-8.56237],[-78.28264,-8.57193],[-78.2641,-8.59262],[-78.2609,-8.61475],[-78.23557,-8.65292],[-78.24613,-8.65836],[-78.27266,-8.65631],[-78.28767,-8.6625],[-78.29479,-8.65881],[-78.31095,-8.66721],[-78.33348,-8.66646],[-78.33728,-8.67568],[-78.35481,-8.67328],[-78.3732,-8.68724],[-78.37917,-8.69657],[-78.41012,-8.70821],[-78.42533,-8.7239],[-78.44823,-8.73693],[-78.46793,-8.74153],[-78.48482,-8.75054],[-78.51814,-8.75298],[-78.52937,-8.76311],[-78.55161,-8.77504],[-78.56534,-8.7926],[-78.58828,-8.85868],[-78.58245,-8.8666],[-78.57648,-8.88905],[-78.57979,-8.90544],[-78.58962,-8.92497],[-78.59166,-8.946],[-78.62973,-8.97089],[-78.64492,-8.96923],[-78.64366,-8.93695],[-78.65166,-8.91436],[-78.6728,-8.88459],[-78.69088,-8.86571],[-78.76116,-8.77396],[-78.76071,-8.75641],[-78.74277,-8.74032],[-78.73738,-8.71208],[-78.74672,-8.68427],[-78.738,-8.66694],[-78.74383,-8.63383],[-78.75571,-8.60572],[-78.77801,-8.56941],[-78.79558,-8.54975],[-78.83191,-8.51741],[-78.86227,-8.49408],[-78.91509,-8.46008],[-78.93488,-8.43632],[-78.93408,-8.42773],[-78.9126,-8.42882],[-78.90084,-8.41423],[-78.89541,-8.39687],[-78.90053,-8.37145],[-78.89271,-8.3665],[-78.88137,-8.34266],[-78.84904,-8.32849],[-78.84002,-8.31801],[-78.81676,-8.30999],[-78.80835,-8.28574],[-78.81531,-8.27296],[-78.8025,-8.25755],[-78.80336,-8.24995],[-78.81603,-8.23296],[-78.83747,-8.22931],[-78.83832,-8.2091],[-78.84266,-8.19311],[-78.83147,-8.20359],[-78.80984,-8.20633],[-78.7967,-8.2012],[-78.78112,-8.20791],[-78.77742,-8.18272],[-78.76387,-8.17383],[-78.72802,-8.17094],[-78.71022,-8.16303],[-78.69983,-8.15388],[-78.68097,-8.15181],[-78.66824,-8.14085],[-78.65935,-8.1469],[-78.6427,-8.14754],[-78.63909,-8.143],[-78.6368,-8.15553],[-78.65071,-8.17561],[-78.65247,-8.18466],[-78.64375,-8.19011],[-78.62153,-8.18859],[-78.60697,-8.19539],[-78.60114,-8.20846],[-78.60469,-8.22207],[-78.5883,-8.24111],[-78.56614,-8.24953],[-78.57655,-8.27571],[-78.5832,-8.27931],[-78.5883,-8.3075],[-78.58062,-8.30872],[-78.57114,-8.31989],[-78.55038,-8.32421],[-78.5367,-8.32239],[-78.51659,-8.33832],[-78.49836,-8.34097],[-78.47914,-8.35108],[-78.4944,-8.37134],[-78.48379,-8.38161],[-78.46596,-8.3876],[-78.4425,-8.38228],[-78.43611,-8.36494],[-78.42985,-8.36024]]]}}]}