{"type":"FeatureCollection","features":[{"type":"Feature","properties":{"ubigeo":"1401","nombre":"Chiclayo"},"geometry":{"type":"Polygon","coordinates":[[[-79.20709,-6.82144],[-79.21844,-6.84025],[-79.21909,-6.85169],[-79.22907,-6.86047],[-79.26274,-6.85916],[-79.27308,-6.87665],[-79.29564,-6.8835],[-79.31101,-6.90134],[-79.31014,-6.9254],[-79.30033,-6.93668],[-79.30723,-6.96821],[-79.29708,-7.00311],[-79.30724,-7.0074],[-79.3093,-7.01546],[-79.32259,-7.02568],[-79.33054,-7.02422],[-79.34232,-7.0108],[-79.35961,-7.00497],[-79.3691,-6.99169],[-79.38932,-6.97517],[-79.40076,-6.95693],[-79.43085,-6.95337],[-79.45501,-6.94631],[-79.46792,-6.96608],[-79.47838,-6.97065],[-79.50332,-6.96742],[-79.51473,-6.97858],[-79.51442,-6.98633],[-79.53529,-7.01148],[-79.69062,-7.17713],[-79.68202,-7.153],[-79.68347,-7.1249],[-79.70726,-7.09507],[-79.73503,-7.0673],[-79.73984,-7.05754],[-79.78709,-7.01241],[-79.83456,-6.97107],[-79.86612,-6.9486],[-79.86714,-6.93067],[-79.8787,-6.91791],[-79.91103,-6.89602],[-79.93185,-6.87331],[-79.9424,-6.8205],[-79.91735,-6.77521],[-79.90751,-6.76958],[-79.89692,-6.74621],[-79.89343,-6.72883],[-79.86574,-6.71786],[-79.82948,-6.72171],[-79.80417,-6.69408],[-79.79054,-6.69203],[-79.78143,-6.67959],[-79.72966,-6.68929],[-79.71949,-6.68317],[-79.69801,-6.67918],[-79.68433,-6.7001],[-79.66367,-6.71513],[-79.6578,-6.69606],[-79.64111,-6.6947],[-79.62542,-6.70182],[-79.62644,-6.6842],[-79.62027,-6.66405],[-79.62438,-6.65185],[-79.61122,-6.65562],[-79.6081,-6.64393],[-79.59357,-6.64009],[-79.59267,-6.62434],[-79.60438,-6.61725],[-79.60338,-6.60246],[-79.61099,-6.59625],[-79.62113,-6.60254],[-79.62937,-6.58183],[-79.64148,-6.5729],[-79.64504,-6.55489],[-79.63941,-6.53883],[-79.64121,-6.53094],[-79.62424,-6.51326],[-79.61486,-6.50895],[-79.56288,-6.50384],[-79.5366,-6.51887],[-79.52434,-6.52014],[-79.51053,-6.51367],[-79.49466,-6.51811],[-79.48237,-6.51146],[-79.46786,-6.50978],[-79.46084,-6.4956],[-79.43388,-6.48127],[-79.42477,-6.48867],[-79.41704,-6.50635],[-79.41868,-6.53696],[-79.40328,-6.54073],[-79.36961,-6.5208],[-79.36699,-6.54952],[-79.36008,-6.55822],[-79.36049,-6.56822],[-79.34973,-6.57186],[-79.33574,-6.60243],[-79.34416,-6.60596],[-79.353,-6.62701],[-79.36233,-6.63354],[-79.34363,-6.64673],[-79.32536,-6.64066],[-79.32193,-6.64687],[-79.30402,-6.65161],[-79.29642,-6.67567],[-79.27187,-6.68027],[-79.22906,-6.67141],[-79.22165,-6.68821],[-79.21379,-6.69563],[-79.20353,-6.69209],[-79.19553,-6.69683],[-79.18843,-6.71654],[-79.17601,-6.71042],[-79.17105,-6.7017],[-79.15602,-6.70476],[-79.14273,-6.6999],[-79.14291,-6.71911],[-79.13547,-6.727],[-79.138,-6.74124],[-79.12874,-6.75248],[-79.12085,-6.77697],[-79.12372,-6.78282],[-79.14428,-6.78861],[-79.15876,-6.80093],[-79.17634,-6.80205],[-79.18875,-6.8155],[-79.20709,-6.82144]]]}},{"type":"Feature","properties":{"ubigeo":"1402","nombre":"Ferreñafe"},"geometry":{"type":"Polygon","coordinates":[[[-79.24917,-6.22178],[-79.25226,-6.22669],[-79.27268,-6.22576],[-79.27905,-6.22926],[-79.27639,-6.23986],[-79.28474,-6.2545],[-79.30844,-6.27005],[-79.32179,-6.26306],[-79.34569,-6.28314],[-79.35356,-6.30429],[-79.38794,-6.29829],[-79.39993,-6.309],[-79.42266,-6.31043],[-79.42656,-6.3289],[-79.44543,-6.35508],[-79.44438,-6.36149],[-79.45729,-6.37147],[-79.44667,-6.37672],[-79.45349,-6.39684],[-79.44631,-6.41504],[-79.4376,-6.41986],[-79.42289,-6.45188],[-79.4227,-6.46749],[-79.43388,-6.48127],[-79.46084,-6.4956],[-79.46786,-6.50978],[-79.48237,-6.51146],[-79.49466,-6.51811],[-79.51053,-6.51367],[-79.52434,-6.52014],[-79.5366,-6.51887],[-79.56288,-6.50384],[-79.61486,-6.50895],[-79.62424,-6.51326],[-79.64121,-6.53094],[-79.63941,-6.53883],[-79.64504,-6.55489],[-79.64148,-6.5729],[-79.62937,-6.58183],[-79.62113,-6.60254],[-79.61099,-6.59625],[-79.60338,-6.60246],[-79.60438,-6.61725],[-79.59267,-6.62434],[-79.59357,-6.64009],[-79.6081,-6.64393],[-79.61122,-6.65562],[-79.62438,-6.65185],[-79.62027,-6.66405],[-79.62644,-6.6842],[-79.62542,-6.70182],[-79.64111,-6.6947],[-79.6578,-6.69606],[-79.66367,-6.71513],[-79.68433,-6.7001],[-79.69801,-6.67918],[-79.71949,-6.68317],[-79.72966,-6.68929],[-79.78143,-6.67959],[-79.79171,-6.67762],[-79.81138,-6.66159],[-79.82462,-6.65842],[-79.83517,-6.66157],[-79.85105,-6.64339],[-79.8475,-6.63994],[-79.84767,-6.60975],[-79.84304,-6.6048],[-79.83762,-6.5778],[-79.83005,-6.57677],[-79.82998,-6.56141],[-79.82497,-6.54269],[-79.81426,-6.52484],[-79.82565,-6.5208],[-79.82468,-6.4991],[-79.81124,-6.48543],[-79.79921,-6.48243],[-79.79529,-6.47001],[-79.80552,-6.46404],[-79.80894,-6.44783],[-79.79997,-6.43207],[-79.77959,-6.44321],[-79.75269,-6.43937],[-79.7207,-6.44773],[-79.65191,-6.4554],[-79.61344,-6.42529],[-79.57768,-6.4104],[-79.55021,-6.40843],[-79.52834,-6.39981],[-79.53453,-6.37048],[-79.54328,-6.35721],[-79.53329,-6.34842],[-79.51405,-6.34364],[-79.49286,-6.32314],[-79.47731,-6.32034],[-79.48198,-6.30631],[-79.4733,-6.28164],[-79.47187,-6.26872],[-79.45699,-6.25098],[-79.43701,-6.24001],[-79.44094,-6.2257],[-79.43322,-6.20644],[-79.42213,-6.20007],[-79.4155,-6.18458],[-79.40185,-6.17351],[-79.40958,-6.1567],[-79.42818,-6.1481],[-79.43154,-6.14044],[-79.42344,-6.13108],[-79.41182,-6.08838],[-79.40767,-6.08609],[-79.40673,-6.05535],[-79.40968,-6.05015],[-79.40308,-6.03402],[-79.41124,-6.031],[-79.4206,-6.0154],[-79.41721,-6.00524],[-79.40966,-6.00057],[-79.39592,-5.97719],[-79.36471,-5.97639],[-79.34902,-5.97969],[-79.34503,-6.00656],[-79.3331,-6.01843],[-79.31911,-6.04254],[-79.31134,-6.03347],[-79.32031,-6.02137],[-79.32243,-6.00037],[-79.30632,-5.98563],[-79.26434,-6.00246],[-79.26288,-6.02781],[-79.24087,-6.02863],[-79.2357,-6.04505],[-79.22399,-6.05501],[-79.21011,-6.04253],[-79.20396,-6.02406],[-79.19,-6.02477],[-79.1756,-6.04138],[-79.18886,-6.05959],[-79.18285,-6.06822],[-79.18192,-6.08934],[-79.19844,-6.10008],[-79.21321,-6.09887],[-79.2339,-6.09307],[-79.24328,-6.10579],[-79.25918,-6.14018],[-79.27253,-6.14673],[-79.27265,-6.16879],[-79.26573,-6.1793],[-79.25413,-6.21655],[-79.24917,-6.22178]]]}},{"type":"Feature","properties":{"ubigeo":"1403","nombre":"Lambayeque"},"geometry":{"type":"Polygon","coordinates":[[[-79.41861,-5.9701],[-79.41721,-6.00524],[-79.4206,-6.0154],[-79.41124,-6.031],[-79.40308,-6.03402],[-79.40968,-6.05015],[-79.40673,-6.05535],[-79.40767,-6.08609],[-79.41182,-6.08838],[-79.42344,-6.13108],[-79.43154,-6.14044],[-79.42818,-6.1481],[-79.40958,-6.1567],[-79.40185,-6.17351],[-79.4155,-6.18458],[-79.42213,-6.20007],[-79.43322,-6.20644],[-79.44094,-6.2257],[-79.43701,-6.24001],[-79.45699,-6.25098],[-79.47187,-6.26872],[-79.4733,-6.28164],[-79.48198,-6.30631],[-79.47731,-6.32034],[-79.49286,-6.32314],[-79.51405,-6.34364],[-79.53329,-6.34842],[-79.54328,-6.35721],[-79.53453,-6.37048],[-79.52834,-6.39981],[-79.55021,-6.40843],[-79.57768,-6.4104],[-79.61344,-6.42529],[-79.65191,-6.4554],[-79.7207,-6.44773],[-79.75269,-6.43937],[-79.77959,-6.44321],[-79.79997,-6.43207],[-79.80894,-6.44783],[-79.80552,-6.46404],[-79.79529,-6.47001],[-79.79921,-6.48243],[-79.81124,-6.48543],[-79.82468,-6.4991],[-79.82565,-6.5208],[-79.81426,-6.52484],[-79.82497,-6.54269],[-79.82998,-6.56141],[-79.83005,-6.57677],[-79.83762,-6.5778],[-79.84304,-6.6048],[-79.84767,-6.60975],[-79.8475,-6.63994],[-79.85105,-6.64339],[-79.83517,-6.66157],[-79.82462,-6.65842],[-79.81138,-6.66159],[-79.79171,-6.67762],[-79.78143,-6.67959],[-79.79054,-6.69203],[-79.80417,-6.69408],[-79.82948,-6.72171],[-79.86574,-6.71786],[-79.89343,-6.72883],[-79.89692,-6.74621],[-79.90751,-6.76958],[-79.91735,-6.77521],[-79.9424,-6.8205],[-79.9562,-6.79165],[-79.96385,-6.7838],[-79.9804,-6.75508],[-80,-6.7357],[-80.07489,-6.67552],[-80.10931,-6.65318],[-80.17732,-6.60604],[-80.28864,-6.54308],[-80.40892,-6.48178],[-80.5,-6.43342],[-80.55403,-6.40642],[-80.62713,-6.37208],[-80.50273,-6.19239],[-80.37622,-6.00697],[-80.35456,-5.98591],[-80.35007,-5.97154],[-80.32741,-5.94744],[-80.29175,-5.926],[-80.26963,-5.91703],[-80.21731,-5.90387],[-80.19891,-5.893],[-80.16668,-5.89239],[-80.13086,-5.88867],[-80.12385,-5.89131],[-80.12036,-5.87257],[-80.10607,-5.86745],[-80.07999,-5.8353],[-80.05298,-5.81124],[-80.07971,-5.80231],[-80.09237,-5.79509],[-80.10292,-5.76211],[-80.09809,-5.7355],[-80.09115,-5.72686],[-80.09419,-5.70366],[-80.06637,-5.69821],[-80.06107,-5.6844],[-80.07105,-5.67325],[-80.06621,-5.65614],[-80.06996,-5.64617],[-80.0577,-5.61956],[-80.05555,-5.6082],[-80.05695,-5.57684],[-80.05284,-5.56357],[-80.03128,-5.56948],[-79.99919,-5.58536],[-79.97784,-5.57982],[-79.96052,-5.58162],[-79.9557,-5.541],[-79.94587,-5.515],[-79.93874,-5.51666],[-79.93246,-5.50537],[-79.90305,-5.49145],[-79.89536,-5.48213],[-79.87903,-5.49927],[-79.87751,-5.50964],[-79.85399,-5.53182],[-79.8641,-5.54868],[-79.86442,-5.56342],[-79.85381,-5.59911],[-79.83944,-5.63003],[-79.83294,-5.64549],[-79.8276,-5.64494],[-79.81823,-5.66463],[-79.80501,-5.64641],[-79.78693,-5.64659],[-79.77757,-5.65885],[-79.74536,-5.67585],[-79.74553,-5.68604],[-79.75929,-5.69626],[-79.76642,-5.70825],[-79.74927,-5.70967],[-79.71728,-5.73935],[-79.71775,-5.75039],[-79.72743,-5.78194],[-79.73932,-5.79959],[-79.74193,-5.81897],[-79.73733,-5.83765],[-79.71261,-5.83801],[-79.70733,-5.8458],[-79.68271,-5.84645],[-79.662,-5.83415],[-79.65136,-5.81604],[-79.6365,-5.81004],[-79.62876,-5.79602],[-79.62258,-5.79757],[-79.62398,-5.82354],[-79.63143,-5.82903],[-79.62875,-5.85161],[-79.63524,-5.8522],[-79.62557,-5.8758],[-79.62642,-5.88745],[-79.61348,-5.89507],[-79.61111,-5.92346],[-79.60045,-5.93957],[-79.55168,-5.93293],[-79.52067,-5.9128],[-79.5174,-5.92006],[-79.49894,-5.91519],[-79.47005,-5.92808],[-79.4629,-5.94442],[-79.43546,-5.95529],[-79.41861,-5.9701]]]}}]}