{"type":"FeatureCollection","features":[{"type":"Feature","properties":{"ubigeo":"1501","nombre":"Lima"},"geometry":{"type":"MultiPolygon","coordinates":[[[[-76.80487,-11.75587],[-76.82554,-11.7773],[-76.8433,-11.7857],[-76.85124,-11.79815],[-76.89649,-11.79322],[-76.90661,-11.79612],[-76.90327,-11.82271],[-76.91641,-11.83136],[-76.93564,-11.83368],[-76.93421,-11.84466],[-76.94228,-11.86087],[-76.93066,-11.87061],[-76.91184,-11.86494],[-76.89609,-11.86413],[-76.8989,-11.88247],[-76.91211,-11.88927],[-76.918,-11.90645],[-76.91467,-11.92609],[-76.92753,-11.93411],[-76.92915,-11.9428],[-76.91655,-11.95984],[-76.90798,-11.95412],[-76.89375,-11.95622],[-76.86589,-11.94635],[-76.8455,-11.93578],[-76.832,-11.94516],[-76.81637,-11.92682],[-76.79168,-11.92761],[-76.74701,-11.89439],[-76.74169,-11.895],[-76.72794,-11.87571],[-76.71091,-11.89215],[-76.69414,-11.89656],[-76.69285,-11.90189],[-76.66877,-11.92355],[-76.67172,-11.92894],[-76.64696,-11.95288],[-76.64833,-11.96737],[-76.66141,-11.97906],[-76.67351,-11.98018],[-76.681,-11.98806],[-76.70001,-11.98587],[-76.71766,-11.9931],[-76.72234,-11.99959],[-76.71319,-12.01037],[-76.70657,-12.03236],[-76.6951,-12.03706],[-76.67808,-12.05298],[-76.67351,-12.07351],[-76.68199,-12.08439],[-76.70519,-12.08626],[-76.71662,-12.09934],[-76.71088,-12.11316],[-76.69775,-12.11519],[-76.6793,-12.13097],[-76.69156,-12.14136],[-76.68792,-12.15183],[-76.67192,-12.1722],[-76.66203,-12.17796],[-76.65267,-12.19256],[-76.64863,-12.20816],[-76.6375,-12.21922],[-76.6211,-12.22688],[-76.62096,-12.23817],[-76.63679,-12.27936],[-76.65202,-12.28858],[-76.65417,-12.30506],[-76.67399,-12.31952],[-76.68192,-12.35325],[-76.66799,-12.36023],[-76.67534,-12.37621],[-76.68341,-12.38211],[-76.69979,-12.38297],[-76.72185,-12.39624],[-76.75548,-12.39821],[-76.75315,-12.43127],[-76.75685,-12.44522],[-76.75192,-12.4634],[-76.75604,-12.47398],[-76.76836,-12.48235],[-76.77149,-12.49326],[-76.7908,-12.50312],[-76.78416,-12.51993],[-76.80098,-12.50878],[-76.79913,-12.48576],[-76.79276,-12.47893],[-76.78505,-12.44344],[-76.77504,-12.43787],[-76.78158,-12.41497],[-76.77569,-12.4045],[-76.77736,-12.39368],[-76.79945,-12.3677],[-76.80093,-12.36044],[-76.81766,-12.3495],[-76.81927,-12.33944],[-76.82827,-12.33846],[-76.83766,-12.32448],[-76.83603,-12.31741],[-76.86194,-12.2959],[-76.88861,-12.28489],[-76.92768,-12.25609],[-76.97421,-12.2314],[-77.03771,-12.20408],[-77.0377,-12.16882],[-77.02741,-12.16399],[-77.02493,-12.1517],[-77.0314,-12.13329],[-77.052,-12.11417],[-77.0818,-12.09375],[-77.11149,-12.07951],[-77.10466,-12.06326],[-77.08711,-12.06152],[-77.08766,-12.05173],[-77.07812,-12.05004],[-77.08303,-12.03632],[-77.0963,-12.03364],[-77.08731,-12.01563],[-77.10334,-11.99759],[-77.1185,-11.99176],[-77.10971,-11.97616],[-77.11593,-11.97068],[-77.12076,-11.94502],[-77.0961,-11.94991],[-77.10328,-11.93521],[-77.08947,-11.90009],[-77.09691,-11.87091],[-77.10729,-11.86605],[-77.10622,-11.85646],[-77.11394,-11.85125],[-77.11641,-11.83122],[-77.12684,-11.81848],[-77.13961,-11.81824],[-77.15695,-11.82581],[-77.18796,-11.82856],[-77.17678,-11.81586],[-77.17802,-11.80194],[-77.19541,-11.7805],[-77.19415,-11.76696],[-77.18102,-11.77578],[-77.1741,-11.7706],[-77.16956,-11.74893],[-77.17093,-11.73419],[-77.19591,-11.69794],[-77.18211,-11.68591],[-77.15453,-11.7017],[-77.15816,-11.68117],[-77.15154,-11.66987],[-77.12265,-11.65446],[-77.13737,-11.63553],[-77.1347,-11.62664],[-77.11984,-11.63015],[-77.1059,-11.6252],[-77.10578,-11.61944],[-77.08527,-11.60424],[-77.0777,-11.57702],[-77.06484,-11.57324],[-77.04615,-11.57863],[-77.03677,-11.58893],[-77.02196,-11.59662],[-77.00498,-11.61341],[-77.01451,-11.62284],[-77.01651,-11.63356],[-77.0351,-11.65142],[-77.02463,-11.6766],[-77.02599,-11.69939],[-77.03424,-11.71007],[-77.04347,-11.71247],[-77.03224,-11.73755],[-77.02097,-11.74706],[-76.99678,-11.75236],[-76.98528,-11.7463],[-76.97367,-11.74798],[-76.97361,-11.73609],[-76.96004,-11.73437],[-76.95098,-11.74714],[-76.93329,-11.75639],[-76.91565,-11.74516],[-76.91447,-11.73217],[-76.90268,-11.72878],[-76.88496,-11.73483],[-76.87544,-11.74357],[-76.8527,-11.74865],[-76.83382,-11.74376],[-76.80487,-11.75587]]],[[[-76.79853,-12.47508],[-76.79853,-12.47508],[-76.79853,-12.47508],[-76.79853,-12.47508]]]]}},{"type":"Feature","properties":{"ubigeo":"1502","nombre":"Barranca"},"geometry":{"type":"Polygon","coordinates":[[[-77.59937,-10.38333],[-77.62323,-10.40546],[-77.63456,-10.41227],[-77.6453,-10.40866],[-77.66303,-10.41833],[-77.66578,-10.42712],[-77.68392,-10.43139],[-77.68883,-10.43861],[-77.68739,-10.45197],[-77.7012,-10.46858],[-77.71189,-10.50507],[-77.72119,-10.50408],[-77.72188,-10.51189],[-77.73794,-10.52079],[-77.74462,-10.53227],[-77.74479,-10.56078],[-77.73181,-10.56622],[-77.72756,-10.55271],[-77.71008,-10.56017],[-77.7083,-10.54744],[-77.68778,-10.5373],[-77.67017,-10.54098],[-77.65139,-10.53013],[-77.64108,-10.51385],[-77.6353,-10.51629],[-77.62474,-10.50203],[-77.60132,-10.5093],[-77.59965,-10.51745],[-77.61633,-10.52467],[-77.61287,-10.53818],[-77.63123,-10.56012],[-77.63821,-10.56303],[-77.63949,-10.57765],[-77.64534,-10.58286],[-77.63816,-10.6029],[-77.61951,-10.61425],[-77.61794,-10.60011],[-77.59599,-10.58541],[-77.57665,-10.58375],[-77.57326,-10.59292],[-77.57412,-10.61466],[-77.58266,-10.62185],[-77.58297,-10.63893],[-77.58923,-10.64558],[-77.57622,-10.65736],[-77.57276,-10.68626],[-77.57454,-10.69431],[-77.56314,-10.70943],[-77.5757,-10.71689],[-77.5888,-10.75768],[-77.58521,-10.76419],[-77.59207,-10.77522],[-77.59119,-10.78645],[-77.57371,-10.7747],[-77.5511,-10.75225],[-77.54293,-10.75084],[-77.52657,-10.73629],[-77.50429,-10.73601],[-77.49496,-10.7461],[-77.47111,-10.74187],[-77.45265,-10.72893],[-77.43614,-10.72364],[-77.41543,-10.72998],[-77.39439,-10.71678],[-77.38566,-10.70779],[-77.3655,-10.71441],[-77.37355,-10.73022],[-77.38499,-10.74022],[-77.38674,-10.75274],[-77.40249,-10.76798],[-77.42568,-10.7687],[-77.43151,-10.78975],[-77.43878,-10.80298],[-77.44679,-10.80168],[-77.45815,-10.80996],[-77.46222,-10.87007],[-77.44429,-10.9161],[-77.47826,-10.91861],[-77.52571,-10.93198],[-77.54672,-10.89286],[-77.56139,-10.8784],[-77.58592,-10.87313],[-77.59953,-10.86003],[-77.61483,-10.86812],[-77.64189,-10.87229],[-77.64784,-10.86471],[-77.66042,-10.86677],[-77.70152,-10.88612],[-77.70793,-10.86427],[-77.70366,-10.85773],[-77.72279,-10.83665],[-77.75018,-10.81774],[-77.75458,-10.80393],[-77.74404,-10.79454],[-77.75282,-10.7793],[-77.76495,-10.77181],[-77.76141,-10.76473],[-77.77201,-10.75118],[-77.80403,-10.72595],[-77.81066,-10.69989],[-77.83824,-10.67398],[-77.8592,-10.64999],[-77.88628,-10.61196],[-77.86861,-10.5965],[-77.85714,-10.5787],[-77.83217,-10.56735],[-77.81835,-10.58044],[-77.7911,-10.5838],[-77.785,-10.57204],[-77.77138,-10.57161],[-77.77427,-10.55401],[-77.77174,-10.53776],[-77.77244,-10.51248],[-77.78106,-10.50726],[-77.78644,-10.48892],[-77.79832,-10.47612],[-77.78962,-10.45962],[-77.76389,-10.43771],[-77.75816,-10.41683],[-77.74987,-10.4068],[-77.75562,-10.384],[-77.75213,-10.37286],[-77.75704,-10.34422],[-77.75251,-10.3219],[-77.74624,-10.32438],[-77.69875,-10.3221],[-77.67717,-10.32822],[-77.66691,-10.33895],[-77.6492,-10.34347],[-77.63166,-10.32221],[-77.61943,-10.32783],[-77.61704,-10.33628],[-77.59774,-10.36642],[-77.59937,-10.38333]]]}},{"type":"Feature","properties":{"ubigeo":"1503","nombre":"Cajatambo"},"geometry":{"type":"Polygon","coordinates":[[[-77.01097,-10.69599],[-77.02459,-10.6786],[-77.04833,-10.6799],[-77.05509,-10.69138],[-77.06588,-10.68793],[-77.06653,-10.67912],[-77.08437,-10.66675],[-77.10321,-10.67288],[-77.11729,-10.66267],[-77.12272,-10.64896],[-77.13778,-10.64688],[-77.15301,-10.66743],[-77.17482,-10.67051],[-77.19723,-10.68683],[-77.21531,-10.67721],[-77.22163,-10.68167],[-77.24682,-10.68334],[-77.26089,-10.67242],[-77.26727,-10.67297],[-77.30018,-10.65975],[-77.30409,-10.64778],[-77.31412,-10.64133],[-77.32946,-10.61805],[-77.3447,-10.60798],[-77.33438,-10.59421],[-77.32051,-10.58792],[-77.31063,-10.56769],[-77.29011,-10.55607],[-77.26943,-10.56023],[-77.26726,-10.55054],[-77.25187,-10.54524],[-77.22527,-10.54616],[-77.21406,-10.55436],[-77.19099,-10.55213],[-77.18059,-10.53331],[-77.1811,-10.52389],[-77.17083,-10.5173],[-77.16682,-10.50413],[-77.17603,-10.4831],[-77.17462,-10.4646],[-77.15002,-10.45109],[-77.13824,-10.42647],[-77.12829,-10.42121],[-77.11099,-10.40334],[-77.11088,-10.39209],[-77.0902,-10.37263],[-77.089,-10.36014],[-77.08077,-10.35768],[-77.07161,-10.3381],[-77.06233,-10.33463],[-77.05328,-10.33984],[-77.02471,-10.32753],[-77.0091,-10.30777],[-77.00672,-10.28423],[-76.98985,-10.29585],[-76.96545,-10.30538],[-76.96227,-10.29721],[-76.94293,-10.28752],[-76.93812,-10.2797],[-76.90625,-10.27419],[-76.89102,-10.29474],[-76.89451,-10.30433],[-76.88137,-10.30851],[-76.87226,-10.33478],[-76.87549,-10.34277],[-76.863,-10.36619],[-76.86585,-10.37484],[-76.85639,-10.37727],[-76.84449,-10.37006],[-76.83921,-10.37311],[-76.83167,-10.39307],[-76.80833,-10.39296],[-76.7999,-10.41913],[-76.82817,-10.42898],[-76.82913,-10.44523],[-76.82327,-10.46928],[-76.82341,-10.48354],[-76.83375,-10.48262],[-76.84064,-10.47358],[-76.84976,-10.47956],[-76.8572,-10.49336],[-76.8548,-10.5064],[-76.85803,-10.54072],[-76.85462,-10.54672],[-76.86598,-10.55791],[-76.8589,-10.56231],[-76.86503,-10.5845],[-76.85942,-10.59565],[-76.86331,-10.62182],[-76.8732,-10.63496],[-76.87947,-10.65622],[-76.89074,-10.65442],[-76.89482,-10.66515],[-76.90887,-10.66715],[-76.92418,-10.68357],[-76.95229,-10.69811],[-76.96025,-10.68765],[-76.97361,-10.68222],[-76.99345,-10.68076],[-77.00768,-10.68889],[-77.01097,-10.69599]]]}},{"type":"Feature","properties":{"ubigeo":"1504","nombre":"Canta"},"geometry":{"type":"Polygon","coordinates":[[[-76.37684,-11.50149],[-76.39319,-11.49982],[-76.40059,-11.50717],[-76.4141,-11.49238],[-76.4369,-11.4873],[-76.44978,-11.46721],[-76.46932,-11.46065],[-76.47533,-11.46708],[-76.48428,-11.45877],[-76.49498,-11.45823],[-76.50269,-11.46615],[-76.50402,-11.47763],[-76.51293,-11.48914],[-76.52469,-11.49414],[-76.53011,-11.51228],[-76.54292,-11.51749],[-76.5455,-11.53568],[-76.53611,-11.55909],[-76.54748,-11.5703],[-76.55957,-11.5943],[-76.56036,-11.61372],[-76.57528,-11.6211],[-76.57498,-11.63238],[-76.59985,-11.63731],[-76.61255,-11.65296],[-76.63042,-11.6532],[-76.64535,-11.6601],[-76.66549,-11.65877],[-76.6794,-11.67103],[-76.68829,-11.67173],[-76.70737,-11.69131],[-76.74005,-11.69812],[-76.7497,-11.71205],[-76.75339,-11.73153],[-76.77668,-11.74],[-76.80487,-11.75587],[-76.83382,-11.74376],[-76.8527,-11.74865],[-76.87544,-11.74357],[-76.88496,-11.73483],[-76.90268,-11.72878],[-76.91447,-11.73217],[-76.91565,-11.74516],[-76.93329,-11.75639],[-76.95098,-11.74714],[-76.96004,-11.73437],[-76.97361,-11.73609],[-76.97367,-11.74798],[-76.98528,-11.7463],[-76.99678,-11.75236],[-77.02097,-11.74706],[-77.03224,-11.73755],[-77.04347,-11.71247],[-77.03424,-11.71007],[-77.02599,-11.69939],[-77.02463,-11.6766],[-77.0351,-11.65142],[-77.01651,-11.63356],[-77.01451,-11.62284],[-77.00498,-11.61341],[-76.99832,-11.59748],[-76.9808,-11.59723],[-76.96483,-11.58497],[-76.95306,-11.58414],[-76.94454,-11.57476],[-76.93757,-11.55023],[-76.92547,-11.55861],[-76.90429,-11.54459],[-76.89438,-11.53454],[-76.87471,-11.5378],[-76.85909,-11.50834],[-76.86212,-11.50206],[-76.87619,-11.4992],[-76.88238,-11.49184],[-76.89225,-11.49219],[-76.89654,-11.47773],[-76.89372,-11.4615],[-76.88497,-11.46537],[-76.85611,-11.46782],[-76.83472,-11.45363],[-76.81044,-11.44218],[-76.8057,-11.43336],[-76.76828,-11.42045],[-76.75649,-11.42794],[-76.73958,-11.42637],[-76.71899,-11.43468],[-76.70602,-11.42374],[-76.69457,-11.42933],[-76.6848,-11.41573],[-76.67821,-11.39644],[-76.67069,-11.39443],[-76.66795,-11.34601],[-76.65289,-11.34806],[-76.63818,-11.34463],[-76.63105,-11.35366],[-76.60482,-11.34901],[-76.59858,-11.34313],[-76.59818,-11.32658],[-76.57869,-11.31268],[-76.57338,-11.31725],[-76.54607,-11.31609],[-76.53369,-11.333],[-76.52618,-11.33449],[-76.50876,-11.32815],[-76.48348,-11.34442],[-76.45702,-11.33443],[-76.44336,-11.34728],[-76.43175,-11.34556],[-76.42268,-11.35486],[-76.4204,-11.37366],[-76.40142,-11.40285],[-76.41183,-11.4146],[-76.39434,-11.44501],[-76.37741,-11.44422],[-76.37151,-11.47552],[-76.38102,-11.48634],[-76.37684,-11.50149]]]}},{"type":"Feature","properties":{"ubigeo":"1505","nombre":"Cañete"},"geometry":{"type":"Polygon","coordinates":[[[-75.9614,-13.00138],[-75.96082,-13.02042],[-75.9692,-13.04164],[-75.98423,-13.05287],[-76.02143,-13.09393],[-76.04193,-13.10575],[-76.04943,-13.1146],[-76.09582,-13.14722],[-76.09962,-13.15421],[-76.12847,-13.17754],[-76.13974,-13.18017],[-76.15525,-13.1922],[-76.16223,-13.21847],[-76.17187,-13.24279],[-76.18583,-13.25933],[-76.19979,-13.2959],[-76.20732,-13.3061],[-76.23373,-13.3158],[-76.24479,-13.32351],[-76.25445,-13.30879],[-76.28406,-13.27215],[-76.32317,-13.22936],[-76.35555,-13.19164],[-76.36135,-13.17778],[-76.39132,-13.14578],[-76.39299,-13.13818],[-76.45833,-13.06466],[-76.47495,-13.0491],[-76.48935,-13.03074],[-76.48182,-13.02428],[-76.48341,-13.01482],[-76.5034,-12.98445],[-76.50478,-12.97258],[-76.51381,-12.95209],[-76.50663,-12.94731],[-76.50579,-12.92581],[-76.51803,-12.87084],[-76.51543,-12.86034],[-76.52986,-12.83967],[-76.55992,-12.82085],[-76.56761,-12.80315],[-76.59944,-12.78162],[-76.60918,-12.77774],[-76.61158,-12.76921],[-76.63568,-12.74334],[-76.62998,-12.72718],[-76.63217,-12.71686],[-76.65161,-12.69902],[-76.65931,-12.67642],[-76.67245,-12.66058],[-76.66841,-12.6465],[-76.67243,-12.62778],[-76.68468,-12.61186],[-76.70592,-12.59371],[-76.70553,-12.58014],[-76.74676,-12.53912],[-76.78416,-12.51993],[-76.7908,-12.50312],[-76.77149,-12.49326],[-76.76836,-12.48235],[-76.75604,-12.47398],[-76.75192,-12.4634],[-76.75685,-12.44522],[-76.75315,-12.43127],[-76.75548,-12.39821],[-76.72185,-12.39624],[-76.69979,-12.38297],[-76.68341,-12.38211],[-76.67534,-12.37621],[-76.66799,-12.36023],[-76.65083,-12.35616],[-76.63377,-12.36118],[-76.61668,-12.37283],[-76.60707,-12.36908],[-76.60743,-12.35289],[-76.59649,-12.344],[-76.59231,-12.3257],[-76.59583,-12.31487],[-76.57925,-12.28653],[-76.55733,-12.27573],[-76.5475,-12.28572],[-76.54022,-12.30649],[-76.5323,-12.3154],[-76.53766,-12.33937],[-76.52507,-12.35249],[-76.52693,-12.36582],[-76.5161,-12.38595],[-76.5012,-12.40065],[-76.48698,-12.40862],[-76.47595,-12.40973],[-76.46443,-12.40112],[-76.45277,-12.40426],[-76.44314,-12.39166],[-76.42244,-12.3736],[-76.41971,-12.36216],[-76.39945,-12.34074],[-76.39383,-12.32364],[-76.38579,-12.31747],[-76.37766,-12.32099],[-76.37261,-12.33491],[-76.346,-12.33773],[-76.34391,-12.35996],[-76.3454,-12.388],[-76.33637,-12.39988],[-76.33328,-12.41609],[-76.31851,-12.41962],[-76.31355,-12.43062],[-76.32187,-12.4438],[-76.33096,-12.44164],[-76.33935,-12.4676],[-76.33671,-12.4839],[-76.35212,-12.52002],[-76.36749,-12.5326],[-76.34177,-12.53108],[-76.33481,-12.5365],[-76.32322,-12.5283],[-76.31637,-12.54797],[-76.30844,-12.54851],[-76.29104,-12.57424],[-76.28712,-12.58753],[-76.27423,-12.58367],[-76.25785,-12.58618],[-76.25167,-12.59159],[-76.2567,-12.61101],[-76.26284,-12.6187],[-76.26955,-12.64304],[-76.27501,-12.65129],[-76.28813,-12.65446],[-76.28498,-12.68456],[-76.29063,-12.68943],[-76.29955,-12.71534],[-76.29634,-12.73236],[-76.28301,-12.75212],[-76.25549,-12.7508],[-76.24621,-12.75668],[-76.24026,-12.79136],[-76.19937,-12.81345],[-76.18977,-12.82521],[-76.19144,-12.83261],[-76.17727,-12.85437],[-76.1652,-12.84999],[-76.16088,-12.83769],[-76.15388,-12.83784],[-76.1549,-12.82501],[-76.14444,-12.82042],[-76.14155,-12.79342],[-76.1225,-12.7872],[-76.10657,-12.80098],[-76.09723,-12.80131],[-76.07815,-12.78721],[-76.06336,-12.79294],[-76.04517,-12.78196],[-76.02163,-12.78935],[-76.00753,-12.77577],[-76.00002,-12.75689],[-75.99324,-12.75888],[-75.98393,-12.7823],[-75.97044,-12.78508],[-75.94253,-12.80214],[-75.94113,-12.81951],[-75.95483,-12.83693],[-75.95941,-12.84897],[-75.98088,-12.83859],[-75.98882,-12.84293],[-76.00204,-12.84011],[-76.00855,-12.85387],[-76.00119,-12.86863],[-75.99299,-12.89605],[-76.0039,-12.92241],[-75.97464,-12.92316],[-75.97345,-12.93928],[-75.95743,-12.96989],[-75.9614,-13.00138]]]}},{"type":"Feature","properties":{"ubigeo":"1506","nombre":"Huaral"},"geometry":{"type":"Polygon","coordinates":[[[-76.45702,-11.33443],[-76.48348,-11.34442],[-76.50876,-11.32815],[-76.52618,-11.33449],[-76.53369,-11.333],[-76.54607,-11.31609],[-76.57338,-11.31725],[-76.57869,-11.31268],[-76.59818,-11.32658],[-76.59858,-11.34313],[-76.60482,-11.34901],[-76.63105,-11.35366],[-76.63818,-11.34463],[-76.65289,-11.34806],[-76.66795,-11.34601],[-76.67069,-11.39443],[-76.67821,-11.39644],[-76.6848,-11.41573],[-76.69457,-11.42933],[-76.70602,-11.42374],[-76.71899,-11.43468],[-76.73958,-11.42637],[-76.75649,-11.42794],[-76.76828,-11.42045],[-76.8057,-11.43336],[-76.81044,-11.44218],[-76.83472,-11.45363],[-76.85611,-11.46782],[-76.88497,-11.46537],[-76.89372,-11.4615],[-76.89654,-11.47773],[-76.89225,-11.49219],[-76.88238,-11.49184],[-76.87619,-11.4992],[-76.86212,-11.50206],[-76.85909,-11.50834],[-76.87471,-11.5378],[-76.89438,-11.53454],[-76.90429,-11.54459],[-76.92547,-11.55861],[-76.93757,-11.55023],[-76.94454,-11.57476],[-76.95306,-11.58414],[-76.96483,-11.58497],[-76.9808,-11.59723],[-76.99832,-11.59748],[-77.00498,-11.61341],[-77.02196,-11.59662],[-77.03677,-11.58893],[-77.04615,-11.57863],[-77.06484,-11.57324],[-77.0777,-11.57702],[-77.08527,-11.60424],[-77.10578,-11.61944],[-77.1059,-11.6252],[-77.11984,-11.63015],[-77.1347,-11.62664],[-77.13737,-11.63553],[-77.12265,-11.65446],[-77.15154,-11.66987],[-77.15816,-11.68117],[-77.15453,-11.7017],[-77.18211,-11.68591],[-77.19591,-11.69794],[-77.19325,-11.67964],[-77.21604,-11.63897],[-77.24522,-11.61719],[-77.28251,-11.58577],[-77.27128,-11.58351],[-77.27128,-11.5729],[-77.2836,-11.54808],[-77.29567,-11.5376],[-77.29546,-11.52873],[-77.30475,-11.51223],[-77.31932,-11.5],[-77.34231,-11.48696],[-77.34261,-11.47456],[-77.36021,-11.46072],[-77.38269,-11.44718],[-77.37789,-11.4282],[-77.37005,-11.41467],[-77.35365,-11.40256],[-77.33432,-11.39852],[-77.32555,-11.38876],[-77.32054,-11.36392],[-77.33299,-11.34419],[-77.31223,-11.28892],[-77.30349,-11.2741],[-77.27734,-11.28092],[-77.26954,-11.2938],[-77.2542,-11.30242],[-77.24181,-11.30434],[-77.23072,-11.3153],[-77.22544,-11.34154],[-77.205,-11.34296],[-77.18927,-11.36282],[-77.16338,-11.36575],[-77.15929,-11.34451],[-77.14511,-11.3418],[-77.13127,-11.29821],[-77.11095,-11.28238],[-77.09142,-11.28318],[-77.07816,-11.27709],[-77.07144,-11.26843],[-77.06574,-11.24546],[-77.05697,-11.23051],[-77.05803,-11.21724],[-77.06442,-11.2057],[-77.06396,-11.19031],[-77.08505,-11.18461],[-77.08315,-11.16774],[-77.08786,-11.15286],[-77.08389,-11.14736],[-77.07545,-11.10336],[-77.07699,-11.09205],[-77.05204,-11.09576],[-77.05068,-11.10764],[-77.05657,-11.11645],[-77.04641,-11.13837],[-77.03042,-11.13245],[-77.02041,-11.13521],[-77.00944,-11.12156],[-76.98472,-11.10121],[-76.95134,-11.08702],[-76.94268,-11.07825],[-76.90758,-11.08761],[-76.87854,-11.08276],[-76.87015,-11.08747],[-76.84039,-11.09448],[-76.83664,-11.10223],[-76.81484,-11.09873],[-76.81227,-11.08707],[-76.79327,-11.07637],[-76.78245,-11.04575],[-76.7656,-11.03512],[-76.73957,-11.041],[-76.74075,-11.06582],[-76.73066,-11.06386],[-76.72056,-11.05234],[-76.70486,-11.05538],[-76.68208,-11.04688],[-76.67137,-11.05403],[-76.65784,-11.03437],[-76.6336,-11.03832],[-76.6269,-11.02385],[-76.61753,-11.02882],[-76.58465,-11.01599],[-76.57695,-11.01653],[-76.56925,-11.01348],[-76.5313,-11.03606],[-76.52651,-11.05154],[-76.51468,-11.06871],[-76.49121,-11.08944],[-76.49539,-11.10906],[-76.5184,-11.11608],[-76.50542,-11.14314],[-76.50318,-11.16602],[-76.50687,-11.16979],[-76.49208,-11.18931],[-76.494,-11.2107],[-76.48412,-11.23019],[-76.48512,-11.24423],[-76.49071,-11.2466],[-76.47663,-11.26421],[-76.46217,-11.26582],[-76.47859,-11.29128],[-76.46327,-11.31251],[-76.46452,-11.32046],[-76.45702,-11.33443]]]}},{"type":"Feature","properties":{"ubigeo":"1507","nombre":"Huarochirí"},"geometry":{"type":"Polygon","coordinates":[[[-76.05186,-11.93896],[-76.05259,-11.94824],[-76.03873,-11.96282],[-76.01962,-11.97596],[-76.01425,-11.98433],[-76.00071,-11.98508],[-75.99318,-11.99468],[-76.00182,-12.00273],[-75.99918,-12.02012],[-76.00786,-12.02205],[-76.01205,-12.04315],[-76.01847,-12.04861],[-76.01976,-12.06277],[-76.03525,-12.07132],[-76.04135,-12.08142],[-76.05535,-12.09074],[-76.06135,-12.08852],[-76.07251,-12.10965],[-76.05679,-12.13273],[-76.07993,-12.15088],[-76.08622,-12.1604],[-76.07655,-12.18183],[-76.06884,-12.18463],[-76.06947,-12.20741],[-76.08176,-12.21176],[-76.08989,-12.20558],[-76.09928,-12.20741],[-76.11175,-12.22493],[-76.12543,-12.22732],[-76.1518,-12.23936],[-76.17123,-12.25927],[-76.19632,-12.26374],[-76.21686,-12.26425],[-76.22052,-12.27548],[-76.22997,-12.28013],[-76.2503,-12.29973],[-76.27053,-12.30364],[-76.29103,-12.2803],[-76.29122,-12.26859],[-76.29808,-12.25788],[-76.30755,-12.27974],[-76.32372,-12.29155],[-76.32856,-12.3129],[-76.346,-12.33773],[-76.37261,-12.33491],[-76.37766,-12.32099],[-76.38579,-12.31747],[-76.39383,-12.32364],[-76.39945,-12.34074],[-76.41971,-12.36216],[-76.42244,-12.3736],[-76.44314,-12.39166],[-76.45277,-12.40426],[-76.46443,-12.40112],[-76.47595,-12.40973],[-76.48698,-12.40862],[-76.5012,-12.40065],[-76.5161,-12.38595],[-76.52693,-12.36582],[-76.52507,-12.35249],[-76.53766,-12.33937],[-76.5323,-12.3154],[-76.54022,-12.30649],[-76.5475,-12.28572],[-76.55733,-12.27573],[-76.57925,-12.28653],[-76.59583,-12.31487],[-76.59231,-12.3257],[-76.59649,-12.344],[-76.60743,-12.35289],[-76.60707,-12.36908],[-76.61668,-12.37283],[-76.63377,-12.36118],[-76.65083,-12.35616],[-76.66799,-12.36023],[-76.68192,-12.35325],[-76.67399,-12.31952],[-76.65417,-12.30506],[-76.65202,-12.28858],[-76.63679,-12.27936],[-76.62096,-12.23817],[-76.6211,-12.22688],[-76.6375,-12.21922],[-76.64863,-12.20816],[-76.65267,-12.19256],[-76.66203,-12.17796],[-76.67192,-12.1722],[-76.68792,-12.15183],[-76.69156,-12.14136],[-76.6793,-12.13097],[-76.69775,-12.11519],[-76.71088,-12.11316],[-76.71662,-12.09934],[-76.70519,-12.08626],[-76.68199,-12.08439],[-76.67351,-12.07351],[-76.67808,-12.05298],[-76.6951,-12.03706],[-76.70657,-12.03236],[-76.71319,-12.01037],[-76.72234,-11.99959],[-76.71766,-11.9931],[-76.70001,-11.98587],[-76.681,-11.98806],[-76.67351,-11.98018],[-76.66141,-11.97906],[-76.64833,-11.96737],[-76.64696,-11.95288],[-76.67172,-11.92894],[-76.66877,-11.92355],[-76.69285,-11.90189],[-76.69414,-11.89656],[-76.71091,-11.89215],[-76.72794,-11.87571],[-76.74169,-11.895],[-76.74701,-11.89439],[-76.79168,-11.92761],[-76.81637,-11.92682],[-76.832,-11.94516],[-76.8455,-11.93578],[-76.86589,-11.94635],[-76.89375,-11.95622],[-76.90798,-11.95412],[-76.91655,-11.95984],[-76.92915,-11.9428],[-76.92753,-11.93411],[-76.91467,-11.92609],[-76.918,-11.90645],[-76.91211,-11.88927],[-76.8989,-11.88247],[-76.89609,-11.86413],[-76.91184,-11.86494],[-76.93066,-11.87061],[-76.94228,-11.86087],[-76.93421,-11.84466],[-76.93564,-11.83368],[-76.91641,-11.83136],[-76.90327,-11.82271],[-76.90661,-11.79612],[-76.89649,-11.79322],[-76.85124,-11.79815],[-76.8433,-11.7857],[-76.82554,-11.7773],[-76.80487,-11.75587],[-76.77668,-11.74],[-76.75339,-11.73153],[-76.7497,-11.71205],[-76.74005,-11.69812],[-76.70737,-11.69131],[-76.68829,-11.67173],[-76.6794,-11.67103],[-76.66549,-11.65877],[-76.64535,-11.6601],[-76.63042,-11.6532],[-76.61255,-11.65296],[-76.59985,-11.63731],[-76.57498,-11.63238],[-76.57528,-11.6211],[-76.56036,-11.61372],[-76.55957,-11.5943],[-76.54748,-11.5703],[-76.53611,-11.55909],[-76.5455,-11.53568],[-76.54292,-11.51749],[-76.53011,-11.51228],[-76.52469,-11.49414],[-76.51293,-11.48914],[-76.50402,-11.47763],[-76.50269,-11.46615],[-76.49498,-11.45823],[-76.48428,-11.45877],[-76.47533,-11.46708],[-76.46932,-11.46065],[-76.44978,-11.46721],[-76.4369,-11.4873],[-76.4141,-11.49238],[-76.40059,-11.50717],[-76.39319,-11.49982],[-76.37684,-11.50149],[-76.36176,-11.51457],[-76.3594,-11.52287],[-76.35092,-11.52007],[-76.3501,-11.54214],[-76.32786,-11.54432],[-76.31751,-11.5627],[-76.30437,-11.56753],[-76.29671,-11.59587],[-76.27184,-11.58012],[-76.26202,-11.56667],[-76.23741,-11.56901],[-76.22734,-11.55389],[-76.21693,-11.57157],[-76.2055,-11.57442],[-76.19939,-11.58843],[-76.18771,-11.59279],[-76.18787,-11.60231],[-76.17981,-11.61092],[-76.19474,-11.61966],[-76.19878,-11.62755],[-76.18829,-11.64239],[-76.20488,-11.65953],[-76.1933,-11.67349],[-76.19721,-11.69338],[-76.2048,-11.69455],[-76.20233,-11.72805],[-76.1982,-11.73781],[-76.18889,-11.73772],[-76.17538,-11.75038],[-76.17288,-11.76256],[-76.14992,-11.7837],[-76.14375,-11.77658],[-76.1335,-11.79238],[-76.12521,-11.79545],[-76.1126,-11.81158],[-76.10417,-11.83165],[-76.08459,-11.86038],[-76.05818,-11.87996],[-76.05175,-11.89086],[-76.05034,-11.9096],[-76.05822,-11.91281],[-76.05186,-11.93896]]]}},{"type":"Feature","properties":{"ubigeo":"1508","nombre":"Huaura"},"geometry":{"type":"Polygon","coordinates":[[[-77.01097,-10.69599],[-77.01381,-10.70719],[-77.0234,-10.70615],[-77.03484,-10.73275],[-77.06941,-10.74477],[-77.08074,-10.74392],[-77.08606,-10.75354],[-77.09942,-10.74826],[-77.14029,-10.7561],[-77.16216,-10.76737],[-77.1669,-10.77701],[-77.17662,-10.77808],[-77.18808,-10.8048],[-77.17754,-10.80575],[-77.17045,-10.81406],[-77.16433,-10.83562],[-77.15649,-10.84924],[-77.15918,-10.86698],[-77.16572,-10.88315],[-77.16289,-10.9018],[-77.16804,-10.91854],[-77.19421,-10.93002],[-77.19423,-10.9575],[-77.18038,-10.96119],[-77.17429,-10.98692],[-77.16223,-10.99063],[-77.13884,-11.01123],[-77.12462,-11.00841],[-77.12062,-10.99837],[-77.09996,-11.00275],[-77.08425,-11.01602],[-77.07337,-11.00097],[-77.0663,-10.99824],[-77.05151,-10.97583],[-77.04766,-10.96146],[-77.0306,-10.94458],[-77.02725,-10.93229],[-77.01025,-10.9143],[-76.99225,-10.9093],[-76.9689,-10.86391],[-76.94557,-10.86078],[-76.92348,-10.85278],[-76.91592,-10.85972],[-76.90181,-10.84539],[-76.88924,-10.84413],[-76.87644,-10.85971],[-76.84795,-10.87315],[-76.84275,-10.88074],[-76.80869,-10.90706],[-76.79861,-10.91907],[-76.77456,-10.93271],[-76.74312,-10.93433],[-76.73273,-10.91291],[-76.71329,-10.89318],[-76.6951,-10.87927],[-76.6739,-10.88452],[-76.65421,-10.88198],[-76.62392,-10.8669],[-76.61515,-10.86502],[-76.60868,-10.8545],[-76.58821,-10.84505],[-76.58418,-10.85278],[-76.5783,-10.90251],[-76.56836,-10.93481],[-76.56905,-10.9509],[-76.56508,-10.96618],[-76.57917,-10.98138],[-76.58016,-11.01084],[-76.57695,-11.01653],[-76.58465,-11.01599],[-76.61753,-11.02882],[-76.6269,-11.02385],[-76.6336,-11.03832],[-76.65784,-11.03437],[-76.67137,-11.05403],[-76.68208,-11.04688],[-76.70486,-11.05538],[-76.72056,-11.05234],[-76.73066,-11.06386],[-76.74075,-11.06582],[-76.73957,-11.041],[-76.7656,-11.03512],[-76.78245,-11.04575],[-76.79327,-11.07637],[-76.81227,-11.08707],[-76.81484,-11.09873],[-76.83664,-11.10223],[-76.84039,-11.09448],[-76.87015,-11.08747],[-76.87854,-11.08276],[-76.90758,-11.08761],[-76.94268,-11.07825],[-76.95134,-11.08702],[-76.98472,-11.10121],[-77.00944,-11.12156],[-77.02041,-11.13521],[-77.03042,-11.13245],[-77.04641,-11.13837],[-77.05657,-11.11645],[-77.05068,-11.10764],[-77.05204,-11.09576],[-77.07699,-11.09205],[-77.07545,-11.10336],[-77.08389,-11.14736],[-77.08786,-11.15286],[-77.08315,-11.16774],[-77.08505,-11.18461],[-77.06396,-11.19031],[-77.06442,-11.2057],[-77.05803,-11.21724],[-77.05697,-11.23051],[-77.06574,-11.24546],[-77.07144,-11.26843],[-77.07816,-11.27709],[-77.09142,-11.28318],[-77.11095,-11.28238],[-77.13127,-11.29821],[-77.14511,-11.3418],[-77.15929,-11.34451],[-77.16338,-11.36575],[-77.18927,-11.36282],[-77.205,-11.34296],[-77.22544,-11.34154],[-77.23072,-11.3153],[-77.24181,-11.30434],[-77.2542,-11.30242],[-77.26954,-11.2938],[-77.27734,-11.28092],[-77.30349,-11.2741],[-77.31223,-11.28892],[-77.33299,-11.34419],[-77.32054,-11.36392],[-77.32555,-11.38876],[-77.33432,-11.39852],[-77.35365,-11.40256],[-77.37005,-11.41467],[-77.37789,-11.4282],[-77.38269,-11.44718],[-77.45037,-11.40481],[-77.49814,-11.37715],[-77.60162,-11.32337],[-77.64292,-11.30448],[-77.6409,-11.26968],[-77.64935,-11.23996],[-77.64382,-11.23516],[-77.64734,-11.2224],[-77.64165,-11.21451],[-77.62756,-11.21712],[-77.61056,-11.21244],[-77.6044,-11.21518],[-77.59654,-11.20633],[-77.59235,-11.18208],[-77.59536,-11.16558],[-77.60727,-11.14151],[-77.62005,-11.12651],[-77.6131,-11.11216],[-77.62877,-11.09534],[-77.62831,-11.08388],[-77.63738,-11.0713],[-77.63342,-11.05451],[-77.641,-11.03827],[-77.66175,-11.01265],[-77.64907,-11.00435],[-77.64849,-10.98726],[-77.66189,-10.96222],[-77.65783,-10.94651],[-77.67599,-10.914],[-77.69235,-10.89207],[-77.70152,-10.88612],[-77.66042,-10.86677],[-77.64784,-10.86471],[-77.64189,-10.87229],[-77.61483,-10.86812],[-77.59953,-10.86003],[-77.58592,-10.87313],[-77.56139,-10.8784],[-77.54672,-10.89286],[-77.52571,-10.93198],[-77.47826,-10.91861],[-77.44429,-10.9161],[-77.46222,-10.87007],[-77.45815,-10.80996],[-77.44679,-10.80168],[-77.43878,-10.80298],[-77.43151,-10.78975],[-77.42568,-10.7687],[-77.40249,-10.76798],[-77.38674,-10.75274],[-77.38499,-10.74022],[-77.37355,-10.73022],[-77.3655,-10.71441],[-77.38566,-10.70779],[-77.40379,-10.69097],[-77.39531,-10.66154],[-77.3889,-10.65765],[-77.38011,-10.63944],[-77.3673,-10.6383],[-77.34855,-10.6078],[-77.3447,-10.60798],[-77.32946,-10.61805],[-77.31412,-10.64133],[-77.30409,-10.64778],[-77.30018,-10.65975],[-77.26727,-10.67297],[-77.26089,-10.67242],[-77.24682,-10.68334],[-77.22163,-10.68167],[-77.21531,-10.67721],[-77.19723,-10.68683],[-77.17482,-10.67051],[-77.15301,-10.66743],[-77.13778,-10.64688],[-77.12272,-10.64896],[-77.11729,-10.66267],[-77.10321,-10.67288],[-77.08437,-10.66675],[-77.06653,-10.67912],[-77.06588,-10.68793],[-77.05509,-10.69138],[-77.04833,-10.6799],[-77.02459,-10.6786],[-77.01097,-10.69599]]]}},{"type":"Feature","properties":{"ubigeo":"1509","nombre":"Oyón"},"geometry":{"type":"Polygon","coordinates":[[[-76.65566,-10.64678],[-76.66906,-10.68067],[-76.65938,-10.68825],[-76.65448,-10.71295],[-76.64046,-10.74864],[-76.63422,-10.75249],[-76.62699,-10.76933],[-76.63349,-10.78453],[-76.61413,-10.817],[-76.60158,-10.81587],[-76.58926,-10.8367],[-76.58821,-10.84505],[-76.60868,-10.8545],[-76.61515,-10.86502],[-76.62392,-10.8669],[-76.65421,-10.88198],[-76.6739,-10.88452],[-76.6951,-10.87927],[-76.71329,-10.89318],[-76.73273,-10.91291],[-76.74312,-10.93433],[-76.77456,-10.93271],[-76.79861,-10.91907],[-76.80869,-10.90706],[-76.84275,-10.88074],[-76.84795,-10.87315],[-76.87644,-10.85971],[-76.88924,-10.84413],[-76.90181,-10.84539],[-76.91592,-10.85972],[-76.92348,-10.85278],[-76.94557,-10.86078],[-76.9689,-10.86391],[-76.99225,-10.9093],[-77.01025,-10.9143],[-77.02725,-10.93229],[-77.0306,-10.94458],[-77.04766,-10.96146],[-77.05151,-10.97583],[-77.0663,-10.99824],[-77.07337,-11.00097],[-77.08425,-11.01602],[-77.09996,-11.00275],[-77.12062,-10.99837],[-77.12462,-11.00841],[-77.13884,-11.01123],[-77.16223,-10.99063],[-77.17429,-10.98692],[-77.18038,-10.96119],[-77.19423,-10.9575],[-77.19421,-10.93002],[-77.16804,-10.91854],[-77.16289,-10.9018],[-77.16572,-10.88315],[-77.15918,-10.86698],[-77.15649,-10.84924],[-77.16433,-10.83562],[-77.17045,-10.81406],[-77.17754,-10.80575],[-77.18808,-10.8048],[-77.17662,-10.77808],[-77.1669,-10.77701],[-77.16216,-10.76737],[-77.14029,-10.7561],[-77.09942,-10.74826],[-77.08606,-10.75354],[-77.08074,-10.74392],[-77.06941,-10.74477],[-77.03484,-10.73275],[-77.0234,-10.70615],[-77.01381,-10.70719],[-77.01097,-10.69599],[-77.00768,-10.68889],[-76.99345,-10.68076],[-76.97361,-10.68222],[-76.96025,-10.68765],[-76.95229,-10.69811],[-76.92418,-10.68357],[-76.90887,-10.66715],[-76.89482,-10.66515],[-76.89074,-10.65442],[-76.87947,-10.65622],[-76.8732,-10.63496],[-76.86331,-10.62182],[-76.85942,-10.59565],[-76.86503,-10.5845],[-76.8589,-10.56231],[-76.86598,-10.55791],[-76.85462,-10.54672],[-76.85803,-10.54072],[-76.8548,-10.5064],[-76.8572,-10.49336],[-76.84976,-10.47956],[-76.84064,-10.47358],[-76.83375,-10.48262],[-76.82341,-10.48354],[-76.82327,-10.46928],[-76.82913,-10.44523],[-76.82817,-10.42898],[-76.7999,-10.41913],[-76.79985,-10.43956],[-76.78815,-10.43812],[-76.77263,-10.45886],[-76.77281,-10.46364],[-76.74264,-10.4668],[-76.72915,-10.47907],[-76.72891,-10.51106],[-76.71687,-10.52298],[-76.71019,-10.54074],[-76.70937,-10.55876],[-76.705,-10.56392],[-76.70372,-10.58859],[-76.68586,-10.58146],[-76.68145,-10.59914],[-76.6727,-10.60989],[-76.67557,-10.62137],[-76.66134,-10.63523],[-76.65566,-10.64678]]]}},{"type":"Feature","properties":{"ubigeo":"1510","nombre":"Yauyos"},"geometry":{"type":"Polygon","coordinates":[[[-75.62752,-12.14174],[-75.64142,-12.14922],[-75.64898,-12.16306],[-75.64847,-12.17421],[-75.65849,-12.17525],[-75.67087,-12.18648],[-75.65203,-12.20676],[-75.65208,-12.21448],[-75.62732,-12.24838],[-75.61612,-12.25649],[-75.59145,-12.29734],[-75.58641,-12.30078],[-75.59264,-12.3141],[-75.5888,-12.3247],[-75.57106,-12.32984],[-75.5641,-12.33629],[-75.55454,-12.35944],[-75.5487,-12.36424],[-75.55119,-12.37581],[-75.56164,-12.39089],[-75.56698,-12.40989],[-75.55959,-12.41072],[-75.55544,-12.43122],[-75.55741,-12.45659],[-75.53927,-12.50032],[-75.5362,-12.51728],[-75.54537,-12.52561],[-75.55199,-12.54493],[-75.55887,-12.54515],[-75.57184,-12.56407],[-75.56663,-12.5709],[-75.57278,-12.58984],[-75.57803,-12.59219],[-75.58284,-12.62176],[-75.57961,-12.64148],[-75.57462,-12.65975],[-75.56133,-12.66308],[-75.56326,-12.67573],[-75.55182,-12.68143],[-75.55351,-12.70334],[-75.57655,-12.71514],[-75.56754,-12.7282],[-75.55355,-12.73634],[-75.55213,-12.74244],[-75.5075,-12.77715],[-75.51389,-12.78865],[-75.52022,-12.78873],[-75.52227,-12.80621],[-75.53108,-12.82221],[-75.56129,-12.81792],[-75.56172,-12.82939],[-75.57041,-12.84286],[-75.5999,-12.8569],[-75.61288,-12.85952],[-75.61309,-12.86698],[-75.63077,-12.90907],[-75.63612,-12.91618],[-75.61842,-12.9417],[-75.62215,-12.9486],[-75.61439,-12.96493],[-75.6375,-12.97324],[-75.63424,-12.98539],[-75.65161,-12.99416],[-75.66324,-12.99404],[-75.66874,-13.00351],[-75.6649,-13.01202],[-75.67036,-13.02261],[-75.68607,-13.02532],[-75.69055,-13.03511],[-75.70701,-13.03959],[-75.72546,-13.03812],[-75.744,-13.02542],[-75.75215,-13.02816],[-75.76216,-13.01889],[-75.77248,-13.03786],[-75.80206,-13.06043],[-75.80775,-13.05157],[-75.81648,-13.05347],[-75.82165,-13.03324],[-75.83906,-13.03072],[-75.848,-13.0361],[-75.87187,-13.02464],[-75.87878,-13.01599],[-75.89826,-13.01329],[-75.91387,-13.00687],[-75.93768,-12.99132],[-75.9614,-13.00138],[-75.95743,-12.96989],[-75.97345,-12.93928],[-75.97464,-12.92316],[-76.0039,-12.92241],[-75.99299,-12.89605],[-76.00119,-12.86863],[-76.00855,-12.85387],[-76.00204,-12.84011],[-75.98882,-12.84293],[-75.98088,-12.83859],[-75.95941,-12.84897],[-75.95483,-12.83693],[-75.94113,-12.81951],[-75.94253,-12.80214],[-75.97044,-12.78508],[-75.98393,-12.7823],[-75.99324,-12.75888],[-76.00002,-12.75689],[-76.00753,-12.77577],[-76.02163,-12.78935],[-76.04517,-12.78196],[-76.06336,-12.79294],[-76.07815,-12.78721],[-76.09723,-12.80131],[-76.10657,-12.80098],[-76.1225,-12.7872],[-76.14155,-12.79342],[-76.14444,-12.82042],[-76.1549,-12.82501],[-76.15388,-12.83784],[-76.16088,-12.83769],[-76.1652,-12.84999],[-76.17727,-12.85437],[-76.19144,-12.83261],[-76.18977,-12.82521],[-76.19937,-12.81345],[-76.24026,-12.79136],[-76.24621,-12.75668],[-76.25549,-12.7508],[-76.28301,-12.75212],[-76.29634,-12.73236],[-76.29955,-12.71534],[-76.29063,-12.68943],[-76.28498,-12.68456],[-76.28813,-12.65446],[-76.27501,-12.65129],[-76.26955,-12.64304],[-76.26284,-12.6187],[-76.2567,-12.61101],[-76.25167,-12.59159],[-76.25785,-12.58618],[-76.27423,-12.58367],[-76.28712,-12.58753],[-76.29104,-12.57424],[-76.30844,-12.54851],[-76.31637,-12.54797],[-76.32322,-12.5283],[-76.33481,-12.5365],[-76.34177,-12.53108],[-76.36749,-12.5326],[-76.35212,-12.52002],[-76.33671,-12.4839],[-76.33935,-12.4676],[-76.33096,-12.44164],[-76.32187,-12.4438],[-76.31355,-12.43062],[-76.31851,-12.41962],[-76.33328,-12.41609],[-76.33637,-12.39988],[-76.3454,-12.388],[-76.34391,-12.35996],[-76.346,-12.33773],[-76.32856,-12.3129],[-76.32372,-12.29155],[-76.30755,-12.27974],[-76.29808,-12.25788],[-76.29122,-12.26859],[-76.29103,-12.2803],[-76.27053,-12.30364],[-76.2503,-12.29973],[-76.22997,-12.28013],[-76.22052,-12.27548],[-76.21686,-12.26425],[-76.19632,-12.26374],[-76.17123,-12.25927],[-76.1518,-12.23936],[-76.12543,-12.22732],[-76.11175,-12.22493],[-76.09928,-12.20741],[-76.08989,-12.20558],[-76.08176,-12.21176],[-76.06947,-12.20741],[-76.06884,-12.18463],[-76.07655,-12.18183],[-76.08622,-12.1604],[-76.07993,-12.15088],[-76.05679,-12.13273],[-76.07251,-12.10965],[-76.06135,-12.08852],[-76.05535,-12.09074],[-76.04135,-12.08142],[-76.03525,-12.07132],[-76.01976,-12.06277],[-76.01847,-12.04861],[-76.01205,-12.04315],[-76.00786,-12.02205],[-75.99918,-12.02012],[-76.00182,-12.00273],[-75.99318,-11.99468],[-75.97531,-11.98394],[-75.95919,-11.98522],[-75.94858,-11.9944],[-75.92599,-11.98429],[-75.91063,-11.98933],[-75.90744,-11.99641],[-75.88429,-11.99363],[-75.85276,-12.00819],[-75.84255,-12.00645],[-75.83401,-12.02432],[-75.81894,-12.01374],[-75.79959,-12.03461],[-75.7866,-12.03938],[-75.76566,-12.05963],[-75.75203,-12.05538],[-75.74305,-12.04684],[-75.74218,-12.03668],[-75.71673,-12.04652],[-75.70109,-12.04816],[-75.6943,-12.04269],[-75.67382,-12.05835],[-75.68469,-12.07126],[-75.68822,-12.08213],[-75.67327,-12.0852],[-75.65938,-12.0939],[-75.65474,-12.10273],[-75.63454,-12.11501],[-75.63882,-12.12086],[-75.63039,-12.12806],[-75.62752,-12.14174]]]}}]}