{"type":"FeatureCollection","features":[{"type":"Feature","properties":{"ubigeo":"1601","nombre":"Maynas"},"geometry":{"type":"Polygon","coordinates":[[[-72.57077,-2.8909],[-72.57384,-2.92211],[-72.57339,-2.94785],[-72.56957,-2.96403],[-72.55646,-2.99699],[-72.55416,-3.00841],[-72.55808,-3.0468],[-72.55645,-3.05983],[-72.54636,-3.0714],[-72.49884,-3.08492],[-72.47906,-3.09866],[-72.47461,-3.1231],[-72.46609,-3.13216],[-72.45593,-3.13164],[-72.43827,-3.15616],[-72.4304,-3.17426],[-72.41872,-3.17682],[-72.40899,-3.20306],[-72.41395,-3.21765],[-72.40383,-3.23514],[-72.36383,-3.24703],[-72.34914,-3.27477],[-72.33777,-3.28245],[-72.30736,-3.29161],[-72.29344,-3.29294],[-72.2772,-3.31921],[-72.27396,-3.33278],[-72.24321,-3.35567],[-72.23579,-3.36944],[-72.22478,-3.37305],[-72.19845,-3.40426],[-72.19801,-3.44105],[-72.1839,-3.45609],[-72.11844,-3.49767],[-72.11902,-3.5028],[-72.14802,-3.52852],[-72.15633,-3.54774],[-72.15628,-3.5796],[-72.17427,-3.60428],[-72.20081,-3.61593],[-72.22799,-3.63221],[-72.2546,-3.6536],[-72.28083,-3.67881],[-72.30265,-3.68612],[-72.2898,-3.73042],[-72.27994,-3.73945],[-72.27889,-3.77887],[-72.28306,-3.7996],[-72.28289,-3.83484],[-72.27855,-3.85734],[-72.27284,-3.86979],[-72.26157,-3.91332],[-72.25495,-3.91969],[-72.25537,-3.94479],[-72.26861,-3.96155],[-72.30601,-3.99426],[-72.3237,-3.99478],[-72.33798,-4.00598],[-72.34816,-4.006],[-72.35519,-4.02214],[-72.37072,-4.03146],[-72.39559,-4.05724],[-72.40858,-4.09861],[-72.4244,-4.11608],[-72.42715,-4.13275],[-72.43674,-4.16153],[-72.42903,-4.17981],[-72.38868,-4.20332],[-72.38776,-4.20853],[-72.48177,-4.2933],[-72.49799,-4.31939],[-72.50319,-4.3185],[-72.53579,-4.29511],[-72.54995,-4.29361],[-72.57182,-4.29796],[-72.58078,-4.30353],[-72.60503,-4.30175],[-72.62856,-4.30365],[-72.60294,-4.35523],[-72.60324,-4.3588],[-72.6351,-4.39913],[-72.67219,-4.39859],[-72.75656,-4.38272],[-72.75885,-4.42039],[-72.76574,-4.44609],[-72.78338,-4.48846],[-72.79577,-4.49619],[-72.81144,-4.49854],[-72.84026,-4.49453],[-72.85996,-4.48605],[-72.88202,-4.487],[-72.90573,-4.46811],[-72.93468,-4.4671],[-72.95598,-4.47552],[-72.9776,-4.49326],[-73.00677,-4.50785],[-73.02583,-4.52958],[-73.035,-4.55406],[-73.03524,-4.63254],[-73.06326,-4.66973],[-73.12944,-4.69554],[-73.1556,-4.70971],[-73.17051,-4.70082],[-73.18112,-4.68645],[-73.21716,-4.67396],[-73.24707,-4.65646],[-73.26966,-4.63884],[-73.2894,-4.60867],[-73.32256,-4.58432],[-73.35239,-4.54223],[-73.36216,-4.52294],[-73.38873,-4.49702],[-73.3953,-4.47925],[-73.41163,-4.46521],[-73.42235,-4.46289],[-73.43522,-4.44636],[-73.42564,-4.43686],[-73.42056,-4.42419],[-73.42375,-4.41051],[-73.42023,-4.37987],[-73.42681,-4.35621],[-73.44916,-4.3247],[-73.4428,-4.30635],[-73.40984,-4.2777],[-73.38062,-4.26],[-73.37886,-4.25234],[-73.40029,-4.23855],[-73.40877,-4.24847],[-73.43747,-4.26892],[-73.46821,-4.2849],[-73.47221,-4.30679],[-73.48814,-4.32365],[-73.5283,-4.33156],[-73.54922,-4.34133],[-73.56328,-4.36021],[-73.59268,-4.38182],[-73.64424,-4.41055],[-73.69192,-4.43978],[-73.70925,-4.44558],[-73.74709,-4.44906],[-73.7959,-4.4475],[-73.83358,-4.43862],[-73.84707,-4.42857],[-73.86923,-4.40116],[-73.88352,-4.38843],[-73.91486,-4.38435],[-73.937,-4.3719],[-73.94526,-4.3245],[-73.97994,-4.29975],[-74.0587,-4.24761],[-74.08561,-4.21172],[-74.10171,-4.17703],[-74.13544,-4.06188],[-74.13737,-4.02213],[-74.135,-4.00178],[-74.14791,-3.98932],[-74.15007,-3.96927],[-74.15765,-3.9611],[-74.17456,-3.91821],[-74.18906,-3.89928],[-74.18601,-3.89369],[-74.20135,-3.87625],[-74.21254,-3.85834],[-74.23886,-3.84437],[-74.25843,-3.84783],[-74.28113,-3.8298],[-74.30282,-3.7989],[-74.30806,-3.7826],[-74.32422,-3.76816],[-74.3442,-3.76313],[-74.35054,-3.75474],[-74.36744,-3.71868],[-74.38001,-3.71319],[-74.41209,-3.71828],[-74.42923,-3.70874],[-74.45864,-3.70549],[-74.47206,-3.6843],[-74.49239,-3.70121],[-74.50143,-3.69886],[-74.55454,-3.63331],[-74.62009,-3.57067],[-74.63753,-3.5507],[-74.66404,-3.52678],[-74.67923,-3.50937],[-74.6862,-3.49404],[-74.68343,-3.47079],[-74.67947,-3.46579],[-74.69194,-3.45103],[-74.71695,-3.4595],[-74.72046,-3.45214],[-74.71257,-3.43607],[-74.72333,-3.41433],[-74.72444,-3.39519],[-74.73425,-3.37497],[-74.73415,-3.36574],[-74.75009,-3.35566],[-74.75394,-3.33453],[-74.76932,-3.32632],[-74.78072,-3.3261],[-74.78045,-3.31831],[-74.7927,-3.30723],[-74.80254,-3.30765],[-74.81878,-3.29685],[-74.81927,-3.28712],[-74.83142,-3.27715],[-74.82747,-3.2575],[-74.81337,-3.24321],[-74.81577,-3.23776],[-74.83634,-3.22621],[-74.84266,-3.21776],[-74.85273,-3.22437],[-74.85998,-3.21091],[-74.8736,-3.20106],[-74.8929,-3.20985],[-74.90919,-3.20607],[-74.91033,-3.20039],[-74.93437,-3.19666],[-74.94038,-3.20005],[-74.97759,-3.19046],[-74.99161,-3.19001],[-75.00062,-3.17171],[-75.00176,-3.16041],[-75.01016,-3.15137],[-75.01781,-3.12898],[-75.01199,-3.10659],[-75.02019,-3.09966],[-75.01429,-3.07488],[-75.02645,-3.06072],[-75.03471,-3.02796],[-75.03599,-3.00017],[-75.04272,-2.98822],[-75.05713,-2.97899],[-75.05822,-2.95909],[-75.05464,-2.94019],[-75.04551,-2.91854],[-75.04737,-2.91023],[-75.03935,-2.88939],[-75.03764,-2.87293],[-75.02615,-2.83068],[-75.02412,-2.80012],[-75.01027,-2.76636],[-75.01244,-2.72038],[-75.00993,-2.68467],[-75.0003,-2.6736],[-74.98414,-2.66907],[-74.97375,-2.6607],[-74.97116,-2.64558],[-74.95746,-2.61146],[-74.96304,-2.59439],[-74.96357,-2.56827],[-74.97114,-2.56634],[-74.98219,-2.55081],[-74.99119,-2.51601],[-74.9812,-2.5068],[-74.95478,-2.50342],[-74.95428,-2.48511],[-74.94959,-2.45879],[-74.95468,-2.43127],[-74.95371,-2.41495],[-74.96217,-2.38352],[-74.95852,-2.37173],[-74.96515,-2.36565],[-74.97812,-2.3684],[-75.01715,-2.35179],[-75.04026,-2.33422],[-75.05722,-2.31415],[-75.08323,-2.29347],[-75.10394,-2.28968],[-75.10902,-2.30013],[-75.13164,-2.2906],[-75.14088,-2.27893],[-75.15534,-2.23523],[-75.17221,-2.21916],[-75.17418,-2.20632],[-75.16608,-2.19175],[-75.19191,-2.16637],[-75.22601,-2.15677],[-75.23773,-2.13795],[-75.24619,-2.13383],[-75.24893,-2.11759],[-75.24325,-2.1031],[-75.25475,-2.09186],[-75.25314,-2.07934],[-75.26791,-2.06019],[-75.27352,-2.03209],[-75.28815,-2.00871],[-75.30198,-2.0031],[-75.33755,-2.0032],[-75.35867,-2.01216],[-75.38274,-2.01364],[-75.3961,-2.01834],[-75.41116,-2.02913],[-75.43798,-2.03659],[-75.4449,-2.03414],[-75.45911,-2.01176],[-75.47254,-2.00386],[-75.51921,-2.00165],[-75.53629,-1.99646],[-75.5623,-1.97014],[-75.57484,-1.96346],[-75.60557,-1.9697],[-75.62203,-1.96512],[-75.64626,-1.94806],[-75.66299,-1.94611],[-75.7002,-1.93382],[-75.72921,-1.9301],[-75.74592,-1.93092],[-75.75156,-1.91065],[-75.77708,-1.85647],[-75.78115,-1.82774],[-75.77695,-1.80627],[-75.77836,-1.79395],[-75.6551,-1.6359],[-75.58093,-1.54637],[-75.55836,-1.56072],[-75.55036,-1.50199],[-75.53896,-1.48347],[-75.47356,-1.24992],[-75.44965,-1.16288],[-75.4039,-1.00008],[-75.3867,-0.92974],[-75.3813,-0.92394],[-75.35215,-0.9423],[-75.32203,-0.97478],[-75.31536,-0.97416],[-75.30418,-0.98531],[-75.29298,-0.98749],[-75.27762,-0.97168],[-75.25898,-0.96828],[-75.24763,-0.97099],[-75.21145,-0.96957],[-75.2014,-0.97555],[-75.18849,-0.9698],[-75.20157,-0.9568],[-75.22745,-0.94411],[-75.23286,-0.91966],[-75.22115,-0.90149],[-75.22281,-0.8709],[-75.23222,-0.85596],[-75.24511,-0.84581],[-75.24963,-0.83063],[-75.24069,-0.81191],[-75.24183,-0.79837],[-75.26399,-0.78754],[-75.26493,-0.77926],[-75.2516,-0.76737],[-75.2539,-0.75929],[-75.27003,-0.7457],[-75.27218,-0.71392],[-75.25094,-0.70045],[-75.25005,-0.69184],[-75.2666,-0.67887],[-75.27138,-0.66361],[-75.25714,-0.64475],[-75.24583,-0.63948],[-75.23153,-0.64709],[-75.24027,-0.65589],[-75.22829,-0.67354],[-75.23245,-0.6857],[-75.22383,-0.69493],[-75.2048,-0.70672],[-75.18716,-0.7091],[-75.18152,-0.71401],[-75.19833,-0.72054],[-75.1928,-0.73663],[-75.15255,-0.74834],[-75.13342,-0.75723],[-75.10982,-0.77477],[-75.0868,-0.78327],[-75.06082,-0.78087],[-75.04161,-0.79997],[-75.03475,-0.79475],[-74.98427,-0.82222],[-74.96815,-0.85303],[-74.95518,-0.88674],[-74.93541,-0.89212],[-74.92675,-0.89833],[-74.90872,-0.92022],[-74.88735,-0.91963],[-74.88408,-0.96098],[-74.86888,-0.98872],[-74.85332,-1.00596],[-74.8448,-1.02286],[-74.81466,-1.03347],[-74.79464,-1.03614],[-74.78442,-1.04995],[-74.7631,-1.05368],[-74.75797,-1.05813],[-74.73716,-1.10547],[-74.7219,-1.11035],[-74.71315,-1.1458],[-74.70181,-1.15628],[-74.69145,-1.17423],[-74.65487,-1.21069],[-74.64439,-1.2169],[-74.64046,-1.23339],[-74.61658,-1.24296],[-74.5895,-1.27237],[-74.58619,-1.30992],[-74.56515,-1.32477],[-74.54753,-1.32873],[-74.53897,-1.34716],[-74.51608,-1.35182],[-74.50183,-1.37144],[-74.49098,-1.37961],[-74.46601,-1.37608],[-74.44595,-1.38978],[-74.44356,-1.39792],[-74.4285,-1.39035],[-74.41351,-1.3976],[-74.40608,-1.39434],[-74.37701,-1.40272],[-74.35294,-1.41473],[-74.32286,-1.422],[-74.30636,-1.43685],[-74.29087,-1.43321],[-74.26612,-1.44306],[-74.22279,-1.45553],[-74.20676,-1.44555],[-74.18989,-1.45048],[-74.17128,-1.46795],[-74.15169,-1.47155],[-74.1394,-1.48108],[-74.12079,-1.50309],[-74.0877,-1.52067],[-74.03236,-1.52775],[-74.00786,-1.52388],[-74.00018,-1.52887],[-73.99567,-1.55318],[-73.97286,-1.58533],[-73.96027,-1.5886],[-73.94096,-1.58777],[-73.94141,-1.60332],[-73.92379,-1.61613],[-73.92152,-1.62596],[-73.90927,-1.64493],[-73.90633,-1.65757],[-73.88678,-1.68299],[-73.85972,-1.68004],[-73.83715,-1.68667],[-73.82449,-1.69635],[-73.8178,-1.74485],[-73.82328,-1.77664],[-73.83661,-1.80201],[-73.84245,-1.82454],[-73.83693,-1.84832],[-73.85502,-1.86425],[-73.86021,-1.87888],[-73.87863,-1.89266],[-73.88153,-1.90297],[-73.87528,-1.91871],[-73.88118,-1.93554],[-73.88741,-1.93852],[-73.89869,-1.96774],[-73.91988,-1.97762],[-73.92269,-1.98409],[-73.91453,-1.99208],[-73.90329,-1.99121],[-73.88405,-1.99843],[-73.86725,-2.01801],[-73.84138,-2.02308],[-73.82148,-2.02252],[-73.80744,-2.02853],[-73.80363,-2.03706],[-73.79314,-2.10525],[-73.7874,-2.12236],[-73.77762,-2.13345],[-73.75411,-2.1416],[-73.73696,-2.15691],[-73.74016,-2.17354],[-73.7562,-2.20371],[-73.7512,-2.22636],[-73.7336,-2.2363],[-73.72701,-2.2507],[-73.72041,-2.28345],[-73.71081,-2.29678],[-73.6942,-2.30224],[-73.67845,-2.2919],[-73.66119,-2.29033],[-73.62286,-2.30556],[-73.57299,-2.34409],[-73.56121,-2.36767],[-73.54698,-2.37367],[-73.52127,-2.37688],[-73.48179,-2.4101],[-73.44416,-2.41701],[-73.40577,-2.43993],[-73.37318,-2.4656],[-73.36856,-2.4769],[-73.37212,-2.49804],[-73.38405,-2.50977],[-73.39584,-2.53336],[-73.39221,-2.55162],[-73.36749,-2.59557],[-73.35534,-2.60847],[-73.32097,-2.62581],[-73.27586,-2.63717],[-73.25967,-2.65046],[-73.24201,-2.6724],[-73.21365,-2.69598],[-73.18644,-2.70392],[-73.16971,-2.70137],[-73.14865,-2.70669],[-73.13697,-2.72177],[-73.13426,-2.75837],[-73.12219,-2.77522],[-73.10547,-2.77867],[-73.06921,-2.77856],[-73.03822,-2.80036],[-73.01297,-2.8227],[-72.98107,-2.83961],[-72.93539,-2.87295],[-72.89993,-2.9097],[-72.88623,-2.91776],[-72.85859,-2.9146],[-72.79545,-2.91198],[-72.7662,-2.91527],[-72.73024,-2.90588],[-72.70377,-2.90174],[-72.67875,-2.8928],[-72.58102,-2.88965],[-72.57077,-2.8909]]]}},{"type":"Feature","properties":{"ubigeo":"1602","nombre":"Alto Amazonas"},"geometry":{"type":"Polygon","coordinates":[[[-75.56893,-6.00039],[-75.58412,-6.01166],[-75.61389,-6.02324],[-75.62482,-6.03937],[-75.62896,-6.08212],[-75.65477,-6.09831],[-75.68037,-6.09563],[-75.6916,-6.11229],[-75.69856,-6.11249],[-75.71502,-6.13827],[-75.72664,-6.14402],[-75.7378,-6.14177],[-75.76665,-6.14739],[-75.77336,-6.14496],[-75.768,-6.12722],[-75.77901,-6.11812],[-75.79433,-6.11487],[-75.79386,-6.10895],[-75.82769,-6.09875],[-75.85155,-6.10903],[-75.84377,-6.12267],[-75.8462,-6.12955],[-75.83798,-6.14051],[-75.85861,-6.1422],[-75.88563,-6.13311],[-75.90315,-6.13305],[-75.91659,-6.14079],[-75.93104,-6.13287],[-75.94818,-6.11461],[-75.95356,-6.10262],[-75.96952,-6.09622],[-76.00575,-6.09522],[-76.01276,-6.08422],[-76.01816,-6.0912],[-76.04272,-6.101],[-76.06472,-6.09965],[-76.08689,-6.1069],[-76.14599,-6.14667],[-76.20198,-6.1325],[-76.24715,-6.12606],[-76.26521,-6.11969],[-76.28508,-6.10383],[-76.3035,-6.09962],[-76.3183,-6.08609],[-76.31971,-6.07357],[-76.31543,-6.05781],[-76.31892,-6.05033],[-76.33401,-6.04211],[-76.36219,-5.98782],[-76.37279,-5.97376],[-76.40001,-5.95366],[-76.41188,-5.96215],[-76.42474,-5.99581],[-76.44115,-6.00702],[-76.47101,-6.00949],[-76.48986,-6.01422],[-76.51799,-6.00341],[-76.53617,-6.0131],[-76.54888,-6.01275],[-76.56296,-6.00157],[-76.59044,-6.01483],[-76.61828,-6.0144],[-76.6231,-6.00832],[-76.64001,-6.0026],[-76.66132,-6.0047],[-76.67373,-6.01246],[-76.69954,-6.01091],[-76.71077,-6.01367],[-76.72956,-6.00535],[-76.7477,-6.00364],[-76.75443,-5.99839],[-76.74544,-5.97374],[-76.74673,-5.95403],[-76.76287,-5.94812],[-76.76761,-5.92763],[-76.77586,-5.91859],[-76.77774,-5.90055],[-76.78938,-5.89305],[-76.81805,-5.86214],[-76.81938,-5.8326],[-76.82634,-5.81785],[-76.81633,-5.80757],[-76.8213,-5.80265],[-76.82963,-5.77598],[-76.8246,-5.7573],[-76.83545,-5.74556],[-76.86393,-5.73996],[-76.89454,-5.74623],[-76.88999,-5.7363],[-76.86649,-5.72553],[-76.86951,-5.70356],[-76.86278,-5.69474],[-76.84741,-5.68942],[-76.82948,-5.69579],[-76.81033,-5.68851],[-76.82577,-5.67284],[-76.8231,-5.66079],[-76.81357,-5.65618],[-76.81426,-5.64173],[-76.81955,-5.63612],[-76.84545,-5.63879],[-76.83998,-5.62092],[-76.84445,-5.60896],[-76.83562,-5.60319],[-76.81661,-5.60192],[-76.81247,-5.59099],[-76.83495,-5.56773],[-76.84808,-5.54345],[-76.85082,-5.53211],[-76.84531,-5.51594],[-76.83488,-5.51262],[-76.83221,-5.49851],[-76.79995,-5.47596],[-76.7711,-5.44257],[-76.75587,-5.43625],[-76.75736,-5.45589],[-76.74546,-5.44512],[-76.73546,-5.45065],[-76.71679,-5.48217],[-76.70285,-5.49203],[-76.6909,-5.4868],[-76.66145,-5.45892],[-76.64526,-5.46387],[-76.63929,-5.46107],[-76.64145,-5.44802],[-76.62978,-5.44358],[-76.62716,-5.43374],[-76.63459,-5.41966],[-76.6254,-5.36742],[-76.61785,-5.36023],[-76.60747,-5.3378],[-76.6015,-5.33462],[-76.58852,-5.34389],[-76.57592,-5.33613],[-76.5799,-5.32027],[-76.58754,-5.31434],[-76.58262,-5.2979],[-76.58252,-5.27931],[-76.59312,-5.27224],[-76.5933,-5.25605],[-76.60436,-5.24829],[-76.60583,-5.22894],[-76.58749,-5.21325],[-76.57994,-5.21507],[-76.56602,-5.23308],[-76.52228,-5.24009],[-76.5107,-5.23716],[-76.50945,-5.22867],[-76.52837,-5.18643],[-76.52502,-5.17825],[-76.50656,-5.17102],[-76.50591,-5.15191],[-76.51372,-5.13264],[-76.49904,-5.12328],[-76.49507,-5.10752],[-76.4806,-5.08907],[-76.46349,-5.07804],[-76.44576,-5.06125],[-76.44824,-5.02062],[-76.45443,-5.01333],[-76.45711,-4.99831],[-76.45404,-4.9866],[-76.44438,-5.00397],[-76.42819,-5.02066],[-76.42882,-5.04631],[-76.4212,-5.05245],[-76.40745,-5.05133],[-76.37783,-5.03512],[-76.36446,-5.0317],[-76.33754,-5.03233],[-76.31634,-5.02683],[-76.23519,-5.01894],[-76.18336,-5.01706],[-76.14796,-5.03277],[-76.07736,-5.08049],[-76.03204,-5.09951],[-76.00223,-5.10106],[-75.9672,-5.08166],[-75.95472,-5.07968],[-75.91904,-5.08449],[-75.91921,-5.02139],[-75.91016,-5.02465],[-75.89769,-5.04476],[-75.88915,-5.04835],[-75.85858,-5.03105],[-75.84009,-5.02504],[-75.804,-5.01842],[-75.78945,-5.01808],[-75.74873,-5.03845],[-75.7468,-5.01295],[-75.76226,-4.99862],[-75.79959,-4.97913],[-75.82818,-4.9771],[-75.84018,-4.96138],[-75.87051,-4.93664],[-75.89082,-4.9257],[-75.91609,-4.91657],[-75.93862,-4.9015],[-75.95909,-4.87735],[-75.97303,-4.86707],[-76.00064,-4.85729],[-76.00805,-4.85073],[-76.02508,-4.81574],[-76.03073,-4.81516],[-76.06702,-4.83376],[-76.08565,-4.81831],[-76.09885,-4.79187],[-76.11544,-4.79039],[-76.14044,-4.79769],[-76.16739,-4.77955],[-76.17418,-4.75808],[-76.17153,-4.73152],[-76.16318,-4.70562],[-76.17561,-4.68858],[-76.19659,-4.68294],[-76.20586,-4.67227],[-76.20609,-4.66306],[-76.19885,-4.6227],[-76.21786,-4.60795],[-76.23463,-4.57865],[-76.24518,-4.56564],[-76.24318,-4.5588],[-76.23151,-4.55969],[-76.23357,-4.55204],[-76.25586,-4.54635],[-76.26416,-4.52874],[-76.27724,-4.52131],[-76.29319,-4.51993],[-76.3147,-4.4823],[-76.32283,-4.45666],[-76.33629,-4.43943],[-76.33887,-4.42553],[-76.33352,-4.41033],[-76.31541,-4.39961],[-76.30762,-4.3876],[-76.32099,-4.3658],[-76.31978,-4.35605],[-76.30112,-4.34605],[-76.29658,-4.33866],[-76.29719,-4.31906],[-76.27604,-4.3024],[-76.24917,-4.28618],[-76.23113,-4.2663],[-76.22934,-4.2413],[-76.24454,-4.2193],[-76.24617,-4.19596],[-76.2383,-4.18921],[-76.24249,-4.18123],[-76.26057,-4.17724],[-76.28206,-4.15994],[-76.31091,-4.15677],[-76.3101,-4.1508],[-76.29342,-4.13451],[-76.32787,-4.11757],[-76.33821,-4.10031],[-76.34349,-4.08389],[-76.34284,-4.06969],[-76.35158,-4.04084],[-76.3687,-4.02553],[-76.39355,-3.99801],[-76.39566,-3.98319],[-76.41361,-3.96193],[-76.42268,-3.92538],[-76.41661,-3.88841],[-76.41639,-3.86598],[-76.39335,-3.85284],[-76.38117,-3.8169],[-76.38679,-3.79236],[-76.38548,-3.78494],[-76.37102,-3.77736],[-76.35217,-3.77819],[-76.34057,-3.77314],[-76.33046,-3.75965],[-76.33557,-3.74113],[-76.33554,-3.72095],[-76.32983,-3.6894],[-76.32514,-3.68153],[-76.31979,-3.69152],[-76.30752,-3.69827],[-76.29074,-3.69548],[-76.28294,-3.70782],[-76.28359,-3.71827],[-76.27279,-3.7305],[-76.28039,-3.74802],[-76.27298,-3.76139],[-76.2593,-3.74504],[-76.24837,-3.74592],[-76.24793,-3.78691],[-76.24208,-3.79805],[-76.21567,-3.82264],[-76.20857,-3.85259],[-76.21054,-3.88446],[-76.20213,-3.89991],[-76.20481,-3.9218],[-76.17799,-3.93658],[-76.16007,-3.9509],[-76.14673,-3.95695],[-76.1381,-3.9777],[-76.13956,-3.99996],[-76.12002,-4.0356],[-76.09515,-4.04051],[-76.07848,-4.04939],[-76.07946,-4.07485],[-76.06497,-4.0908],[-76.06185,-4.12712],[-76.07019,-4.1623],[-76.06695,-4.18525],[-76.02185,-4.2204],[-76.01197,-4.24712],[-76.00787,-4.26768],[-76.01188,-4.27776],[-76.02491,-4.28865],[-76.03037,-4.30473],[-76.02381,-4.32518],[-76.01581,-4.33074],[-75.9931,-4.35834],[-75.97252,-4.37359],[-75.95235,-4.37505],[-75.94007,-4.38713],[-75.91347,-4.40183],[-75.88936,-4.41233],[-75.86785,-4.42995],[-75.86299,-4.45123],[-75.86924,-4.47672],[-75.87824,-4.48822],[-75.87562,-4.52108],[-75.8772,-4.54413],[-75.89078,-4.57822],[-75.88558,-4.5888],[-75.85806,-4.5934],[-75.85189,-4.59996],[-75.84572,-4.6233],[-75.85237,-4.65481],[-75.84305,-4.68709],[-75.8319,-4.69524],[-75.80853,-4.70149],[-75.78707,-4.71434],[-75.75064,-4.73085],[-75.74028,-4.73785],[-75.7292,-4.75816],[-75.7216,-4.78966],[-75.72689,-4.80982],[-75.72344,-4.81581],[-75.70364,-4.82265],[-75.66429,-4.84124],[-75.66824,-4.85655],[-75.68605,-4.88195],[-75.68761,-4.89559],[-75.67547,-4.92301],[-75.66137,-4.93046],[-75.62665,-4.93037],[-75.60636,-4.92249],[-75.59384,-4.93423],[-75.58108,-4.93903],[-75.54946,-4.9387],[-75.52011,-4.94087],[-75.47218,-4.95926],[-75.43941,-4.97661],[-75.4239,-4.98809],[-75.40714,-5.00802],[-75.39868,-5.02259],[-75.38564,-5.05492],[-75.43434,-5.04734],[-75.46184,-5.05335],[-75.48352,-5.06942],[-75.50398,-5.09937],[-75.50819,-5.10971],[-75.52749,-5.12644],[-75.57752,-5.16343],[-75.60973,-5.19011],[-75.61787,-5.20925],[-75.59289,-5.23623],[-75.58879,-5.24897],[-75.59541,-5.27453],[-75.62492,-5.27354],[-75.63257,-5.27624],[-75.63182,-5.29842],[-75.62305,-5.31978],[-75.65031,-5.35671],[-75.65377,-5.37212],[-75.65354,-5.39851],[-75.62365,-5.44123],[-75.61813,-5.45436],[-75.62044,-5.46772],[-75.63954,-5.4963],[-75.63814,-5.5058],[-75.61925,-5.5232],[-75.6067,-5.52897],[-75.60038,-5.53926],[-75.61193,-5.55677],[-75.60703,-5.5634],[-75.57876,-5.56969],[-75.55232,-5.58056],[-75.5234,-5.58672],[-75.49732,-5.58818],[-75.47621,-5.58316],[-75.45493,-5.57378],[-75.46804,-5.61195],[-75.47632,-5.66335],[-75.4928,-5.70247],[-75.49748,-5.72803],[-75.50162,-5.74243],[-75.51167,-5.7593],[-75.52007,-5.76597],[-75.53936,-5.79466],[-75.5368,-5.81455],[-75.51283,-5.86867],[-75.52973,-5.89361],[-75.54671,-5.93608],[-75.56701,-5.95837],[-75.56893,-6.00039]]]}},{"type":"Feature","properties":{"ubigeo":"1603","nombre":"Loreto"},"geometry":{"type":"Polygon","coordinates":[[[-75.49748,-5.72803],[-75.4928,-5.70247],[-75.47632,-5.66335],[-75.46804,-5.61195],[-75.45493,-5.57378],[-75.47621,-5.58316],[-75.49732,-5.58818],[-75.5234,-5.58672],[-75.55232,-5.58056],[-75.57876,-5.56969],[-75.60703,-5.5634],[-75.61193,-5.55677],[-75.60038,-5.53926],[-75.6067,-5.52897],[-75.61925,-5.5232],[-75.63814,-5.5058],[-75.63954,-5.4963],[-75.62044,-5.46772],[-75.61813,-5.45436],[-75.62365,-5.44123],[-75.65354,-5.39851],[-75.65377,-5.37212],[-75.65031,-5.35671],[-75.62305,-5.31978],[-75.63182,-5.29842],[-75.63257,-5.27624],[-75.62492,-5.27354],[-75.59541,-5.27453],[-75.58879,-5.24897],[-75.59289,-5.23623],[-75.61787,-5.20925],[-75.60973,-5.19011],[-75.57752,-5.16343],[-75.52749,-5.12644],[-75.50819,-5.10971],[-75.50398,-5.09937],[-75.48352,-5.06942],[-75.46184,-5.05335],[-75.43434,-5.04734],[-75.38564,-5.05492],[-75.39868,-5.02259],[-75.40714,-5.00802],[-75.4239,-4.98809],[-75.43941,-4.97661],[-75.47218,-4.95926],[-75.52011,-4.94087],[-75.54946,-4.9387],[-75.58108,-4.93903],[-75.59384,-4.93423],[-75.60636,-4.92249],[-75.62665,-4.93037],[-75.66137,-4.93046],[-75.67547,-4.92301],[-75.68761,-4.89559],[-75.68605,-4.88195],[-75.66824,-4.85655],[-75.66429,-4.84124],[-75.70364,-4.82265],[-75.72344,-4.81581],[-75.72689,-4.80982],[-75.7216,-4.78966],[-75.7292,-4.75816],[-75.74028,-4.73785],[-75.75064,-4.73085],[-75.78707,-4.71434],[-75.80853,-4.70149],[-75.8319,-4.69524],[-75.84305,-4.68709],[-75.85237,-4.65481],[-75.84572,-4.6233],[-75.85189,-4.59996],[-75.85806,-4.5934],[-75.88558,-4.5888],[-75.89078,-4.57822],[-75.8772,-4.54413],[-75.87562,-4.52108],[-75.87824,-4.48822],[-75.86924,-4.47672],[-75.86299,-4.45123],[-75.86785,-4.42995],[-75.88936,-4.41233],[-75.91347,-4.40183],[-75.94007,-4.38713],[-75.95235,-4.37505],[-75.97252,-4.37359],[-75.9931,-4.35834],[-76.01581,-4.33074],[-76.02381,-4.32518],[-76.03037,-4.30473],[-76.02491,-4.28865],[-76.01188,-4.27776],[-76.00787,-4.26768],[-76.01197,-4.24712],[-76.02185,-4.2204],[-76.06695,-4.18525],[-76.07019,-4.1623],[-76.06185,-4.12712],[-76.06497,-4.0908],[-76.07946,-4.07485],[-76.07848,-4.04939],[-76.09515,-4.04051],[-76.12002,-4.0356],[-76.13956,-3.99996],[-76.1381,-3.9777],[-76.14673,-3.95695],[-76.16007,-3.9509],[-76.17799,-3.93658],[-76.20481,-3.9218],[-76.20213,-3.89991],[-76.21054,-3.88446],[-76.20857,-3.85259],[-76.21567,-3.82264],[-76.24208,-3.79805],[-76.24793,-3.78691],[-76.24837,-3.74592],[-76.2593,-3.74504],[-76.27298,-3.76139],[-76.28039,-3.74802],[-76.27279,-3.7305],[-76.28359,-3.71827],[-76.28294,-3.70782],[-76.29074,-3.69548],[-76.30752,-3.69827],[-76.31979,-3.69152],[-76.32514,-3.68153],[-76.31216,-3.67656],[-76.27973,-3.65554],[-76.25427,-3.64218],[-76.23408,-3.63482],[-76.23753,-3.60244],[-76.24736,-3.59786],[-76.25778,-3.56921],[-76.23545,-3.56314],[-76.22204,-3.55372],[-76.20618,-3.52806],[-76.22454,-3.51619],[-76.24683,-3.48668],[-76.24893,-3.47668],[-76.26146,-3.47522],[-76.25656,-3.44652],[-76.261,-3.43035],[-76.26372,-3.40304],[-76.2736,-3.40078],[-76.26752,-3.38239],[-76.27003,-3.36113],[-76.28299,-3.33245],[-76.29769,-3.32416],[-76.30079,-3.31304],[-76.31066,-3.30543],[-76.31474,-3.28499],[-76.3255,-3.27694],[-76.32743,-3.25614],[-76.33644,-3.25325],[-76.33493,-3.2343],[-76.32803,-3.22192],[-76.33732,-3.21888],[-76.35427,-3.23636],[-76.36729,-3.21783],[-76.35659,-3.2136],[-76.35274,-3.20137],[-76.36405,-3.19324],[-76.36388,-3.18098],[-76.34969,-3.17029],[-76.35205,-3.16239],[-76.37895,-3.14221],[-76.38927,-3.12768],[-76.37193,-3.11453],[-76.35347,-3.09042],[-76.34877,-3.05966],[-76.3528,-3.02899],[-76.33793,-2.98861],[-76.34841,-2.97753],[-76.35231,-2.9625],[-76.35123,-2.94643],[-76.34307,-2.9297],[-76.34031,-2.91355],[-76.3333,-2.90379],[-76.31687,-2.89756],[-76.31475,-2.86693],[-76.30796,-2.85191],[-76.30734,-2.83485],[-76.31784,-2.80772],[-76.34421,-2.80007],[-76.36134,-2.7459],[-76.39481,-2.72671],[-76.38434,-2.71677],[-76.38637,-2.69753],[-76.40797,-2.68779],[-76.42487,-2.66038],[-76.43654,-2.65253],[-76.43531,-2.64567],[-76.45727,-2.62941],[-76.47064,-2.60431],[-76.48465,-2.5939],[-76.49925,-2.59262],[-76.5068,-2.58166],[-76.5022,-2.56861],[-76.50242,-2.53648],[-76.51304,-2.52216],[-76.53432,-2.51228],[-76.29607,-2.32504],[-76.25135,-2.28849],[-76.21223,-2.2593],[-76.09738,-2.16971],[-76.04499,-2.12804],[-76.0373,-2.11983],[-75.95721,-2.01964],[-75.93304,-1.988],[-75.77836,-1.79395],[-75.77695,-1.80627],[-75.78115,-1.82774],[-75.77708,-1.85647],[-75.75156,-1.91065],[-75.74592,-1.93092],[-75.72921,-1.9301],[-75.7002,-1.93382],[-75.66299,-1.94611],[-75.64626,-1.94806],[-75.62203,-1.96512],[-75.60557,-1.9697],[-75.57484,-1.96346],[-75.5623,-1.97014],[-75.53629,-1.99646],[-75.51921,-2.00165],[-75.47254,-2.00386],[-75.45911,-2.01176],[-75.4449,-2.03414],[-75.43798,-2.03659],[-75.41116,-2.02913],[-75.3961,-2.01834],[-75.38274,-2.01364],[-75.35867,-2.01216],[-75.33755,-2.0032],[-75.30198,-2.0031],[-75.28815,-2.00871],[-75.27352,-2.03209],[-75.26791,-2.06019],[-75.25314,-2.07934],[-75.25475,-2.09186],[-75.24325,-2.1031],[-75.24893,-2.11759],[-75.24619,-2.13383],[-75.23773,-2.13795],[-75.22601,-2.15677],[-75.19191,-2.16637],[-75.16608,-2.19175],[-75.17418,-2.20632],[-75.17221,-2.21916],[-75.15534,-2.23523],[-75.14088,-2.27893],[-75.13164,-2.2906],[-75.10902,-2.30013],[-75.10394,-2.28968],[-75.08323,-2.29347],[-75.05722,-2.31415],[-75.04026,-2.33422],[-75.01715,-2.35179],[-74.97812,-2.3684],[-74.96515,-2.36565],[-74.95852,-2.37173],[-74.96217,-2.38352],[-74.95371,-2.41495],[-74.95468,-2.43127],[-74.94959,-2.45879],[-74.95428,-2.48511],[-74.95478,-2.50342],[-74.9812,-2.5068],[-74.99119,-2.51601],[-74.98219,-2.55081],[-74.97114,-2.56634],[-74.96357,-2.56827],[-74.96304,-2.59439],[-74.95746,-2.61146],[-74.97116,-2.64558],[-74.97375,-2.6607],[-74.98414,-2.66907],[-75.0003,-2.6736],[-75.00993,-2.68467],[-75.01244,-2.72038],[-75.01027,-2.76636],[-75.02412,-2.80012],[-75.02615,-2.83068],[-75.03764,-2.87293],[-75.03935,-2.88939],[-75.04737,-2.91023],[-75.04551,-2.91854],[-75.05464,-2.94019],[-75.05822,-2.95909],[-75.05713,-2.97899],[-75.04272,-2.98822],[-75.03599,-3.00017],[-75.03471,-3.02796],[-75.02645,-3.06072],[-75.01429,-3.07488],[-75.02019,-3.09966],[-75.01199,-3.10659],[-75.01781,-3.12898],[-75.01016,-3.15137],[-75.00176,-3.16041],[-75.00062,-3.17171],[-74.99161,-3.19001],[-74.97759,-3.19046],[-74.94038,-3.20005],[-74.93437,-3.19666],[-74.91033,-3.20039],[-74.90919,-3.20607],[-74.8929,-3.20985],[-74.8736,-3.20106],[-74.85998,-3.21091],[-74.85273,-3.22437],[-74.84266,-3.21776],[-74.83634,-3.22621],[-74.81577,-3.23776],[-74.81337,-3.24321],[-74.82747,-3.2575],[-74.83142,-3.27715],[-74.81927,-3.28712],[-74.81878,-3.29685],[-74.80254,-3.30765],[-74.7927,-3.30723],[-74.78045,-3.31831],[-74.78072,-3.3261],[-74.76932,-3.32632],[-74.75394,-3.33453],[-74.75009,-3.35566],[-74.73415,-3.36574],[-74.73425,-3.37497],[-74.72444,-3.39519],[-74.72333,-3.41433],[-74.71257,-3.43607],[-74.72046,-3.45214],[-74.71695,-3.4595],[-74.69194,-3.45103],[-74.67947,-3.46579],[-74.68343,-3.47079],[-74.6862,-3.49404],[-74.67923,-3.50937],[-74.66404,-3.52678],[-74.63753,-3.5507],[-74.62009,-3.57067],[-74.55454,-3.63331],[-74.50143,-3.69886],[-74.49239,-3.70121],[-74.47206,-3.6843],[-74.45864,-3.70549],[-74.42923,-3.70874],[-74.41209,-3.71828],[-74.38001,-3.71319],[-74.36744,-3.71868],[-74.35054,-3.75474],[-74.3442,-3.76313],[-74.32422,-3.76816],[-74.30806,-3.7826],[-74.30282,-3.7989],[-74.28113,-3.8298],[-74.25843,-3.84783],[-74.23886,-3.84437],[-74.21254,-3.85834],[-74.20135,-3.87625],[-74.18601,-3.89369],[-74.18906,-3.89928],[-74.17456,-3.91821],[-74.15765,-3.9611],[-74.15007,-3.96927],[-74.14791,-3.98932],[-74.135,-4.00178],[-74.13737,-4.02213],[-74.13544,-4.06188],[-74.10171,-4.17703],[-74.08561,-4.21172],[-74.0587,-4.24761],[-73.97994,-4.29975],[-73.94526,-4.3245],[-73.937,-4.3719],[-73.91486,-4.38435],[-73.88352,-4.38843],[-73.86923,-4.40116],[-73.84707,-4.42857],[-73.83358,-4.43862],[-73.7959,-4.4475],[-73.74709,-4.44906],[-73.70925,-4.44558],[-73.69192,-4.43978],[-73.64424,-4.41055],[-73.59268,-4.38182],[-73.56328,-4.36021],[-73.54922,-4.34133],[-73.5283,-4.33156],[-73.48814,-4.32365],[-73.47221,-4.30679],[-73.46821,-4.2849],[-73.43747,-4.26892],[-73.40877,-4.24847],[-73.40029,-4.23855],[-73.37886,-4.25234],[-73.38062,-4.26],[-73.40984,-4.2777],[-73.4428,-4.30635],[-73.44916,-4.3247],[-73.42681,-4.35621],[-73.42023,-4.37987],[-73.42375,-4.41051],[-73.42056,-4.42419],[-73.42564,-4.43686],[-73.43522,-4.44636],[-73.45845,-4.46451],[-73.45992,-4.49339],[-73.46483,-4.51521],[-73.48849,-4.52989],[-73.51083,-4.55191],[-73.52941,-4.5843],[-73.55593,-4.60312],[-73.58198,-4.61868],[-73.60701,-4.65171],[-73.61926,-4.67829],[-73.64423,-4.71424],[-73.66582,-4.73034],[-73.67827,-4.73423],[-73.71155,-4.73542],[-73.73132,-4.75222],[-73.74265,-4.77312],[-73.76936,-4.80165],[-73.79238,-4.8154],[-73.8101,-4.84297],[-73.82972,-4.84941],[-73.84113,-4.85986],[-73.84384,-4.87141],[-73.8585,-4.88041],[-73.87435,-4.88281],[-73.90182,-4.92874],[-73.90056,-4.94628],[-73.893,-4.95558],[-73.90047,-4.97127],[-73.92189,-4.99316],[-73.92456,-5.00526],[-73.93325,-5.01075],[-73.94892,-4.99646],[-73.95442,-4.98116],[-73.97663,-4.97308],[-74.00016,-4.95768],[-74.03714,-4.94663],[-74.06709,-4.95664],[-74.08939,-4.96916],[-74.11024,-4.98955],[-74.13117,-5.01503],[-74.14365,-5.0226],[-74.17045,-5.0327],[-74.17742,-5.05097],[-74.17578,-5.0798],[-74.18402,-5.09272],[-74.20178,-5.10503],[-74.23189,-5.11708],[-74.24551,-5.13619],[-74.2598,-5.13862],[-74.28094,-5.13323],[-74.29967,-5.13775],[-74.32022,-5.15114],[-74.35063,-5.15348],[-74.36523,-5.16258],[-74.39187,-5.1885],[-74.41834,-5.20693],[-74.45722,-5.21595],[-74.53419,-5.24914],[-74.57292,-5.26432],[-74.59215,-5.27798],[-74.61517,-5.30433],[-74.62779,-5.34013],[-74.63801,-5.35401],[-74.82899,-5.45371],[-74.85387,-5.46302],[-74.88745,-5.46647],[-74.90209,-5.4703],[-74.92871,-5.48625],[-74.9601,-5.51986],[-74.99029,-5.51391],[-75.01947,-5.49693],[-75.05416,-5.4954],[-75.06599,-5.4994],[-75.11101,-5.54088],[-75.13507,-5.57438],[-75.15609,-5.59479],[-75.18158,-5.62323],[-75.19949,-5.61553],[-75.2081,-5.6171],[-75.22122,-5.63191],[-75.25991,-5.6523],[-75.28653,-5.67462],[-75.30493,-5.68621],[-75.32608,-5.69389],[-75.34613,-5.69525],[-75.37758,-5.68824],[-75.38903,-5.69125],[-75.40289,-5.71245],[-75.41393,-5.72015],[-75.43713,-5.72542],[-75.49748,-5.72803]]]}},{"type":"Feature","properties":{"ubigeo":"1604","nombre":"Mariscal Ramón Castilla"},"geometry":{"type":"Polygon","coordinates":[[[-72.85497,-5.1387],[-72.88543,-5.12191],[-72.91279,-5.1199],[-72.93636,-5.10428],[-72.95232,-5.0881],[-72.9574,-5.07799],[-72.97774,-5.06325],[-72.98486,-5.05257],[-72.99319,-5.05857],[-73.01488,-5.05419],[-73.05387,-5.03725],[-73.07113,-5.02096],[-73.0981,-5.0008],[-73.11432,-4.99779],[-73.16992,-4.998],[-73.18447,-4.99392],[-73.23624,-4.97057],[-73.22452,-4.95458],[-73.16432,-4.88005],[-73.14528,-4.84991],[-73.12754,-4.81699],[-73.10215,-4.78977],[-73.1112,-4.75532],[-73.12572,-4.71976],[-73.12944,-4.69554],[-73.06326,-4.66973],[-73.03524,-4.63254],[-73.035,-4.55406],[-73.02583,-4.52958],[-73.00677,-4.50785],[-72.9776,-4.49326],[-72.95598,-4.47552],[-72.93468,-4.4671],[-72.90573,-4.46811],[-72.88202,-4.487],[-72.85996,-4.48605],[-72.84026,-4.49453],[-72.81144,-4.49854],[-72.79577,-4.49619],[-72.78338,-4.48846],[-72.76574,-4.44609],[-72.75885,-4.42039],[-72.75656,-4.38272],[-72.67219,-4.39859],[-72.6351,-4.39913],[-72.60324,-4.3588],[-72.60294,-4.35523],[-72.62856,-4.30365],[-72.60503,-4.30175],[-72.58078,-4.30353],[-72.57182,-4.29796],[-72.54995,-4.29361],[-72.53579,-4.29511],[-72.50319,-4.3185],[-72.49799,-4.31939],[-72.48177,-4.2933],[-72.38776,-4.20853],[-72.38868,-4.20332],[-72.42903,-4.17981],[-72.43674,-4.16153],[-72.42715,-4.13275],[-72.4244,-4.11608],[-72.40858,-4.09861],[-72.39559,-4.05724],[-72.37072,-4.03146],[-72.35519,-4.02214],[-72.34816,-4.006],[-72.33798,-4.00598],[-72.3237,-3.99478],[-72.30601,-3.99426],[-72.26861,-3.96155],[-72.25537,-3.94479],[-72.25495,-3.91969],[-72.26157,-3.91332],[-72.27284,-3.86979],[-72.27855,-3.85734],[-72.28289,-3.83484],[-72.28306,-3.7996],[-72.27889,-3.77887],[-72.27994,-3.73945],[-72.2898,-3.73042],[-72.30265,-3.68612],[-72.28083,-3.67881],[-72.2546,-3.6536],[-72.22799,-3.63221],[-72.20081,-3.61593],[-72.17427,-3.60428],[-72.15628,-3.5796],[-72.15633,-3.54774],[-72.14802,-3.52852],[-72.11902,-3.5028],[-72.11844,-3.49767],[-72.1839,-3.45609],[-72.19801,-3.44105],[-72.19845,-3.40426],[-72.22478,-3.37305],[-72.23579,-3.36944],[-72.24321,-3.35567],[-72.27396,-3.33278],[-72.2772,-3.31921],[-72.29344,-3.29294],[-72.30736,-3.29161],[-72.33777,-3.28245],[-72.34914,-3.27477],[-72.36383,-3.24703],[-72.40383,-3.23514],[-72.41395,-3.21765],[-72.40899,-3.20306],[-72.41872,-3.17682],[-72.4304,-3.17426],[-72.43827,-3.15616],[-72.45593,-3.13164],[-72.46609,-3.13216],[-72.47461,-3.1231],[-72.47906,-3.09866],[-72.49884,-3.08492],[-72.54636,-3.0714],[-72.55645,-3.05983],[-72.55808,-3.0468],[-72.55416,-3.00841],[-72.55646,-2.99699],[-72.56957,-2.96403],[-72.57339,-2.94785],[-72.57384,-2.92211],[-72.57077,-2.8909],[-72.54422,-2.88752],[-72.51033,-2.87615],[-72.44632,-2.84477],[-72.42124,-2.84296],[-72.39979,-2.85257],[-72.37704,-2.85201],[-72.36385,-2.83982],[-72.34286,-2.84138],[-72.31855,-2.83439],[-72.29268,-2.83186],[-72.25897,-2.83946],[-72.24266,-2.83835],[-72.22707,-2.83078],[-72.19671,-2.80527],[-72.18511,-2.80049],[-72.16346,-2.80174],[-72.14681,-2.81012],[-72.11813,-2.83431],[-72.10428,-2.83861],[-72.07865,-2.83972],[-72.06318,-2.83379],[-72.03481,-2.81634],[-72.02606,-2.81932],[-72.01121,-2.84724],[-71.9977,-2.86563],[-71.98064,-2.87749],[-71.93311,-2.89364],[-71.88712,-2.89705],[-71.85556,-2.9104],[-71.83918,-2.9122],[-71.81457,-2.90812],[-71.80251,-2.91364],[-71.78861,-2.92669],[-71.78536,-2.94112],[-71.78985,-2.95793],[-71.78543,-2.98749],[-71.77129,-3.01554],[-71.75762,-3.02894],[-71.73961,-3.0395],[-71.69686,-3.04607],[-71.6625,-3.04133],[-71.63246,-3.06268],[-71.59323,-3.07086],[-71.56515,-3.08856],[-71.54058,-3.09635],[-71.52082,-3.09928],[-71.50019,-3.11217],[-71.47702,-3.151],[-71.44443,-3.16583],[-71.44667,-3.18279],[-71.44389,-3.19621],[-71.43307,-3.20143],[-71.38959,-3.19582],[-71.37683,-3.19178],[-71.366,-3.17621],[-71.35404,-3.17203],[-71.31634,-3.17934],[-71.30375,-3.18711],[-71.29714,-3.20016],[-71.27364,-3.19945],[-71.24848,-3.21311],[-71.2424,-3.22409],[-71.22226,-3.21704],[-71.19206,-3.21863],[-71.15424,-3.21081],[-71.08921,-3.2143],[-71.06812,-3.2125],[-71.05962,-3.22359],[-71.05589,-3.246],[-71.03505,-3.25576],[-71.01335,-3.25818],[-70.97588,-3.28079],[-70.969,-3.29884],[-70.92185,-3.33281],[-70.90572,-3.34193],[-70.87053,-3.35541],[-70.81539,-3.37189],[-70.79835,-3.3753],[-70.77566,-3.37473],[-70.72768,-3.36927],[-70.71462,-3.36395],[-70.68907,-3.36685],[-70.67135,-3.37848],[-70.65445,-3.40669],[-70.62872,-3.41783],[-70.61328,-3.42019],[-70.58317,-3.4166],[-70.55349,-3.40093],[-70.52956,-3.39567],[-70.51447,-3.39997],[-70.49277,-3.41879],[-70.47792,-3.42422],[-70.66483,-3.71923],[-70.71115,-3.7903],[-70.69004,-3.792],[-70.67101,-3.80545],[-70.65073,-3.82983],[-70.62565,-3.83282],[-70.61902,-3.84006],[-70.5879,-3.82738],[-70.57368,-3.83029],[-70.54092,-3.86304],[-70.52074,-3.87297],[-70.49641,-3.87581],[-70.46409,-3.86404],[-70.44147,-3.85108],[-70.41616,-3.82318],[-70.39423,-3.82999],[-70.38416,-3.82587],[-70.36608,-3.8065],[-70.3463,-3.79976],[-70.30496,-3.81337],[-70.29228,-3.82119],[-70.27631,-3.83763],[-70.26276,-3.87324],[-70.24609,-3.89037],[-70.22268,-3.90257],[-70.198,-3.90961],[-70.18111,-3.92937],[-70.17454,-3.96956],[-70.14957,-4.00675],[-70.12667,-4.03081],[-70.1144,-4.04955],[-70.10503,-4.05747],[-70.07626,-4.06951],[-70.05997,-4.08624],[-70.05183,-4.10793],[-70.03408,-4.13441],[-69.98371,-4.18278],[-69.95569,-4.20764],[-69.94904,-4.23333],[-69.95126,-4.25177],[-69.94959,-4.27938],[-69.95623,-4.29772],[-69.97442,-4.33278],[-69.99196,-4.34817],[-70.01208,-4.34911],[-70.0186,-4.35325],[-70.02931,-4.37238],[-70.04,-4.37535],[-70.05102,-4.36492],[-70.04026,-4.34697],[-70.04296,-4.33219],[-70.05196,-4.32486],[-70.07086,-4.32232],[-70.07874,-4.30998],[-70.07164,-4.30373],[-70.05187,-4.30624],[-70.04072,-4.29978],[-70.04509,-4.29155],[-70.05642,-4.295],[-70.07937,-4.28541],[-70.09907,-4.28533],[-70.1013,-4.26394],[-70.10936,-4.25615],[-70.11504,-4.25981],[-70.11308,-4.2751],[-70.12673,-4.28569],[-70.14229,-4.27379],[-70.15814,-4.27721],[-70.17051,-4.30267],[-70.16848,-4.31055],[-70.15383,-4.319],[-70.15594,-4.33271],[-70.17263,-4.33364],[-70.18084,-4.3554],[-70.18951,-4.36084],[-70.20082,-4.35457],[-70.20478,-4.32307],[-70.21662,-4.29818],[-70.21956,-4.31439],[-70.22831,-4.31704],[-70.25996,-4.3086],[-70.26807,-4.29708],[-70.24582,-4.28462],[-70.24654,-4.27483],[-70.25813,-4.2717],[-70.28015,-4.28566],[-70.28979,-4.28801],[-70.28515,-4.27117],[-70.3049,-4.26112],[-70.30915,-4.24922],[-70.3007,-4.24125],[-70.28235,-4.23593],[-70.27853,-4.22893],[-70.28672,-4.20267],[-70.28565,-4.1704],[-70.29395,-4.15931],[-70.30329,-4.15883],[-70.32387,-4.14241],[-70.32961,-4.1494],[-70.32765,-4.16835],[-70.33181,-4.17653],[-70.34313,-4.17801],[-70.35816,-4.16279],[-70.36489,-4.14551],[-70.37979,-4.13391],[-70.39873,-4.13744],[-70.43282,-4.13129],[-70.44246,-4.14167],[-70.43327,-4.15312],[-70.43365,-4.1613],[-70.4562,-4.16157],[-70.45986,-4.17385],[-70.46631,-4.17576],[-70.47984,-4.15989],[-70.48892,-4.16633],[-70.49269,-4.19158],[-70.49997,-4.19883],[-70.51074,-4.19727],[-70.512,-4.18433],[-70.50317,-4.16194],[-70.51146,-4.14687],[-70.52604,-4.13608],[-70.53201,-4.14455],[-70.55275,-4.13697],[-70.54101,-4.1548],[-70.55402,-4.16154],[-70.55868,-4.1708],[-70.5526,-4.18872],[-70.55542,-4.2016],[-70.56729,-4.211],[-70.5755,-4.20806],[-70.56358,-4.18669],[-70.56289,-4.1762],[-70.57309,-4.17349],[-70.58618,-4.18524],[-70.61624,-4.19348],[-70.62725,-4.18828],[-70.63507,-4.1754],[-70.63335,-4.16722],[-70.61726,-4.13391],[-70.62249,-4.12644],[-70.64462,-4.12695],[-70.65024,-4.13679],[-70.65268,-4.16398],[-70.65786,-4.14842],[-70.6685,-4.1429],[-70.66601,-4.16496],[-70.67202,-4.1944],[-70.67826,-4.20446],[-70.68564,-4.2033],[-70.69432,-4.18667],[-70.71467,-4.18804],[-70.72855,-4.183],[-70.74703,-4.16121],[-70.75775,-4.15852],[-70.76881,-4.16342],[-70.7823,-4.18129],[-70.79258,-4.18593],[-70.79973,-4.18144],[-70.80565,-4.19446],[-70.81661,-4.19711],[-70.83007,-4.21412],[-70.84324,-4.21714],[-70.84738,-4.22682],[-70.83977,-4.23025],[-70.82779,-4.21955],[-70.81594,-4.22745],[-70.82858,-4.24815],[-70.83977,-4.25455],[-70.85098,-4.24696],[-70.86484,-4.25228],[-70.86202,-4.26145],[-70.84688,-4.27221],[-70.84853,-4.28129],[-70.87831,-4.29339],[-70.87638,-4.32165],[-70.90198,-4.3278],[-70.91184,-4.35594],[-70.91761,-4.36022],[-70.93352,-4.35606],[-70.93804,-4.3831],[-70.94829,-4.37602],[-70.96258,-4.37929],[-70.97129,-4.37554],[-70.97314,-4.36183],[-70.98622,-4.34726],[-70.99744,-4.34578],[-70.98926,-4.35939],[-70.98795,-4.37655],[-70.99651,-4.3858],[-71.01734,-4.37999],[-71.03473,-4.39853],[-71.04211,-4.39826],[-71.04589,-4.38696],[-71.04268,-4.37721],[-71.05413,-4.36941],[-71.06043,-4.38863],[-71.07423,-4.3941],[-71.08219,-4.38865],[-71.07661,-4.38137],[-71.08269,-4.37173],[-71.10579,-4.37631],[-71.10624,-4.39937],[-71.111,-4.40743],[-71.12071,-4.40474],[-71.12936,-4.389],[-71.14109,-4.38132],[-71.15145,-4.38592],[-71.15097,-4.40332],[-71.16098,-4.39079],[-71.18189,-4.3939],[-71.18669,-4.41798],[-71.1988,-4.42021],[-71.20547,-4.39663],[-71.1985,-4.38797],[-71.20285,-4.37767],[-71.21299,-4.37664],[-71.21832,-4.3878],[-71.21982,-4.40529],[-71.22641,-4.40565],[-71.22579,-4.38747],[-71.23026,-4.38307],[-71.24763,-4.39035],[-71.26406,-4.38345],[-71.27854,-4.39011],[-71.27654,-4.39908],[-71.26688,-4.39249],[-71.26039,-4.39868],[-71.26752,-4.40717],[-71.26188,-4.42783],[-71.2793,-4.44098],[-71.28849,-4.44015],[-71.30888,-4.41481],[-71.31763,-4.41595],[-71.31923,-4.42622],[-71.30086,-4.44444],[-71.30697,-4.46166],[-71.31763,-4.44041],[-71.34095,-4.43937],[-71.34264,-4.42728],[-71.3657,-4.43225],[-71.37855,-4.42419],[-71.38773,-4.4256],[-71.4092,-4.44873],[-71.41881,-4.46471],[-71.43252,-4.47572],[-71.42619,-4.46477],[-71.43278,-4.45855],[-71.42729,-4.44333],[-71.41225,-4.43539],[-71.42533,-4.43563],[-71.43187,-4.4279],[-71.43869,-4.43135],[-71.43636,-4.44895],[-71.44722,-4.44819],[-71.45294,-4.43167],[-71.45904,-4.43851],[-71.47918,-4.43492],[-71.47661,-4.44817],[-71.48528,-4.45623],[-71.50183,-4.43928],[-71.50968,-4.44033],[-71.50674,-4.45661],[-71.49219,-4.47705],[-71.496,-4.48598],[-71.51733,-4.46988],[-71.51853,-4.4611],[-71.53592,-4.46258],[-71.53792,-4.48245],[-71.55387,-4.47619],[-71.55182,-4.48707],[-71.56064,-4.49174],[-71.56956,-4.50823],[-71.59272,-4.52575],[-71.61591,-4.52814],[-71.63193,-4.51574],[-71.63388,-4.509],[-71.62119,-4.50218],[-71.61063,-4.4748],[-71.61872,-4.46734],[-71.62659,-4.47447],[-71.6258,-4.4897],[-71.65006,-4.5024],[-71.64658,-4.48169],[-71.65429,-4.47114],[-71.66026,-4.4766],[-71.65432,-4.49381],[-71.65793,-4.50094],[-71.67291,-4.50556],[-71.68687,-4.49684],[-71.7068,-4.50989],[-71.7239,-4.49725],[-71.73536,-4.49663],[-71.74809,-4.46797],[-71.75294,-4.49649],[-71.76765,-4.5037],[-71.77587,-4.48505],[-71.78852,-4.48418],[-71.78337,-4.4966],[-71.79162,-4.49588],[-71.7938,-4.48365],[-71.81046,-4.49453],[-71.80654,-4.50439],[-71.82628,-4.49613],[-71.83016,-4.51443],[-71.83568,-4.50724],[-71.85656,-4.51137],[-71.865,-4.52645],[-71.87236,-4.51872],[-71.90549,-4.51475],[-71.90781,-4.51978],[-71.89359,-4.52251],[-71.88421,-4.53589],[-71.89536,-4.53015],[-71.91851,-4.5293],[-71.91885,-4.54047],[-71.92672,-4.548],[-71.9186,-4.56191],[-71.93516,-4.57867],[-71.94559,-4.57751],[-71.94983,-4.58519],[-71.9428,-4.59544],[-71.94987,-4.59806],[-71.94733,-4.60843],[-71.96127,-4.60591],[-71.96467,-4.61094],[-71.97968,-4.60977],[-71.9822,-4.60392],[-71.99447,-4.60989],[-71.98567,-4.61316],[-71.98221,-4.62743],[-72.00219,-4.62905],[-72.00438,-4.64415],[-72.01555,-4.63108],[-72.04301,-4.6234],[-72.0374,-4.63666],[-72.04839,-4.65435],[-72.0581,-4.64936],[-72.06785,-4.65865],[-72.05916,-4.67223],[-72.06499,-4.67614],[-72.0708,-4.66288],[-72.08028,-4.66867],[-72.07629,-4.67931],[-72.0901,-4.68182],[-72.08996,-4.68829],[-72.10305,-4.70657],[-72.11121,-4.70534],[-72.12467,-4.71576],[-72.12291,-4.73189],[-72.13177,-4.73468],[-72.12751,-4.72391],[-72.13935,-4.71138],[-72.14779,-4.72451],[-72.16017,-4.72765],[-72.15909,-4.73384],[-72.1719,-4.73389],[-72.19308,-4.74746],[-72.18736,-4.75049],[-72.20016,-4.75672],[-72.20824,-4.7474],[-72.22171,-4.75788],[-72.21251,-4.7594],[-72.2212,-4.77161],[-72.24238,-4.78104],[-72.25194,-4.7652],[-72.26916,-4.79715],[-72.27968,-4.79835],[-72.27635,-4.77661],[-72.28183,-4.78223],[-72.30185,-4.77601],[-72.30446,-4.78912],[-72.31301,-4.78451],[-72.31161,-4.77441],[-72.32688,-4.77999],[-72.3205,-4.7877],[-72.32272,-4.8117],[-72.32589,-4.80156],[-72.34484,-4.80671],[-72.36805,-4.80293],[-72.37172,-4.80873],[-72.35884,-4.82339],[-72.38143,-4.82434],[-72.37296,-4.8291],[-72.38217,-4.84621],[-72.38125,-4.85948],[-72.40152,-4.87635],[-72.40401,-4.88826],[-72.41159,-4.87722],[-72.42028,-4.8749],[-72.41493,-4.90032],[-72.42833,-4.90153],[-72.43773,-4.90945],[-72.44124,-4.89963],[-72.45514,-4.90023],[-72.45451,-4.89149],[-72.46952,-4.89088],[-72.46948,-4.9032],[-72.45308,-4.91202],[-72.45929,-4.92434],[-72.46993,-4.92205],[-72.47643,-4.92787],[-72.47387,-4.94044],[-72.48764,-4.951],[-72.48569,-4.93519],[-72.4925,-4.9354],[-72.49599,-4.94986],[-72.50698,-4.94442],[-72.50351,-4.93871],[-72.52048,-4.93281],[-72.52555,-4.95365],[-72.53588,-4.96349],[-72.53931,-4.95295],[-72.55194,-4.95556],[-72.55277,-4.96464],[-72.56696,-4.97522],[-72.56853,-4.98403],[-72.58121,-4.98079],[-72.58268,-4.99501],[-72.59865,-4.98478],[-72.6029,-5.01238],[-72.61077,-5.01438],[-72.60652,-5.02822],[-72.61793,-5.03822],[-72.6212,-5.0518],[-72.62681,-5.03897],[-72.63146,-5.05619],[-72.64142,-5.06299],[-72.64069,-5.046],[-72.65166,-5.0511],[-72.65455,-5.06284],[-72.67184,-5.05196],[-72.68143,-5.05108],[-72.69245,-5.0609],[-72.70831,-5.04885],[-72.71519,-5.05746],[-72.72896,-5.05285],[-72.72528,-5.06],[-72.7376,-5.06123],[-72.73004,-5.07559],[-72.73763,-5.07501],[-72.74171,-5.08868],[-72.75477,-5.07665],[-72.76332,-5.08661],[-72.76107,-5.09311],[-72.77008,-5.09972],[-72.78008,-5.09201],[-72.78412,-5.1125],[-72.79052,-5.10584],[-72.80103,-5.11137],[-72.81326,-5.10304],[-72.81968,-5.10643],[-72.813,-5.13472],[-72.8239,-5.13246],[-72.8229,-5.14368],[-72.83287,-5.13849],[-72.84793,-5.14588],[-72.85497,-5.1387]]]}},{"type":"Feature","properties":{"ubigeo":"1605","nombre":"Requena"},"geometry":{"type":"Polygon","coordinates":[[[-72.85497,-5.1387],[-72.86663,-5.15176],[-72.87623,-5.15364],[-72.88789,-5.16582],[-72.87716,-5.17541],[-72.88046,-5.18515],[-72.86967,-5.17815],[-72.87585,-5.19306],[-72.86459,-5.21181],[-72.8692,-5.21857],[-72.86403,-5.23459],[-72.87253,-5.24712],[-72.8673,-5.24867],[-72.86719,-5.29006],[-72.88919,-5.31008],[-72.88507,-5.31802],[-72.90171,-5.32996],[-72.89191,-5.35158],[-72.90233,-5.35177],[-72.91063,-5.36196],[-72.90691,-5.37024],[-72.91863,-5.37478],[-72.91679,-5.38426],[-72.92465,-5.40809],[-72.9388,-5.41958],[-72.93529,-5.42412],[-72.94164,-5.44013],[-72.9523,-5.44408],[-72.94623,-5.45434],[-72.9579,-5.4644],[-72.95861,-5.48015],[-72.94955,-5.48157],[-72.96164,-5.49607],[-72.9513,-5.5374],[-72.94022,-5.54],[-72.95731,-5.55819],[-72.95043,-5.56389],[-72.96087,-5.57217],[-72.95635,-5.58408],[-72.96236,-5.58998],[-72.97373,-5.61344],[-72.96743,-5.62091],[-72.9669,-5.63514],[-72.95898,-5.65636],[-72.98492,-5.66106],[-72.98936,-5.67495],[-72.98422,-5.69351],[-72.99842,-5.70057],[-72.99528,-5.71509],[-73.00207,-5.71882],[-73.00707,-5.73256],[-73.02753,-5.73341],[-73.01959,-5.74093],[-73.04613,-5.75892],[-73.04288,-5.776],[-73.0544,-5.77519],[-73.04911,-5.78316],[-73.05251,-5.79372],[-73.07979,-5.8012],[-73.08395,-5.81247],[-73.0954,-5.82118],[-73.08872,-5.82928],[-73.10084,-5.8258],[-73.11422,-5.83318],[-73.11252,-5.85961],[-73.12348,-5.85835],[-73.12896,-5.87047],[-73.15207,-5.86796],[-73.154,-5.88753],[-73.16706,-5.89651],[-73.1663,-5.91473],[-73.18011,-5.94015],[-73.18692,-5.94514],[-73.18482,-5.95893],[-73.17734,-5.97085],[-73.19077,-5.98527],[-73.18666,-6.00412],[-73.19194,-6.00275],[-73.21531,-6.01619],[-73.21054,-6.0197],[-73.2278,-6.02987],[-73.23447,-6.06303],[-73.229,-6.07816],[-73.23904,-6.08021],[-73.23669,-6.10083],[-73.248,-6.10892],[-73.24402,-6.15437],[-73.22092,-6.17686],[-73.21596,-6.19272],[-73.22094,-6.20028],[-73.21121,-6.20171],[-73.22029,-6.21958],[-73.19317,-6.243],[-73.18634,-6.26232],[-73.17427,-6.26128],[-73.17163,-6.27017],[-73.1607,-6.27667],[-73.1569,-6.29821],[-73.15957,-6.30309],[-73.1566,-6.3268],[-73.14741,-6.32446],[-73.15072,-6.33706],[-73.14354,-6.33469],[-73.14326,-6.35161],[-73.13205,-6.36347],[-73.1337,-6.36994],[-73.12747,-6.39374],[-73.11783,-6.38942],[-73.1038,-6.41139],[-73.10902,-6.4221],[-73.12105,-6.43136],[-73.11584,-6.4353],[-73.11101,-6.45287],[-73.11797,-6.46569],[-73.12981,-6.46467],[-73.12791,-6.47693],[-73.14244,-6.49287],[-73.13195,-6.49675],[-73.14149,-6.51491],[-73.14187,-6.50532],[-73.15199,-6.52729],[-73.17104,-6.51802],[-73.17304,-6.52778],[-73.18761,-6.52281],[-73.18775,-6.52894],[-73.17565,-6.535],[-73.19506,-6.54335],[-73.19657,-6.56226],[-73.20669,-6.57711],[-73.21764,-6.56427],[-73.2299,-6.57287],[-73.22607,-6.58462],[-73.24956,-6.58137],[-73.26944,-6.58756],[-73.28064,-6.58467],[-73.2928,-6.58808],[-73.29675,-6.59705],[-73.30275,-6.59234],[-73.32935,-6.59778],[-73.33719,-6.59244],[-73.3524,-6.59332],[-73.36821,-6.61317],[-73.37269,-6.60793],[-73.38194,-6.62119],[-73.37992,-6.63576],[-73.39202,-6.64161],[-73.40897,-6.64176],[-73.42279,-6.65235],[-73.4403,-6.65191],[-73.46381,-6.66892],[-73.48138,-6.66799],[-73.48329,-6.67323],[-73.50093,-6.67227],[-73.52083,-6.6761],[-73.53976,-6.68579],[-73.53982,-6.69377],[-73.55432,-6.70434],[-73.56167,-6.72148],[-73.58665,-6.72358],[-73.60329,-6.73198],[-73.63377,-6.75239],[-73.64375,-6.76456],[-73.64382,-6.77387],[-73.66598,-6.8001],[-73.66613,-6.80496],[-73.6837,-6.81628],[-73.69604,-6.83788],[-73.71046,-6.84019],[-73.71951,-6.8775],[-73.74735,-6.90947],[-73.74749,-6.91771],[-73.76131,-6.94012],[-73.74915,-6.95409],[-73.74593,-6.96895],[-73.76124,-6.97858],[-73.75748,-6.988],[-73.76218,-7.0089],[-73.75632,-7.01633],[-73.76138,-7.023],[-73.76239,-7.0392],[-73.757,-7.04538],[-73.76192,-7.06254],[-73.78773,-7.09391],[-73.78398,-7.10365],[-73.79842,-7.11306],[-73.79411,-7.13005],[-73.78406,-7.12795],[-73.78831,-7.14573],[-73.76826,-7.15625],[-73.76998,-7.16839],[-73.75663,-7.17331],[-73.75611,-7.19542],[-73.75208,-7.20642],[-73.71662,-7.22756],[-73.72108,-7.23596],[-73.70912,-7.24631],[-73.71536,-7.27486],[-73.70556,-7.2824],[-73.69488,-7.29907],[-73.69986,-7.32113],[-73.70813,-7.32225],[-73.72256,-7.34122],[-73.7319,-7.34251],[-73.75464,-7.35379],[-73.75346,-7.33986],[-73.76163,-7.3369],[-73.78136,-7.33875],[-73.78902,-7.34774],[-73.80467,-7.34128],[-73.82253,-7.3392],[-73.83084,-7.35218],[-73.85004,-7.35516],[-73.8572,-7.36281],[-73.86158,-7.38814],[-73.87347,-7.3875],[-73.88921,-7.37929],[-73.89654,-7.38627],[-73.90634,-7.38434],[-73.9067,-7.37342],[-73.92373,-7.36221],[-73.93623,-7.37646],[-73.94587,-7.35865],[-73.95538,-7.36838],[-73.94083,-7.39395],[-73.9392,-7.40673],[-73.92322,-7.41801],[-73.92509,-7.42813],[-73.91688,-7.44445],[-73.91132,-7.47584],[-73.92222,-7.47882],[-73.91732,-7.50057],[-73.93006,-7.51164],[-73.94281,-7.5337],[-73.95421,-7.52935],[-73.98303,-7.53436],[-73.99788,-7.51972],[-74.01339,-7.5124],[-74.01837,-7.49145],[-74.0338,-7.48486],[-74.03997,-7.44815],[-74.06663,-7.43821],[-74.11539,-7.40607],[-74.13839,-7.39635],[-74.14164,-7.37777],[-74.16182,-7.37112],[-74.18086,-7.35875],[-74.21751,-7.36116],[-74.2381,-7.35784],[-74.24455,-7.34741],[-74.25902,-7.34405],[-74.27907,-7.35324],[-74.31623,-7.35127],[-74.34764,-7.3431],[-74.36157,-7.33661],[-74.37018,-7.31727],[-74.39397,-7.31782],[-74.42271,-7.31147],[-74.4308,-7.30207],[-74.44412,-7.30714],[-74.45375,-7.29825],[-74.46265,-7.29894],[-74.47305,-7.27462],[-74.49678,-7.26626],[-74.50009,-7.26205],[-74.51206,-7.2428],[-74.51452,-7.21785],[-74.53539,-7.20534],[-74.54107,-7.19741],[-74.53776,-7.18655],[-74.54084,-7.17405],[-74.55038,-7.16611],[-74.56638,-7.17295],[-74.59738,-7.17768],[-74.62299,-7.17332],[-74.64192,-7.18701],[-74.64418,-7.22698],[-74.64881,-7.24119],[-74.62396,-7.24668],[-74.6251,-7.27049],[-74.64029,-7.28557],[-74.64491,-7.30089],[-74.67854,-7.31415],[-74.70762,-7.32154],[-74.7199,-7.32177],[-74.74123,-7.30925],[-74.78362,-7.30571],[-74.79342,-7.30167],[-74.83446,-7.29328],[-74.84051,-7.27247],[-74.86204,-7.25026],[-74.87626,-7.23167],[-74.8763,-7.20552],[-74.86076,-7.18451],[-74.85236,-7.15814],[-74.85835,-7.13384],[-74.87521,-7.12505],[-74.87327,-7.11313],[-74.86105,-7.10353],[-74.84671,-7.08046],[-74.83661,-7.07167],[-74.83281,-7.04383],[-74.82194,-7.03008],[-74.81405,-7.00131],[-74.79868,-6.98326],[-74.79923,-6.97683],[-74.81854,-6.94701],[-74.85097,-6.91452],[-74.85891,-6.88992],[-74.86981,-6.87453],[-74.88181,-6.86574],[-74.88958,-6.85255],[-74.8954,-6.8332],[-74.89817,-6.79656],[-74.89565,-6.75947],[-74.90145,-6.73278],[-74.91196,-6.72729],[-74.92827,-6.70714],[-74.94509,-6.69948],[-74.95603,-6.68549],[-74.96656,-6.63193],[-74.97379,-6.58073],[-74.97551,-6.55493],[-74.9712,-6.51643],[-74.95168,-6.48245],[-74.92205,-6.44893],[-74.90585,-6.42633],[-74.89722,-6.40032],[-74.89647,-6.35388],[-74.88862,-6.31935],[-74.86506,-6.27286],[-74.86541,-6.2502],[-74.87049,-6.23026],[-74.86736,-6.2224],[-74.8447,-6.20339],[-74.80736,-6.17579],[-74.78993,-6.15528],[-74.78459,-6.11832],[-74.77571,-6.10514],[-74.73887,-6.087],[-74.72439,-6.07457],[-74.72212,-6.05304],[-74.70555,-6.03057],[-74.69619,-6.03566],[-74.69888,-6.0132],[-74.6936,-6.0038],[-74.68901,-5.96045],[-74.69655,-5.9503],[-74.7314,-5.94744],[-74.76131,-5.92606],[-74.77525,-5.92448],[-74.78351,-5.93262],[-74.78457,-5.95162],[-74.77696,-5.96974],[-74.76382,-5.98519],[-74.76083,-5.99933],[-74.76859,-6.0122],[-74.7767,-6.01506],[-74.79175,-6.01042],[-74.8011,-5.99823],[-74.8045,-5.97807],[-74.81029,-5.96928],[-74.82923,-5.95801],[-74.8147,-5.94437],[-74.80817,-5.92936],[-74.81405,-5.92066],[-74.83798,-5.91724],[-74.84303,-5.8973],[-74.85023,-5.8883],[-74.8867,-5.86603],[-74.91527,-5.87406],[-74.96169,-5.90149],[-74.98889,-5.93678],[-75.00058,-5.95893],[-75.04114,-6.00448],[-75.06341,-6.013],[-75.08128,-6.01509],[-75.10515,-6.02225],[-75.14693,-6.03927],[-75.15926,-6.05412],[-75.17944,-6.07001],[-75.18984,-6.07375],[-75.2188,-6.07042],[-75.23525,-6.07445],[-75.24921,-6.08267],[-75.31346,-6.0991],[-75.32884,-6.09931],[-75.36372,-6.08827],[-75.39673,-6.08225],[-75.46967,-6.10942],[-75.49461,-6.11353],[-75.52937,-6.12216],[-75.53279,-6.0956],[-75.54863,-6.05565],[-75.56503,-6.02554],[-75.56893,-6.00039],[-75.56701,-5.95837],[-75.54671,-5.93608],[-75.52973,-5.89361],[-75.51283,-5.86867],[-75.5368,-5.81455],[-75.53936,-5.79466],[-75.52007,-5.76597],[-75.51167,-5.7593],[-75.50162,-5.74243],[-75.49748,-5.72803],[-75.43713,-5.72542],[-75.41393,-5.72015],[-75.40289,-5.71245],[-75.38903,-5.69125],[-75.37758,-5.68824],[-75.34613,-5.69525],[-75.32608,-5.69389],[-75.30493,-5.68621],[-75.28653,-5.67462],[-75.25991,-5.6523],[-75.22122,-5.63191],[-75.2081,-5.6171],[-75.19949,-5.61553],[-75.18158,-5.62323],[-75.15609,-5.59479],[-75.13507,-5.57438],[-75.11101,-5.54088],[-75.06599,-5.4994],[-75.05416,-5.4954],[-75.01947,-5.49693],[-74.99029,-5.51391],[-74.9601,-5.51986],[-74.92871,-5.48625],[-74.90209,-5.4703],[-74.88745,-5.46647],[-74.85387,-5.46302],[-74.82899,-5.45371],[-74.63801,-5.35401],[-74.62779,-5.34013],[-74.61517,-5.30433],[-74.59215,-5.27798],[-74.57292,-5.26432],[-74.53419,-5.24914],[-74.45722,-5.21595],[-74.41834,-5.20693],[-74.39187,-5.1885],[-74.36523,-5.16258],[-74.35063,-5.15348],[-74.32022,-5.15114],[-74.29967,-5.13775],[-74.28094,-5.13323],[-74.2598,-5.13862],[-74.24551,-5.13619],[-74.23189,-5.11708],[-74.20178,-5.10503],[-74.18402,-5.09272],[-74.17578,-5.0798],[-74.17742,-5.05097],[-74.17045,-5.0327],[-74.14365,-5.0226],[-74.13117,-5.01503],[-74.11024,-4.98955],[-74.08939,-4.96916],[-74.06709,-4.95664],[-74.03714,-4.94663],[-74.00016,-4.95768],[-73.97663,-4.97308],[-73.95442,-4.98116],[-73.94892,-4.99646],[-73.93325,-5.01075],[-73.92456,-5.00526],[-73.92189,-4.99316],[-73.90047,-4.97127],[-73.893,-4.95558],[-73.90056,-4.94628],[-73.90182,-4.92874],[-73.87435,-4.88281],[-73.8585,-4.88041],[-73.84384,-4.87141],[-73.84113,-4.85986],[-73.82972,-4.84941],[-73.8101,-4.84297],[-73.79238,-4.8154],[-73.76936,-4.80165],[-73.74265,-4.77312],[-73.73132,-4.75222],[-73.71155,-4.73542],[-73.67827,-4.73423],[-73.66582,-4.73034],[-73.64423,-4.71424],[-73.61926,-4.67829],[-73.60701,-4.65171],[-73.58198,-4.61868],[-73.55593,-4.60312],[-73.52941,-4.5843],[-73.51083,-4.55191],[-73.48849,-4.52989],[-73.46483,-4.51521],[-73.45992,-4.49339],[-73.45845,-4.46451],[-73.43522,-4.44636],[-73.42235,-4.46289],[-73.41163,-4.46521],[-73.3953,-4.47925],[-73.38873,-4.49702],[-73.36216,-4.52294],[-73.35239,-4.54223],[-73.32256,-4.58432],[-73.2894,-4.60867],[-73.26966,-4.63884],[-73.24707,-4.65646],[-73.21716,-4.67396],[-73.18112,-4.68645],[-73.17051,-4.70082],[-73.1556,-4.70971],[-73.12944,-4.69554],[-73.12572,-4.71976],[-73.1112,-4.75532],[-73.10215,-4.78977],[-73.12754,-4.81699],[-73.14528,-4.84991],[-73.16432,-4.88005],[-73.22452,-4.95458],[-73.23624,-4.97057],[-73.18447,-4.99392],[-73.16992,-4.998],[-73.11432,-4.99779],[-73.0981,-5.0008],[-73.07113,-5.02096],[-73.05387,-5.03725],[-73.01488,-5.05419],[-72.99319,-5.05857],[-72.98486,-5.05257],[-72.97774,-5.06325],[-72.9574,-5.07799],[-72.95232,-5.0881],[-72.93636,-5.10428],[-72.91279,-5.1199],[-72.88543,-5.12191],[-72.85497,-5.1387]]]}},{"type":"Feature","properties":{"ubigeo":"1606","nombre":"Ucayali"},"geometry":{"type":"Polygon","coordinates":[[[-75.45297,-8.21007],[-75.45881,-8.21756],[-75.45881,-8.23052],[-75.47315,-8.24429],[-75.47146,-8.25207],[-75.48838,-8.26403],[-75.50288,-8.28941],[-75.4913,-8.31729],[-75.49779,-8.33139],[-75.51005,-8.33482],[-75.49882,-8.34589],[-75.48368,-8.34476],[-75.47785,-8.35258],[-75.48134,-8.36092],[-75.48067,-8.3804],[-75.46382,-8.39384],[-75.46144,-8.40666],[-75.45236,-8.41204],[-75.42395,-8.44248],[-75.43554,-8.45221],[-75.46029,-8.4492],[-75.47521,-8.43616],[-75.48579,-8.43734],[-75.51084,-8.43204],[-75.52896,-8.43977],[-75.53275,-8.43321],[-75.54922,-8.43299],[-75.55861,-8.44192],[-75.57229,-8.44458],[-75.58346,-8.44119],[-75.58828,-8.42357],[-75.59906,-8.41198],[-75.61808,-8.40832],[-75.64813,-8.40975],[-75.65818,-8.41513],[-75.68732,-8.42329],[-75.70814,-8.44651],[-75.7175,-8.47598],[-75.71646,-8.48689],[-75.7353,-8.48495],[-75.76069,-8.48739],[-75.76898,-8.4978],[-75.77897,-8.49357],[-75.78754,-8.49719],[-75.78221,-8.50371],[-75.79922,-8.51216],[-75.78447,-8.5217],[-75.77929,-8.53195],[-75.78001,-8.55349],[-75.79069,-8.57003],[-75.79246,-8.58563],[-75.80153,-8.60274],[-75.81236,-8.60771],[-75.82073,-8.62864],[-75.8168,-8.63602],[-75.83251,-8.65178],[-75.84531,-8.65498],[-75.85349,-8.64916],[-75.89132,-8.66022],[-75.90085,-8.67771],[-75.90928,-8.67792],[-75.92595,-8.69804],[-75.93212,-8.69693],[-75.94601,-8.71519],[-75.9649,-8.69575],[-75.96779,-8.67241],[-75.97885,-8.65482],[-75.97976,-8.636],[-75.97223,-8.59951],[-75.96631,-8.59203],[-75.96631,-8.56878],[-75.9709,-8.55799],[-75.96538,-8.54605],[-75.97094,-8.51704],[-75.96782,-8.50745],[-75.95491,-8.50202],[-75.95545,-8.48447],[-75.9619,-8.47565],[-75.96491,-8.45174],[-75.9587,-8.44589],[-75.94717,-8.4224],[-75.94634,-8.39912],[-75.96835,-8.35621],[-75.96759,-8.34581],[-75.9852,-8.33095],[-75.98565,-8.32222],[-75.97249,-8.31663],[-75.95183,-8.31485],[-75.92709,-8.30676],[-75.91435,-8.28283],[-75.91336,-8.25439],[-75.92475,-8.23076],[-75.9237,-8.21679],[-75.94116,-8.18618],[-75.93313,-8.15281],[-75.93403,-8.13443],[-75.94064,-8.11046],[-75.95114,-8.10246],[-75.92936,-8.0893],[-75.92706,-8.07785],[-75.91701,-8.07178],[-75.88731,-8.07488],[-75.87411,-8.06682],[-75.86097,-8.06905],[-75.8525,-8.05847],[-75.84493,-8.05964],[-75.8391,-8.00023],[-75.82949,-7.9735],[-75.8354,-7.96877],[-75.84045,-7.9467],[-75.84921,-7.93985],[-75.85939,-7.92117],[-75.88218,-7.93388],[-75.89476,-7.93373],[-75.92043,-7.9475],[-75.92784,-7.95726],[-75.93946,-7.94612],[-75.95056,-7.94745],[-75.96698,-7.96036],[-75.99285,-7.95428],[-75.99151,-7.94101],[-75.98543,-7.93756],[-75.98597,-7.91998],[-75.9756,-7.90962],[-75.98979,-7.8918],[-76.00236,-7.89316],[-76.00751,-7.88491],[-76.00326,-7.87442],[-76.00992,-7.85431],[-76.02257,-7.84302],[-76.02162,-7.83806],[-76.0381,-7.815],[-76.0438,-7.79234],[-76.06133,-7.78665],[-76.06707,-7.76929],[-76.08488,-7.76181],[-76.08667,-7.72923],[-76.10159,-7.72266],[-76.10271,-7.70427],[-76.09846,-7.69674],[-76.09846,-7.66614],[-76.10133,-7.65046],[-76.09768,-7.64224],[-76.08185,-7.63022],[-76.08262,-7.62034],[-76.09387,-7.60973],[-76.08366,-7.60272],[-76.08127,-7.58235],[-76.08742,-7.5803],[-76.0887,-7.56333],[-76.09666,-7.56019],[-76.11446,-7.5639],[-76.121,-7.52753],[-76.13207,-7.52207],[-76.14197,-7.50526],[-76.16615,-7.49431],[-76.17935,-7.4716],[-76.18621,-7.46542],[-76.19142,-7.44869],[-76.2044,-7.43133],[-76.21455,-7.40452],[-76.19604,-7.33353],[-76.21311,-7.31014],[-76.19539,-7.29506],[-76.18671,-7.28093],[-76.16666,-7.2676],[-76.15479,-7.23188],[-76.15928,-7.23057],[-76.14571,-7.21793],[-76.14353,-7.20396],[-76.1118,-7.18305],[-76.09838,-7.18403],[-76.07677,-7.17441],[-76.05994,-7.1613],[-76.04659,-7.12143],[-76.0233,-7.11431],[-76.02187,-7.10089],[-76.01072,-7.07838],[-76.01399,-7.07226],[-76.01226,-7.03805],[-76.00578,-7.03023],[-76.01079,-6.99654],[-76.02254,-6.98978],[-76.03564,-6.99315],[-76.04009,-6.97342],[-76.05146,-6.9443],[-76.0464,-6.92493],[-76.01805,-6.91584],[-76.01053,-6.89361],[-76.03569,-6.86269],[-76.03612,-6.84718],[-76.04886,-6.83033],[-76.0509,-6.81086],[-76.01158,-6.80602],[-75.99969,-6.79498],[-75.98207,-6.79473],[-75.981,-6.79971],[-75.96365,-6.78842],[-75.94369,-6.79486],[-75.93761,-6.79138],[-75.89065,-6.79503],[-75.87889,-6.80191],[-75.85975,-6.80156],[-75.84388,-6.79726],[-75.81375,-6.81747],[-75.81397,-6.82548],[-75.79418,-6.8214],[-75.79148,-6.83405],[-75.76843,-6.85382],[-75.76268,-6.85104],[-75.74606,-6.85655],[-75.73973,-6.85078],[-75.7221,-6.85161],[-75.6977,-6.8686],[-75.68999,-6.86127],[-75.68706,-6.84669],[-75.67292,-6.8444],[-75.6681,-6.82642],[-75.65967,-6.81933],[-75.64217,-6.81596],[-75.64068,-6.83484],[-75.63344,-6.84306],[-75.61689,-6.84119],[-75.59257,-6.83032],[-75.58436,-6.82047],[-75.57434,-6.81868],[-75.57417,-6.80883],[-75.56184,-6.80161],[-75.54404,-6.79964],[-75.5118,-6.78557],[-75.50123,-6.76705],[-75.50038,-6.75729],[-75.505,-6.72533],[-75.50621,-6.69705],[-75.50213,-6.67411],[-75.50023,-6.64032],[-75.50756,-6.60278],[-75.5093,-6.58298],[-75.50298,-6.55223],[-75.5083,-6.53347],[-75.5096,-6.49214],[-75.5233,-6.47708],[-75.52014,-6.46482],[-75.53056,-6.43888],[-75.53764,-6.43714],[-75.53399,-6.41545],[-75.54342,-6.40687],[-75.53645,-6.39154],[-75.54349,-6.37768],[-75.54333,-6.36241],[-75.55009,-6.34771],[-75.53466,-6.32226],[-75.50936,-6.30029],[-75.49031,-6.26704],[-75.48676,-6.24473],[-75.48719,-6.20342],[-75.49825,-6.18584],[-75.52555,-6.16513],[-75.52796,-6.15804],[-75.52937,-6.12216],[-75.49461,-6.11353],[-75.46967,-6.10942],[-75.39673,-6.08225],[-75.36372,-6.08827],[-75.32884,-6.09931],[-75.31346,-6.0991],[-75.24921,-6.08267],[-75.23525,-6.07445],[-75.2188,-6.07042],[-75.18984,-6.07375],[-75.17944,-6.07001],[-75.15926,-6.05412],[-75.14693,-6.03927],[-75.10515,-6.02225],[-75.08128,-6.01509],[-75.06341,-6.013],[-75.04114,-6.00448],[-75.00058,-5.95893],[-74.98889,-5.93678],[-74.96169,-5.90149],[-74.91527,-5.87406],[-74.8867,-5.86603],[-74.85023,-5.8883],[-74.84303,-5.8973],[-74.83798,-5.91724],[-74.81405,-5.92066],[-74.80817,-5.92936],[-74.8147,-5.94437],[-74.82923,-5.95801],[-74.81029,-5.96928],[-74.8045,-5.97807],[-74.8011,-5.99823],[-74.79175,-6.01042],[-74.7767,-6.01506],[-74.76859,-6.0122],[-74.76083,-5.99933],[-74.76382,-5.98519],[-74.77696,-5.96974],[-74.78457,-5.95162],[-74.78351,-5.93262],[-74.77525,-5.92448],[-74.76131,-5.92606],[-74.7314,-5.94744],[-74.69655,-5.9503],[-74.68901,-5.96045],[-74.6936,-6.0038],[-74.69888,-6.0132],[-74.69619,-6.03566],[-74.70555,-6.03057],[-74.72212,-6.05304],[-74.72439,-6.07457],[-74.73887,-6.087],[-74.77571,-6.10514],[-74.78459,-6.11832],[-74.78993,-6.15528],[-74.80736,-6.17579],[-74.8447,-6.20339],[-74.86736,-6.2224],[-74.87049,-6.23026],[-74.86541,-6.2502],[-74.86506,-6.27286],[-74.88862,-6.31935],[-74.89647,-6.35388],[-74.89722,-6.40032],[-74.90585,-6.42633],[-74.92205,-6.44893],[-74.95168,-6.48245],[-74.9712,-6.51643],[-74.97551,-6.55493],[-74.97379,-6.58073],[-74.96656,-6.63193],[-74.95603,-6.68549],[-74.94509,-6.69948],[-74.92827,-6.70714],[-74.91196,-6.72729],[-74.90145,-6.73278],[-74.89565,-6.75947],[-74.89817,-6.79656],[-74.8954,-6.8332],[-74.88958,-6.85255],[-74.88181,-6.86574],[-74.86981,-6.87453],[-74.85891,-6.88992],[-74.85097,-6.91452],[-74.81854,-6.94701],[-74.79923,-6.97683],[-74.79868,-6.98326],[-74.81405,-7.00131],[-74.82194,-7.03008],[-74.83281,-7.04383],[-74.83661,-7.07167],[-74.84671,-7.08046],[-74.86105,-7.10353],[-74.87327,-7.11313],[-74.87521,-7.12505],[-74.85835,-7.13384],[-74.85236,-7.15814],[-74.86076,-7.18451],[-74.8763,-7.20552],[-74.87626,-7.23167],[-74.86204,-7.25026],[-74.84051,-7.27247],[-74.83446,-7.29328],[-74.79342,-7.30167],[-74.78362,-7.30571],[-74.74123,-7.30925],[-74.7199,-7.32177],[-74.70762,-7.32154],[-74.67854,-7.31415],[-74.64491,-7.30089],[-74.64029,-7.28557],[-74.6251,-7.27049],[-74.62396,-7.24668],[-74.64881,-7.24119],[-74.64418,-7.22698],[-74.64192,-7.18701],[-74.62299,-7.17332],[-74.59738,-7.17768],[-74.56638,-7.17295],[-74.55038,-7.16611],[-74.54084,-7.17405],[-74.53776,-7.18655],[-74.54107,-7.19741],[-74.53539,-7.20534],[-74.51452,-7.21785],[-74.51206,-7.2428],[-74.50009,-7.26205],[-74.51473,-7.27676],[-74.52074,-7.27601],[-74.53573,-7.29443],[-74.53571,-7.32025],[-74.55668,-7.34152],[-74.56601,-7.35971],[-74.57133,-7.38866],[-74.57952,-7.40993],[-74.59287,-7.42377],[-74.61607,-7.43504],[-74.63063,-7.48158],[-74.6429,-7.50009],[-74.64553,-7.51748],[-74.64116,-7.53483],[-74.64314,-7.56229],[-74.62753,-7.58602],[-74.59103,-7.62858],[-74.57724,-7.63587],[-74.57082,-7.66849],[-74.58346,-7.68507],[-74.58403,-7.69849],[-74.57165,-7.72689],[-74.55789,-7.74848],[-74.5432,-7.75562],[-74.52603,-7.75609],[-74.51955,-7.76098],[-74.51711,-7.78357],[-74.54059,-7.7915],[-74.55712,-7.80884],[-74.56975,-7.81598],[-74.59669,-7.8614],[-74.60128,-7.87346],[-74.60436,-7.9008],[-74.62798,-7.93983],[-74.66844,-7.94564],[-74.71128,-7.979],[-74.72794,-7.98101],[-74.76057,-8.01641],[-74.77126,-8.03606],[-74.7877,-8.04679],[-74.81931,-8.05748],[-74.84038,-8.05835],[-74.86588,-8.07693],[-74.8844,-8.0839],[-74.89644,-8.08127],[-74.92902,-8.04121],[-74.93357,-8.03165],[-74.9534,-8.01271],[-74.96314,-7.99415],[-74.98226,-7.96899],[-75.00553,-7.97015],[-75.01596,-7.96521],[-75.03335,-7.95005],[-75.07056,-7.96047],[-75.09222,-7.97368],[-75.14586,-7.98128],[-75.14943,-8.00182],[-75.16768,-8.00522],[-75.18434,-8.0166],[-75.18632,-8.03568],[-75.19567,-8.0544],[-75.189,-8.06905],[-75.18978,-8.07993],[-75.20438,-8.08887],[-75.21253,-8.1008],[-75.20954,-8.11624],[-75.21457,-8.12714],[-75.23578,-8.1404],[-75.2347,-8.14985],[-75.24388,-8.15552],[-75.26049,-8.1476],[-75.26692,-8.13589],[-75.2878,-8.12551],[-75.2978,-8.12632],[-75.31127,-8.13612],[-75.32895,-8.13828],[-75.34378,-8.12922],[-75.36549,-8.13788],[-75.37615,-8.13878],[-75.38995,-8.15226],[-75.39118,-8.16253],[-75.40145,-8.16972],[-75.41811,-8.17098],[-75.4301,-8.1666],[-75.43924,-8.17487],[-75.43763,-8.19485],[-75.45297,-8.21007]]]}},{"type":"Feature","properties":{"ubigeo":"1607","nombre":"Datem del Marañón"},"geometry":{"type":"Polygon","coordinates":[[[-76.89454,-5.74623],[-76.91973,-5.72083],[-76.93443,-5.71149],[-76.96135,-5.70608],[-76.9869,-5.68621],[-76.99561,-5.66712],[-77.01393,-5.67075],[-77.03334,-5.66304],[-77.05605,-5.66254],[-77.05895,-5.66694],[-77.07509,-5.66349],[-77.0918,-5.65423],[-77.10223,-5.65582],[-77.10995,-5.64795],[-77.12691,-5.65099],[-77.13713,-5.64403],[-77.14235,-5.62544],[-77.16193,-5.62457],[-77.17867,-5.64142],[-77.19161,-5.63338],[-77.20216,-5.63446],[-77.20752,-5.62238],[-77.22197,-5.61328],[-77.23194,-5.59546],[-77.24082,-5.60242],[-77.24957,-5.59941],[-77.2624,-5.6134],[-77.2728,-5.61252],[-77.27676,-5.60245],[-77.30759,-5.60426],[-77.31857,-5.60092],[-77.33832,-5.60347],[-77.34496,-5.58898],[-77.36866,-5.5766],[-77.37182,-5.56711],[-77.40465,-5.57479],[-77.40873,-5.58916],[-77.42155,-5.5893],[-77.43201,-5.58314],[-77.43626,-5.59226],[-77.44414,-5.58629],[-77.46194,-5.58414],[-77.46204,-5.56837],[-77.47479,-5.55511],[-77.49053,-5.5624],[-77.50807,-5.55148],[-77.50388,-5.54017],[-77.49177,-5.52934],[-77.51347,-5.47984],[-77.5174,-5.46675],[-77.53735,-5.45063],[-77.55812,-5.42558],[-77.57014,-5.43827],[-77.58167,-5.46118],[-77.59481,-5.46422],[-77.60697,-5.44858],[-77.62806,-5.4394],[-77.63913,-5.4303],[-77.65754,-5.42642],[-77.67036,-5.40964],[-77.69596,-5.41105],[-77.70279,-5.38069],[-77.69623,-5.37344],[-77.68805,-5.34635],[-77.68207,-5.3384],[-77.6862,-5.30247],[-77.68415,-5.29588],[-77.69275,-5.28359],[-77.69308,-5.26769],[-77.70983,-5.23974],[-77.72302,-5.23457],[-77.73956,-5.2126],[-77.72754,-5.2009],[-77.70824,-5.19091],[-77.70343,-5.17478],[-77.69508,-5.1671],[-77.72086,-5.14045],[-77.74529,-5.13302],[-77.76757,-5.11159],[-77.77429,-5.09718],[-77.791,-5.09522],[-77.80202,-5.0862],[-77.81766,-5.09123],[-77.82228,-5.08179],[-77.81193,-5.05471],[-77.81603,-5.03829],[-77.82462,-5.03178],[-77.80834,-5.01549],[-77.78627,-4.98805],[-77.76818,-4.95593],[-77.75929,-4.95178],[-77.76693,-4.92122],[-77.76015,-4.90935],[-77.77379,-4.89167],[-77.7748,-4.87822],[-77.79357,-4.84996],[-77.79175,-4.83377],[-77.79582,-4.81858],[-77.7954,-4.79304],[-77.78927,-4.78511],[-77.79462,-4.76301],[-77.78305,-4.73289],[-77.77188,-4.71756],[-77.75596,-4.70246],[-77.73139,-4.68844],[-77.71597,-4.66509],[-77.69451,-4.65867],[-77.67195,-4.62947],[-77.66616,-4.61568],[-77.65925,-4.58138],[-77.65312,-4.57599],[-77.65965,-4.55797],[-77.64902,-4.54642],[-77.65546,-4.51854],[-77.64135,-4.51006],[-77.64063,-4.49652],[-77.61752,-4.49588],[-77.60455,-4.48581],[-77.59105,-4.48265],[-77.58594,-4.47501],[-77.57349,-4.43044],[-77.56828,-4.42092],[-77.56488,-4.39355],[-77.56539,-4.37246],[-77.57156,-4.32881],[-77.57901,-4.30116],[-77.57956,-4.27618],[-77.58555,-4.25133],[-77.5806,-4.24071],[-77.56759,-4.179],[-77.569,-4.16988],[-77.55838,-4.12997],[-77.54966,-4.10989],[-77.53812,-4.02871],[-77.5381,-4.00347],[-77.54123,-3.98638],[-77.53788,-3.9619],[-77.54177,-3.94333],[-77.55716,-3.91816],[-77.56088,-3.90402],[-77.56902,-3.89307],[-77.56169,-3.87756],[-77.58192,-3.86282],[-77.60924,-3.82524],[-77.62313,-3.82214],[-77.63574,-3.80126],[-77.65157,-3.78184],[-77.64321,-3.75306],[-77.62605,-3.73496],[-77.6223,-3.71773],[-77.61562,-3.70772],[-77.62135,-3.68611],[-77.61778,-3.67472],[-77.62136,-3.66433],[-77.61694,-3.6343],[-77.62195,-3.62053],[-77.64301,-3.61935],[-77.65934,-3.58244],[-77.67041,-3.56838],[-77.68984,-3.55569],[-77.71646,-3.54231],[-77.71089,-3.52626],[-77.71646,-3.51244],[-77.72773,-3.50546],[-77.74564,-3.48223],[-77.75301,-3.46241],[-77.76054,-3.4598],[-77.76427,-3.44352],[-77.77254,-3.42881],[-77.77648,-3.40913],[-77.77835,-3.35929],[-77.77528,-3.32406],[-77.77985,-3.29158],[-77.77852,-3.18718],[-77.78329,-3.17423],[-77.79094,-3.11763],[-77.78643,-3.10274],[-77.79434,-3.09011],[-77.78766,-3.07478],[-77.79315,-3.04398],[-77.80826,-3.02295],[-77.81725,-3.00079],[-77.80862,-2.98613],[-77.71185,-2.95358],[-77.4575,-2.86911],[-77.17286,-2.77282],[-77.15698,-2.76785],[-76.68939,-2.60896],[-76.63187,-2.58969],[-76.53432,-2.51228],[-76.51304,-2.52216],[-76.50242,-2.53648],[-76.5022,-2.56861],[-76.5068,-2.58166],[-76.49925,-2.59262],[-76.48465,-2.5939],[-76.47064,-2.60431],[-76.45727,-2.62941],[-76.43531,-2.64567],[-76.43654,-2.65253],[-76.42487,-2.66038],[-76.40797,-2.68779],[-76.38637,-2.69753],[-76.38434,-2.71677],[-76.39481,-2.72671],[-76.36134,-2.7459],[-76.34421,-2.80007],[-76.31784,-2.80772],[-76.30734,-2.83485],[-76.30796,-2.85191],[-76.31475,-2.86693],[-76.31687,-2.89756],[-76.3333,-2.90379],[-76.34031,-2.91355],[-76.34307,-2.9297],[-76.35123,-2.94643],[-76.35231,-2.9625],[-76.34841,-2.97753],[-76.33793,-2.98861],[-76.3528,-3.02899],[-76.34877,-3.05966],[-76.35347,-3.09042],[-76.37193,-3.11453],[-76.38927,-3.12768],[-76.37895,-3.14221],[-76.35205,-3.16239],[-76.34969,-3.17029],[-76.36388,-3.18098],[-76.36405,-3.19324],[-76.35274,-3.20137],[-76.35659,-3.2136],[-76.36729,-3.21783],[-76.35427,-3.23636],[-76.33732,-3.21888],[-76.32803,-3.22192],[-76.33493,-3.2343],[-76.33644,-3.25325],[-76.32743,-3.25614],[-76.3255,-3.27694],[-76.31474,-3.28499],[-76.31066,-3.30543],[-76.30079,-3.31304],[-76.29769,-3.32416],[-76.28299,-3.33245],[-76.27003,-3.36113],[-76.26752,-3.38239],[-76.2736,-3.40078],[-76.26372,-3.40304],[-76.261,-3.43035],[-76.25656,-3.44652],[-76.26146,-3.47522],[-76.24893,-3.47668],[-76.24683,-3.48668],[-76.22454,-3.51619],[-76.20618,-3.52806],[-76.22204,-3.55372],[-76.23545,-3.56314],[-76.25778,-3.56921],[-76.24736,-3.59786],[-76.23753,-3.60244],[-76.23408,-3.63482],[-76.25427,-3.64218],[-76.27973,-3.65554],[-76.31216,-3.67656],[-76.32514,-3.68153],[-76.32983,-3.6894],[-76.33554,-3.72095],[-76.33557,-3.74113],[-76.33046,-3.75965],[-76.34057,-3.77314],[-76.35217,-3.77819],[-76.37102,-3.77736],[-76.38548,-3.78494],[-76.38679,-3.79236],[-76.38117,-3.8169],[-76.39335,-3.85284],[-76.41639,-3.86598],[-76.41661,-3.88841],[-76.42268,-3.92538],[-76.41361,-3.96193],[-76.39566,-3.98319],[-76.39355,-3.99801],[-76.3687,-4.02553],[-76.35158,-4.04084],[-76.34284,-4.06969],[-76.34349,-4.08389],[-76.33821,-4.10031],[-76.32787,-4.11757],[-76.29342,-4.13451],[-76.3101,-4.1508],[-76.31091,-4.15677],[-76.28206,-4.15994],[-76.26057,-4.17724],[-76.24249,-4.18123],[-76.2383,-4.18921],[-76.24617,-4.19596],[-76.24454,-4.2193],[-76.22934,-4.2413],[-76.23113,-4.2663],[-76.24917,-4.28618],[-76.27604,-4.3024],[-76.29719,-4.31906],[-76.29658,-4.33866],[-76.30112,-4.34605],[-76.31978,-4.35605],[-76.32099,-4.3658],[-76.30762,-4.3876],[-76.31541,-4.39961],[-76.33352,-4.41033],[-76.33887,-4.42553],[-76.33629,-4.43943],[-76.32283,-4.45666],[-76.3147,-4.4823],[-76.29319,-4.51993],[-76.27724,-4.52131],[-76.26416,-4.52874],[-76.25586,-4.54635],[-76.23357,-4.55204],[-76.23151,-4.55969],[-76.24318,-4.5588],[-76.24518,-4.56564],[-76.23463,-4.57865],[-76.21786,-4.60795],[-76.19885,-4.6227],[-76.20609,-4.66306],[-76.20586,-4.67227],[-76.19659,-4.68294],[-76.17561,-4.68858],[-76.16318,-4.70562],[-76.17153,-4.73152],[-76.17418,-4.75808],[-76.16739,-4.77955],[-76.14044,-4.79769],[-76.11544,-4.79039],[-76.09885,-4.79187],[-76.08565,-4.81831],[-76.06702,-4.83376],[-76.03073,-4.81516],[-76.02508,-4.81574],[-76.00805,-4.85073],[-76.00064,-4.85729],[-75.97303,-4.86707],[-75.95909,-4.87735],[-75.93862,-4.9015],[-75.91609,-4.91657],[-75.89082,-4.9257],[-75.87051,-4.93664],[-75.84018,-4.96138],[-75.82818,-4.9771],[-75.79959,-4.97913],[-75.76226,-4.99862],[-75.7468,-5.01295],[-75.74873,-5.03845],[-75.78945,-5.01808],[-75.804,-5.01842],[-75.84009,-5.02504],[-75.85858,-5.03105],[-75.88915,-5.04835],[-75.89769,-5.04476],[-75.91016,-5.02465],[-75.91921,-5.02139],[-75.91904,-5.08449],[-75.95472,-5.07968],[-75.9672,-5.08166],[-76.00223,-5.10106],[-76.03204,-5.09951],[-76.07736,-5.08049],[-76.14796,-5.03277],[-76.18336,-5.01706],[-76.23519,-5.01894],[-76.31634,-5.02683],[-76.33754,-5.03233],[-76.36446,-5.0317],[-76.37783,-5.03512],[-76.40745,-5.05133],[-76.4212,-5.05245],[-76.42882,-5.04631],[-76.42819,-5.02066],[-76.44438,-5.00397],[-76.45404,-4.9866],[-76.45711,-4.99831],[-76.45443,-5.01333],[-76.44824,-5.02062],[-76.44576,-5.06125],[-76.46349,-5.07804],[-76.4806,-5.08907],[-76.49507,-5.10752],[-76.49904,-5.12328],[-76.51372,-5.13264],[-76.50591,-5.15191],[-76.50656,-5.17102],[-76.52502,-5.17825],[-76.52837,-5.18643],[-76.50945,-5.22867],[-76.5107,-5.23716],[-76.52228,-5.24009],[-76.56602,-5.23308],[-76.57994,-5.21507],[-76.58749,-5.21325],[-76.60583,-5.22894],[-76.60436,-5.24829],[-76.5933,-5.25605],[-76.59312,-5.27224],[-76.58252,-5.27931],[-76.58262,-5.2979],[-76.58754,-5.31434],[-76.5799,-5.32027],[-76.57592,-5.33613],[-76.58852,-5.34389],[-76.6015,-5.33462],[-76.60747,-5.3378],[-76.61785,-5.36023],[-76.6254,-5.36742],[-76.63459,-5.41966],[-76.62716,-5.43374],[-76.62978,-5.44358],[-76.64145,-5.44802],[-76.63929,-5.46107],[-76.64526,-5.46387],[-76.66145,-5.45892],[-76.6909,-5.4868],[-76.70285,-5.49203],[-76.71679,-5.48217],[-76.73546,-5.45065],[-76.74546,-5.44512],[-76.75736,-5.45589],[-76.75587,-5.43625],[-76.7711,-5.44257],[-76.79995,-5.47596],[-76.83221,-5.49851],[-76.83488,-5.51262],[-76.84531,-5.51594],[-76.85082,-5.53211],[-76.84808,-5.54345],[-76.83495,-5.56773],[-76.81247,-5.59099],[-76.81661,-5.60192],[-76.83562,-5.60319],[-76.84445,-5.60896],[-76.83998,-5.62092],[-76.84545,-5.63879],[-76.81955,-5.63612],[-76.81426,-5.64173],[-76.81357,-5.65618],[-76.8231,-5.66079],[-76.82577,-5.67284],[-76.81033,-5.68851],[-76.82948,-5.69579],[-76.84741,-5.68942],[-76.86278,-5.69474],[-76.86951,-5.70356],[-76.86649,-5.72553],[-76.88999,-5.7363],[-76.89454,-5.74623]]]}},{"type":"Feature","properties":{"ubigeo":"1608","nombre":"Putumayo"},"geometry":{"type":"Polygon","coordinates":[[[-72.57077,-2.8909],[-72.58102,-2.88965],[-72.67875,-2.8928],[-72.70377,-2.90174],[-72.73024,-2.90588],[-72.7662,-2.91527],[-72.79545,-2.91198],[-72.85859,-2.9146],[-72.88623,-2.91776],[-72.89993,-2.9097],[-72.93539,-2.87295],[-72.98107,-2.83961],[-73.01297,-2.8227],[-73.03822,-2.80036],[-73.06921,-2.77856],[-73.10547,-2.77867],[-73.12219,-2.77522],[-73.13426,-2.75837],[-73.13697,-2.72177],[-73.14865,-2.70669],[-73.16971,-2.70137],[-73.18644,-2.70392],[-73.21365,-2.69598],[-73.24201,-2.6724],[-73.25967,-2.65046],[-73.27586,-2.63717],[-73.32097,-2.62581],[-73.35534,-2.60847],[-73.36749,-2.59557],[-73.39221,-2.55162],[-73.39584,-2.53336],[-73.38405,-2.50977],[-73.37212,-2.49804],[-73.36856,-2.4769],[-73.37318,-2.4656],[-73.40577,-2.43993],[-73.44416,-2.41701],[-73.48179,-2.4101],[-73.52127,-2.37688],[-73.54698,-2.37367],[-73.56121,-2.36767],[-73.57299,-2.34409],[-73.62286,-2.30556],[-73.66119,-2.29033],[-73.67845,-2.2919],[-73.6942,-2.30224],[-73.71081,-2.29678],[-73.72041,-2.28345],[-73.72701,-2.2507],[-73.7336,-2.2363],[-73.7512,-2.22636],[-73.7562,-2.20371],[-73.74016,-2.17354],[-73.73696,-2.15691],[-73.75411,-2.1416],[-73.77762,-2.13345],[-73.7874,-2.12236],[-73.79314,-2.10525],[-73.80363,-2.03706],[-73.80744,-2.02853],[-73.82148,-2.02252],[-73.84138,-2.02308],[-73.86725,-2.01801],[-73.88405,-1.99843],[-73.90329,-1.99121],[-73.91453,-1.99208],[-73.92269,-1.98409],[-73.91988,-1.97762],[-73.89869,-1.96774],[-73.88741,-1.93852],[-73.88118,-1.93554],[-73.87528,-1.91871],[-73.88153,-1.90297],[-73.87863,-1.89266],[-73.86021,-1.87888],[-73.85502,-1.86425],[-73.83693,-1.84832],[-73.84245,-1.82454],[-73.83661,-1.80201],[-73.82328,-1.77664],[-73.8178,-1.74485],[-73.82449,-1.69635],[-73.83715,-1.68667],[-73.85972,-1.68004],[-73.88678,-1.68299],[-73.90633,-1.65757],[-73.90927,-1.64493],[-73.92152,-1.62596],[-73.92379,-1.61613],[-73.94141,-1.60332],[-73.94096,-1.58777],[-73.96027,-1.5886],[-73.97286,-1.58533],[-73.99567,-1.55318],[-74.00018,-1.52887],[-74.00786,-1.52388],[-74.03236,-1.52775],[-74.0877,-1.52067],[-74.12079,-1.50309],[-74.1394,-1.48108],[-74.15169,-1.47155],[-74.17128,-1.46795],[-74.18989,-1.45048],[-74.20676,-1.44555],[-74.22279,-1.45553],[-74.26612,-1.44306],[-74.29087,-1.43321],[-74.30636,-1.43685],[-74.32286,-1.422],[-74.35294,-1.41473],[-74.37701,-1.40272],[-74.40608,-1.39434],[-74.41351,-1.3976],[-74.4285,-1.39035],[-74.44356,-1.39792],[-74.44595,-1.38978],[-74.46601,-1.37608],[-74.49098,-1.37961],[-74.50183,-1.37144],[-74.51608,-1.35182],[-74.53897,-1.34716],[-74.54753,-1.32873],[-74.56515,-1.32477],[-74.58619,-1.30992],[-74.5895,-1.27237],[-74.61658,-1.24296],[-74.64046,-1.23339],[-74.64439,-1.2169],[-74.65487,-1.21069],[-74.69145,-1.17423],[-74.70181,-1.15628],[-74.71315,-1.1458],[-74.7219,-1.11035],[-74.73716,-1.10547],[-74.75797,-1.05813],[-74.7631,-1.05368],[-74.78442,-1.04995],[-74.79464,-1.03614],[-74.81466,-1.03347],[-74.8448,-1.02286],[-74.85332,-1.00596],[-74.86888,-0.98872],[-74.88408,-0.96098],[-74.88735,-0.91963],[-74.90872,-0.92022],[-74.92675,-0.89833],[-74.93541,-0.89212],[-74.95518,-0.88674],[-74.96815,-0.85303],[-74.98427,-0.82222],[-75.03475,-0.79475],[-75.04161,-0.79997],[-75.06082,-0.78087],[-75.0868,-0.78327],[-75.10982,-0.77477],[-75.13342,-0.75723],[-75.15255,-0.74834],[-75.1928,-0.73663],[-75.19833,-0.72054],[-75.18152,-0.71401],[-75.18716,-0.7091],[-75.2048,-0.70672],[-75.22383,-0.69493],[-75.23245,-0.6857],[-75.22829,-0.67354],[-75.24027,-0.65589],[-75.23153,-0.64709],[-75.23155,-0.63085],[-75.22324,-0.62299],[-75.23221,-0.61413],[-75.23019,-0.60272],[-75.23987,-0.60156],[-75.2367,-0.58443],[-75.22449,-0.57109],[-75.2276,-0.55143],[-75.24078,-0.54858],[-75.24125,-0.52477],[-75.25119,-0.51926],[-75.26416,-0.53344],[-75.2715,-0.51727],[-75.26646,-0.5065],[-75.28577,-0.49738],[-75.29535,-0.50532],[-75.30139,-0.4929],[-75.31276,-0.49424],[-75.31003,-0.48134],[-75.31344,-0.46756],[-75.32607,-0.46107],[-75.33155,-0.45209],[-75.34478,-0.46405],[-75.35305,-0.45892],[-75.35694,-0.44649],[-75.36704,-0.44572],[-75.38752,-0.43433],[-75.38971,-0.41516],[-75.40269,-0.40068],[-75.41397,-0.39734],[-75.4189,-0.38417],[-75.44202,-0.35353],[-75.44341,-0.34184],[-75.46273,-0.31843],[-75.46652,-0.29766],[-75.47371,-0.29675],[-75.47271,-0.27429],[-75.47915,-0.26795],[-75.481,-0.24061],[-75.49615,-0.22555],[-75.49881,-0.21636],[-75.51111,-0.21165],[-75.51527,-0.19596],[-75.52169,-0.19485],[-75.53077,-0.1809],[-75.54792,-0.17809],[-75.56325,-0.18463],[-75.5795,-0.17859],[-75.59052,-0.19063],[-75.61055,-0.19112],[-75.6105,-0.11336],[-75.60172,-0.10989],[-75.58948,-0.12283],[-75.57903,-0.12014],[-75.56361,-0.1312],[-75.5505,-0.1282],[-75.54085,-0.11604],[-75.53664,-0.12123],[-75.51671,-0.11439],[-75.50563,-0.11794],[-75.49743,-0.13136],[-75.48506,-0.13018],[-75.46661,-0.14112],[-75.46068,-0.15167],[-75.43283,-0.15356],[-75.40513,-0.17027],[-75.39761,-0.16509],[-75.38364,-0.16848],[-75.36903,-0.16063],[-75.36402,-0.14611],[-75.3569,-0.14878],[-75.35853,-0.15877],[-75.35,-0.16349],[-75.34038,-0.15563],[-75.3226,-0.15959],[-75.30423,-0.1565],[-75.29484,-0.14821],[-75.28657,-0.1523],[-75.27674,-0.13424],[-75.25977,-0.12795],[-75.25662,-0.11371],[-75.24105,-0.10343],[-75.21959,-0.07657],[-75.21549,-0.04869],[-75.1836,-0.03861],[-75.16613,-0.04432],[-75.14137,-0.06632],[-75.10204,-0.08052],[-75.07736,-0.0842],[-75.05579,-0.10783],[-75.03908,-0.11621],[-75.01689,-0.14569],[-74.99852,-0.1513],[-74.9728,-0.15353],[-74.96967,-0.18002],[-74.95862,-0.19384],[-74.94177,-0.20135],[-74.93208,-0.21779],[-74.92003,-0.21749],[-74.91866,-0.20481],[-74.90731,-0.20674],[-74.89709,-0.2329],[-74.88019,-0.2403],[-74.86049,-0.23856],[-74.84809,-0.23358],[-74.83039,-0.20481],[-74.81391,-0.19225],[-74.78246,-0.20136],[-74.76271,-0.22479],[-74.74746,-0.25197],[-74.74226,-0.27506],[-74.73039,-0.29292],[-74.73251,-0.32236],[-74.73114,-0.33918],[-74.71065,-0.35024],[-74.68959,-0.32927],[-74.67757,-0.33999],[-74.68387,-0.35926],[-74.66864,-0.37375],[-74.65822,-0.37295],[-74.64803,-0.36304],[-74.61198,-0.35036],[-74.60751,-0.35439],[-74.6158,-0.37585],[-74.60632,-0.3835],[-74.58965,-0.38366],[-74.57472,-0.39503],[-74.57111,-0.41376],[-74.55544,-0.41892],[-74.54282,-0.43506],[-74.52955,-0.46513],[-74.52473,-0.46894],[-74.49897,-0.46162],[-74.49606,-0.47034],[-74.50219,-0.48219],[-74.49494,-0.48863],[-74.47749,-0.47411],[-74.46505,-0.48794],[-74.44369,-0.49602],[-74.42505,-0.49688],[-74.42134,-0.50452],[-74.42687,-0.54112],[-74.41843,-0.55814],[-74.40965,-0.55464],[-74.40189,-0.54142],[-74.39451,-0.54198],[-74.38818,-0.55566],[-74.39004,-0.57458],[-74.38772,-0.59071],[-74.36644,-0.61045],[-74.36093,-0.62382],[-74.36233,-0.63674],[-74.37206,-0.64454],[-74.37283,-0.65289],[-74.36346,-0.66483],[-74.34344,-0.67287],[-74.33757,-0.68293],[-74.34053,-0.69801],[-74.35136,-0.70871],[-74.37202,-0.714],[-74.37635,-0.71883],[-74.36733,-0.74088],[-74.3477,-0.75696],[-74.33709,-0.75949],[-74.32043,-0.7542],[-74.31107,-0.76592],[-74.3194,-0.78832],[-74.30351,-0.7923],[-74.29385,-0.77709],[-74.28139,-0.78039],[-74.29224,-0.81439],[-74.28014,-0.82737],[-74.2548,-0.81634],[-74.24636,-0.81622],[-74.2467,-0.82725],[-74.26815,-0.84701],[-74.26609,-0.87343],[-74.27682,-0.88125],[-74.28629,-0.87148],[-74.30809,-0.86609],[-74.3203,-0.88424],[-74.31094,-0.89573],[-74.28332,-0.8948],[-74.27315,-0.91203],[-74.27042,-0.92972],[-74.26322,-0.94649],[-74.27054,-0.96309],[-74.26722,-0.98236],[-74.24495,-0.99267],[-74.2234,-1.00736],[-74.19913,-1.01022],[-74.18318,-1.0046],[-74.16836,-1.00633],[-74.14452,-1.01856],[-74.12294,-1.03306],[-74.09426,-1.04801],[-74.06392,-1.05295],[-74.0462,-1.04482],[-74.03542,-1.0096],[-74.02767,-1.00433],[-74.01761,-1.00881],[-74.01548,-1.02214],[-74.01993,-1.03267],[-74.02328,-1.05703],[-74.01507,-1.08648],[-73.9998,-1.10249],[-73.98804,-1.10316],[-73.96464,-1.08275],[-73.95059,-1.09791],[-73.96656,-1.11778],[-73.95857,-1.13079],[-73.9478,-1.13211],[-73.92727,-1.12059],[-73.91374,-1.12003],[-73.89846,-1.13435],[-73.89441,-1.14991],[-73.89618,-1.16675],[-73.87142,-1.1973],[-73.86752,-1.22316],[-73.85713,-1.23178],[-73.82355,-1.23636],[-73.81168,-1.24865],[-73.80322,-1.24934],[-73.78976,-1.23968],[-73.78393,-1.24405],[-73.78438,-1.25657],[-73.77056,-1.25726],[-73.75401,-1.2384],[-73.75369,-1.20599],[-73.74294,-1.20064],[-73.741,-1.23426],[-73.73471,-1.24437],[-73.71815,-1.25113],[-73.69761,-1.24911],[-73.68093,-1.23802],[-73.66346,-1.24996],[-73.65146,-1.26478],[-73.63879,-1.26833],[-73.61995,-1.26131],[-73.61297,-1.31549],[-73.59881,-1.32803],[-73.59239,-1.32842],[-73.57653,-1.31806],[-73.56979,-1.32243],[-73.57682,-1.33616],[-73.57916,-1.35958],[-73.56497,-1.37221],[-73.55354,-1.39379],[-73.55022,-1.40688],[-73.559,-1.41907],[-73.57699,-1.41322],[-73.58536,-1.42307],[-73.57315,-1.42896],[-73.54429,-1.42981],[-73.53164,-1.43501],[-73.52882,-1.46467],[-73.511,-1.48213],[-73.49032,-1.48205],[-73.48528,-1.4951],[-73.49479,-1.50822],[-73.47857,-1.52209],[-73.48294,-1.5455],[-73.49076,-1.5563],[-73.4903,-1.5693],[-73.47579,-1.57449],[-73.46662,-1.5677],[-73.45741,-1.57701],[-73.46523,-1.59117],[-73.50117,-1.61915],[-73.50983,-1.63777],[-73.50949,-1.6481],[-73.52022,-1.66843],[-73.53696,-1.68836],[-73.52953,-1.70727],[-73.49995,-1.7312],[-73.45928,-1.7364],[-73.43566,-1.76248],[-73.43287,-1.78625],[-73.42565,-1.7903],[-73.40778,-1.78456],[-73.39744,-1.7758],[-73.38334,-1.77471],[-73.35455,-1.79492],[-73.33531,-1.80062],[-73.32537,-1.80755],[-73.32308,-1.8221],[-73.30956,-1.82576],[-73.30373,-1.81811],[-73.3094,-1.79235],[-73.30676,-1.78344],[-73.28846,-1.77618],[-73.2732,-1.78208],[-73.2525,-1.78021],[-73.24417,-1.78625],[-73.25679,-1.80252],[-73.24759,-1.80641],[-73.23223,-1.79938],[-73.22886,-1.78687],[-73.23207,-1.76106],[-73.22433,-1.74984],[-73.21539,-1.74958],[-73.20379,-1.76392],[-73.18427,-1.80849],[-73.16765,-1.80191],[-73.14636,-1.80397],[-73.14422,-1.82589],[-73.15236,-1.84537],[-73.15207,-1.85758],[-73.13734,-1.87116],[-73.11277,-1.87281],[-73.10741,-1.89407],[-73.11842,-1.91208],[-73.11365,-1.92806],[-73.11281,-1.95252],[-73.12337,-1.98122],[-73.12282,-2.00333],[-73.11867,-2.0157],[-73.10147,-2.02512],[-73.0944,-2.04223],[-73.10466,-2.0574],[-73.10692,-2.07362],[-73.10063,-2.08258],[-73.07065,-2.08317],[-73.07029,-2.0965],[-73.07673,-2.10819],[-73.11419,-2.13087],[-73.12314,-2.16654],[-73.13203,-2.18355],[-73.14862,-2.1879],[-73.16495,-2.18664],[-73.17147,-2.19814],[-73.16876,-2.22463],[-73.15163,-2.26016],[-73.119,-2.28454],[-73.1148,-2.29872],[-73.12501,-2.31522],[-73.1211,-2.32543],[-73.09997,-2.32457],[-73.08709,-2.31328],[-73.0683,-2.31514],[-73.06451,-2.3264],[-73.07026,-2.34204],[-73.06641,-2.35524],[-73.0523,-2.36086],[-73.04423,-2.35279],[-73.04241,-2.32326],[-73.03605,-2.31508],[-73.02403,-2.31881],[-73.01492,-2.34701],[-73.00651,-2.35625],[-72.99412,-2.35722],[-72.98568,-2.34413],[-72.97107,-2.33744],[-72.96336,-2.34315],[-72.956,-2.39155],[-72.94751,-2.40577],[-72.9251,-2.41554],[-72.92216,-2.42351],[-72.93446,-2.43913],[-72.93773,-2.45044],[-72.92714,-2.45414],[-72.90094,-2.43644],[-72.88909,-2.43332],[-72.86684,-2.43891],[-72.8518,-2.43578],[-72.82925,-2.41924],[-72.80281,-2.41071],[-72.78654,-2.39039],[-72.77645,-2.38437],[-72.75826,-2.39905],[-72.75324,-2.42366],[-72.74579,-2.42677],[-72.73378,-2.41962],[-72.73131,-2.39855],[-72.71518,-2.38559],[-72.70775,-2.38907],[-72.69212,-2.40629],[-72.68707,-2.42451],[-72.69218,-2.43874],[-72.68443,-2.45246],[-72.66709,-2.43995],[-72.66244,-2.41586],[-72.65342,-2.40164],[-72.63646,-2.38645],[-72.64183,-2.36914],[-72.63782,-2.36081],[-72.6197,-2.35628],[-72.59552,-2.36655],[-72.56879,-2.39758],[-72.53891,-2.40315],[-72.51916,-2.42522],[-72.49558,-2.41831],[-72.46645,-2.42123],[-72.44892,-2.43325],[-72.43196,-2.43785],[-72.42179,-2.43377],[-72.41163,-2.41432],[-72.39964,-2.43203],[-72.37942,-2.45498],[-72.38102,-2.47383],[-72.37502,-2.4881],[-72.36811,-2.48953],[-72.35231,-2.48172],[-72.32848,-2.47948],[-72.32138,-2.47351],[-72.30701,-2.47497],[-72.2909,-2.46914],[-72.28889,-2.45685],[-72.27897,-2.45304],[-72.25955,-2.45852],[-72.25732,-2.44822],[-72.26216,-2.4355],[-72.24422,-2.43066],[-72.22692,-2.44625],[-72.20567,-2.44595],[-72.19205,-2.43417],[-72.1795,-2.42899],[-72.16421,-2.43759],[-72.16635,-2.46441],[-72.14982,-2.47002],[-72.14048,-2.46197],[-72.13761,-2.44647],[-72.14494,-2.43195],[-72.14777,-2.41563],[-72.13826,-2.40021],[-72.12545,-2.39687],[-72.11123,-2.38612],[-72.09783,-2.37027],[-72.08206,-2.36796],[-72.06849,-2.34967],[-72.04874,-2.33494],[-72.0372,-2.338],[-72.01011,-2.36895],[-71.97895,-2.3673],[-71.96196,-2.35714],[-71.94978,-2.35636],[-71.93998,-2.36232],[-71.93858,-2.37444],[-71.92627,-2.38073],[-71.91922,-2.36542],[-71.93832,-2.32835],[-71.93657,-2.3147],[-71.92606,-2.30778],[-71.90268,-2.31327],[-71.88476,-2.31159],[-71.87246,-2.29544],[-71.86387,-2.2698],[-71.85436,-2.23044],[-71.84206,-2.21376],[-71.83277,-2.19042],[-71.82101,-2.18923],[-71.80975,-2.20418],[-71.79913,-2.20437],[-71.7851,-2.17753],[-71.7698,-2.17004],[-71.76861,-2.1602],[-71.74059,-2.1422],[-71.72741,-2.1409],[-71.71892,-2.15994],[-71.72194,-2.17794],[-71.73122,-2.20145],[-71.72869,-2.21983],[-71.723,-2.22655],[-71.7085,-2.22733],[-71.66403,-2.2023],[-71.64768,-2.20006],[-71.63254,-2.20677],[-71.60408,-2.23139],[-71.58583,-2.23875],[-71.5601,-2.23954],[-71.5344,-2.24872],[-71.51889,-2.24897],[-71.51615,-2.25901],[-71.52054,-2.29713],[-71.51411,-2.31737],[-71.51238,-2.33487],[-71.50046,-2.35221],[-71.48367,-2.35095],[-71.47997,-2.33086],[-71.49615,-2.29334],[-71.49481,-2.278],[-71.47732,-2.26936],[-71.46335,-2.27109],[-71.4461,-2.28592],[-71.42539,-2.32428],[-71.3964,-2.34711],[-71.39676,-2.36334],[-71.40601,-2.3846],[-71.40178,-2.40146],[-71.3904,-2.40711],[-71.37109,-2.38935],[-71.34694,-2.37926],[-71.33486,-2.38177],[-71.31674,-2.3744],[-71.30947,-2.35249],[-71.30239,-2.34357],[-71.26983,-2.3333],[-71.26638,-2.34491],[-71.27078,-2.35604],[-71.26011,-2.35683],[-71.24575,-2.33777],[-71.23108,-2.33761],[-71.21947,-2.3482],[-71.21022,-2.3646],[-71.20018,-2.37456],[-71.17578,-2.37903],[-71.17201,-2.37275],[-71.16684,-2.33777],[-71.15083,-2.33439],[-71.14076,-2.34281],[-71.13032,-2.33749],[-71.13355,-2.31801],[-71.14323,-2.30459],[-71.13358,-2.28513],[-71.09918,-2.27635],[-71.05333,-2.27062],[-71.02642,-2.28027],[-71.01691,-2.29553],[-70.99839,-2.30393],[-70.98908,-2.29635],[-70.99447,-2.27782],[-71.01772,-2.24081],[-71.01891,-2.22687],[-71.00917,-2.21061],[-71.00021,-2.20785],[-70.9727,-2.21422],[-70.95937,-2.23768],[-70.94145,-2.25321],[-70.92066,-2.25014],[-70.89961,-2.22535],[-70.87939,-2.22089],[-70.86375,-2.22712],[-70.85189,-2.24414],[-70.84211,-2.28081],[-70.83595,-2.29081],[-70.81334,-2.29475],[-70.77776,-2.29299],[-70.76697,-2.30021],[-70.75979,-2.31987],[-70.75124,-2.32827],[-70.7295,-2.33107],[-70.69389,-2.33926],[-70.66592,-2.35377],[-70.66273,-2.36377],[-70.67589,-2.38375],[-70.67844,-2.40214],[-70.66488,-2.41041],[-70.64484,-2.40551],[-70.62997,-2.39291],[-70.62707,-2.39753],[-70.6283,-2.42162],[-70.63918,-2.44184],[-70.63829,-2.46577],[-70.62723,-2.47638],[-70.5993,-2.48444],[-70.58314,-2.48155],[-70.56164,-2.47301],[-70.55126,-2.45625],[-70.56022,-2.44112],[-70.59346,-2.4304],[-70.58992,-2.41789],[-70.56442,-2.41837],[-70.54147,-2.43207],[-70.5238,-2.46243],[-70.5174,-2.46899],[-70.50045,-2.47277],[-70.47506,-2.45507],[-70.46604,-2.45893],[-70.45148,-2.48157],[-70.44827,-2.50492],[-70.43723,-2.52125],[-70.41254,-2.5257],[-70.3766,-2.49513],[-70.35791,-2.48932],[-70.31988,-2.50415],[-70.30364,-2.5014],[-70.29517,-2.51263],[-70.3018,-2.52822],[-70.31766,-2.53635],[-70.33902,-2.53772],[-70.3545,-2.54527],[-70.35895,-2.55976],[-70.35191,-2.56854],[-70.33458,-2.57789],[-70.32304,-2.57908],[-70.30253,-2.57319],[-70.28792,-2.56324],[-70.27384,-2.54733],[-70.2634,-2.5436],[-70.24219,-2.55281],[-70.23006,-2.57459],[-70.22262,-2.62984],[-70.21933,-2.64359],[-70.20748,-2.65691],[-70.1963,-2.65898],[-70.18418,-2.63813],[-70.17249,-2.63324],[-70.16151,-2.64025],[-70.15421,-2.65688],[-70.16206,-2.68785],[-70.13535,-2.7027],[-70.11843,-2.69863],[-70.10926,-2.68488],[-70.10327,-2.65736],[-70.09091,-2.64715],[-70.0789,-2.65539],[-70.06604,-2.6841],[-70.07125,-2.72432],[-70.06563,-2.75043],[-70.06006,-2.75892],[-70.07361,-2.79066],[-70.07994,-2.79566],[-70.10556,-2.83649],[-70.47792,-3.42422],[-70.49277,-3.41879],[-70.51447,-3.39997],[-70.52956,-3.39567],[-70.55349,-3.40093],[-70.58317,-3.4166],[-70.61328,-3.42019],[-70.62872,-3.41783],[-70.65445,-3.40669],[-70.67135,-3.37848],[-70.68907,-3.36685],[-70.71462,-3.36395],[-70.72768,-3.36927],[-70.77566,-3.37473],[-70.79835,-3.3753],[-70.81539,-3.37189],[-70.87053,-3.35541],[-70.90572,-3.34193],[-70.92185,-3.33281],[-70.969,-3.29884],[-70.97588,-3.28079],[-71.01335,-3.25818],[-71.03505,-3.25576],[-71.05589,-3.246],[-71.05962,-3.22359],[-71.06812,-3.2125],[-71.08921,-3.2143],[-71.15424,-3.21081],[-71.19206,-3.21863],[-71.22226,-3.21704],[-71.2424,-3.22409],[-71.24848,-3.21311],[-71.27364,-3.19945],[-71.29714,-3.20016],[-71.30375,-3.18711],[-71.31634,-3.17934],[-71.35404,-3.17203],[-71.366,-3.17621],[-71.37683,-3.19178],[-71.38959,-3.19582],[-71.43307,-3.20143],[-71.44389,-3.19621],[-71.44667,-3.18279],[-71.44443,-3.16583],[-71.47702,-3.151],[-71.50019,-3.11217],[-71.52082,-3.09928],[-71.54058,-3.09635],[-71.56515,-3.08856],[-71.59323,-3.07086],[-71.63246,-3.06268],[-71.6625,-3.04133],[-71.69686,-3.04607],[-71.73961,-3.0395],[-71.75762,-3.02894],[-71.77129,-3.01554],[-71.78543,-2.98749],[-71.78985,-2.95793],[-71.78536,-2.94112],[-71.78861,-2.92669],[-71.80251,-2.91364],[-71.81457,-2.90812],[-71.83918,-2.9122],[-71.85556,-2.9104],[-71.88712,-2.89705],[-71.93311,-2.89364],[-71.98064,-2.87749],[-71.9977,-2.86563],[-72.01121,-2.84724],[-72.02606,-2.81932],[-72.03481,-2.81634],[-72.06318,-2.83379],[-72.07865,-2.83972],[-72.10428,-2.83861],[-72.11813,-2.83431],[-72.14681,-2.81012],[-72.16346,-2.80174],[-72.18511,-2.80049],[-72.19671,-2.80527],[-72.22707,-2.83078],[-72.24266,-2.83835],[-72.25897,-2.83946],[-72.29268,-2.83186],[-72.31855,-2.83439],[-72.34286,-2.84138],[-72.36385,-2.83982],[-72.37704,-2.85201],[-72.39979,-2.85257],[-72.42124,-2.84296],[-72.44632,-2.84477],[-72.51033,-2.87615],[-72.54422,-2.88752],[-72.57077,-2.8909]]]}}]}