{"type":"FeatureCollection","features":[{"type":"Feature","properties":{"ubigeo":"1701","nombre":"Tambopata"},"geometry":{"type":"Polygon","coordinates":[[[-68.87187,-13.00393],[-68.9274,-13.02888],[-69.04859,-13.08087],[-69.1138,-13.10982],[-69.22016,-13.15573],[-69.3106,-13.19578],[-69.50744,-13.28107],[-69.64723,-13.34124],[-69.64986,-13.34172],[-69.69864,-13.32748],[-69.97416,-13.2451],[-70.03255,-13.22375],[-70.40287,-13.11441],[-70.3937,-13.09437],[-70.3884,-13.06915],[-70.37946,-13.04164],[-70.36844,-13.0291],[-70.3593,-13.00841],[-70.35617,-12.98296],[-70.35781,-12.96801],[-70.35274,-12.94489],[-70.35382,-12.91449],[-70.34531,-12.90139],[-70.34076,-12.88395],[-70.32436,-12.85994],[-70.29399,-12.84578],[-70.28727,-12.83548],[-70.28377,-12.81863],[-70.27475,-12.80365],[-70.25693,-12.78276],[-70.25251,-12.74961],[-70.24708,-12.73945],[-70.23086,-12.73039],[-70.19585,-12.72094],[-70.16866,-12.69221],[-70.16155,-12.67868],[-70.14534,-12.67251],[-70.13103,-12.65819],[-70.10302,-12.65325],[-70.07502,-12.63935],[-70.05855,-12.61608],[-70.03839,-12.60871],[-70.03941,-12.59094],[-70.0533,-12.58037],[-70.06729,-12.57967],[-70.0723,-12.56856],[-70.0818,-12.56624],[-70.08252,-12.55407],[-70.0928,-12.55744],[-70.09005,-12.54513],[-70.09701,-12.54868],[-70.09554,-12.53574],[-70.10617,-12.51658],[-70.10343,-12.5083],[-70.12086,-12.50474],[-70.1193,-12.51173],[-70.1331,-12.50924],[-70.13001,-12.50187],[-70.15496,-12.49411],[-70.16094,-12.48759],[-70.17423,-12.49092],[-70.17347,-12.48374],[-70.19081,-12.47984],[-70.19021,-12.47166],[-70.20104,-12.47106],[-70.206,-12.47815],[-70.21043,-12.46526],[-70.21902,-12.47262],[-70.22959,-12.46686],[-70.23127,-12.45359],[-70.23779,-12.45737],[-70.25045,-12.44745],[-70.25033,-12.42846],[-70.26374,-12.42361],[-70.25243,-12.41238],[-70.25659,-12.40616],[-70.24769,-12.39494],[-70.25589,-12.37415],[-70.24846,-12.36165],[-70.25677,-12.3606],[-70.26294,-12.34299],[-70.27967,-12.32001],[-70.27558,-12.31312],[-70.28404,-12.30291],[-70.28042,-12.29394],[-70.29417,-12.29597],[-70.3015,-12.28062],[-70.30576,-12.25831],[-70.32019,-12.24389],[-70.31579,-12.23126],[-70.3261,-12.22923],[-70.33533,-12.22018],[-70.33903,-12.23007],[-70.3475,-12.20445],[-70.35441,-12.19343],[-70.37411,-12.19283],[-70.3716,-12.18179],[-70.38079,-12.1799],[-70.38105,-12.17176],[-70.39634,-12.15354],[-70.40993,-12.14742],[-70.42144,-12.15269],[-70.4256,-12.14653],[-70.43582,-12.15442],[-70.43713,-12.14319],[-70.44513,-12.14494],[-70.4713,-12.1202],[-70.47949,-12.12168],[-70.49264,-12.10755],[-70.51424,-12.11439],[-70.52248,-12.11096],[-70.53394,-12.11908],[-70.54956,-12.09922],[-70.56902,-12.08953],[-70.57581,-12.0733],[-70.58696,-12.07822],[-70.58899,-12.06798],[-70.60217,-12.06208],[-70.60045,-12.05132],[-70.61092,-12.05111],[-70.6047,-12.03817],[-70.62408,-12.05167],[-70.63963,-12.02596],[-70.64009,-12.01363],[-70.64661,-12.01328],[-70.64561,-12.00178],[-70.65562,-12.0037],[-70.67408,-11.99369],[-70.68567,-12.00456],[-70.71681,-11.98685],[-70.72467,-11.9907],[-70.73363,-11.98359],[-70.74371,-11.98764],[-70.74666,-11.99799],[-70.76858,-11.99598],[-70.79685,-11.98245],[-70.8059,-11.98582],[-70.82579,-11.96579],[-70.846,-11.96133],[-70.85318,-11.96651],[-70.8665,-11.956],[-70.87602,-11.93913],[-70.88295,-11.94303],[-70.89607,-11.92401],[-70.89758,-11.91572],[-70.90768,-11.91584],[-70.91744,-11.92465],[-70.9286,-11.91689],[-70.94084,-11.92005],[-70.95125,-11.92897],[-70.95706,-11.91596],[-70.97252,-11.92321],[-71.00469,-11.90023],[-71.00838,-11.89321],[-71.02083,-11.89379],[-71.02616,-11.88501],[-71.0207,-11.86763],[-71.03548,-11.86506],[-71.03732,-11.8741],[-71.04977,-11.86182],[-71.04453,-11.85347],[-71.0565,-11.83776],[-71.05973,-11.80629],[-71.06399,-11.79272],[-71.09073,-11.77004],[-71.11566,-11.76206],[-71.12629,-11.75334],[-71.14147,-11.75377],[-71.16336,-11.74961],[-71.17578,-11.763],[-71.19687,-11.76371],[-71.20923,-11.75658],[-71.20995,-11.75021],[-71.23287,-11.73455],[-71.25143,-11.70817],[-71.27395,-11.694],[-71.30363,-11.68443],[-71.31416,-11.68678],[-71.32066,-11.67919],[-71.31284,-11.65948],[-71.3165,-11.65307],[-71.3308,-11.65556],[-71.34381,-11.64239],[-71.33862,-11.62969],[-71.34551,-11.63019],[-71.358,-11.61537],[-71.3633,-11.61651],[-71.37678,-11.60114],[-71.36895,-11.59688],[-71.38588,-11.5759],[-71.41063,-11.57735],[-71.39996,-11.56493],[-71.3987,-11.55307],[-71.41573,-11.52885],[-71.42424,-11.50348],[-71.44109,-11.50188],[-71.44954,-11.50993],[-71.46221,-11.51203],[-71.49381,-11.48905],[-71.5037,-11.4914],[-71.52958,-11.48042],[-71.54838,-11.4865],[-71.55788,-11.48466],[-71.56384,-11.47587],[-71.57873,-11.46963],[-71.59114,-11.43113],[-71.61791,-11.43532],[-71.63055,-11.42373],[-71.64598,-11.42942],[-71.6647,-11.41939],[-71.66525,-11.4052],[-71.65352,-11.39793],[-71.64861,-11.37773],[-71.65765,-11.36509],[-71.66003,-11.3525],[-71.66781,-11.35472],[-71.68227,-11.37206],[-71.69098,-11.37398],[-71.6992,-11.3552],[-71.72436,-11.33873],[-71.73365,-11.34297],[-71.75021,-11.3299],[-71.75762,-11.34133],[-71.76383,-11.34081],[-71.77447,-11.3257],[-71.78741,-11.32111],[-71.81516,-11.31944],[-71.82613,-11.3151],[-71.8351,-11.33259],[-71.84553,-11.34273],[-71.84387,-11.35132],[-71.85387,-11.36815],[-71.87899,-11.36393],[-71.89356,-11.35287],[-71.90621,-11.35153],[-71.92043,-11.36137],[-71.92647,-11.37433],[-71.94561,-11.38631],[-71.98248,-11.38855],[-71.99936,-11.37045],[-72.00904,-11.37455],[-72.02422,-11.36963],[-72.03524,-11.38244],[-72.05258,-11.37425],[-72.06717,-11.38288],[-72.07611,-11.37842],[-72.09687,-11.3776],[-72.10983,-11.37],[-72.11459,-11.35638],[-72.10298,-11.34432],[-72.11206,-11.33107],[-72.13193,-11.33092],[-72.16309,-11.32012],[-72.17899,-11.32487],[-72.18411,-11.33147],[-72.18474,-11.35102],[-72.1905,-11.35523],[-72.20462,-11.34743],[-72.21846,-11.30029],[-72.21147,-11.2776],[-72.19941,-11.26424],[-72.20518,-11.2399],[-72.19706,-11.22786],[-72.20024,-11.2053],[-72.18966,-11.19092],[-72.19593,-11.17401],[-72.20488,-11.17096],[-72.19386,-11.15666],[-72.18794,-11.16373],[-72.18432,-11.15554],[-72.17648,-11.15911],[-72.16928,-11.14374],[-72.13825,-11.13689],[-72.12247,-11.12358],[-72.12141,-11.10714],[-72.12588,-11.10115],[-72.15177,-11.08644],[-72.1833,-11.09259],[-72.18698,-11.06865],[-72.18251,-11.0578],[-72.19306,-11.04968],[-72.17761,-11.04067],[-72.16144,-11.05029],[-72.16071,-11.06135],[-72.15051,-11.07578],[-72.13851,-11.08358],[-72.10724,-11.07857],[-72.09831,-11.08239],[-72.08989,-11.07772],[-72.08842,-11.06784],[-72.07654,-11.05488],[-72.0694,-11.06396],[-72.05657,-11.0623],[-72.05499,-11.07047],[-72.03708,-11.06337],[-72.01804,-11.06368],[-72.00645,-11.05521],[-71.99575,-11.05731],[-71.97765,-11.05247],[-71.94069,-11.06165],[-71.94158,-11.05347],[-71.92416,-11.04662],[-71.89987,-11.04758],[-71.9042,-11.05978],[-71.89404,-11.06508],[-71.87485,-11.05736],[-71.87517,-11.0501],[-71.85985,-11.04657],[-71.86929,-11.03984],[-71.85113,-11.04303],[-71.84403,-11.05289],[-71.8368,-11.04833],[-71.82118,-11.06601],[-71.81156,-11.07055],[-71.79671,-11.06909],[-71.79054,-11.07817],[-71.77804,-11.0741],[-71.75569,-11.0736],[-71.74761,-11.08443],[-71.74147,-11.07588],[-71.73164,-11.07397],[-71.72638,-11.06433],[-71.72235,-11.07199],[-71.71253,-11.07105],[-71.71497,-11.08041],[-71.70667,-11.08993],[-71.69346,-11.09262],[-71.68933,-11.10042],[-71.67296,-11.0946],[-71.65402,-11.09247],[-71.64829,-11.09845],[-71.63589,-11.08956],[-71.62921,-11.10575],[-71.62322,-11.09302],[-71.611,-11.09742],[-71.59712,-11.09059],[-71.58195,-11.10293],[-71.57939,-11.09022],[-71.56847,-11.08344],[-71.55898,-11.09341],[-71.54433,-11.08275],[-71.53946,-11.09997],[-71.53612,-11.08758],[-71.52403,-11.08693],[-71.51245,-11.09971],[-71.49685,-11.10666],[-71.49688,-11.09026],[-71.485,-11.09309],[-71.47379,-11.10636],[-71.45994,-11.1046],[-71.45031,-11.11064],[-71.44238,-11.1032],[-71.43634,-11.10937],[-71.4463,-11.11714],[-71.43394,-11.13082],[-71.43977,-11.13735],[-71.41972,-11.13698],[-71.39868,-11.15149],[-71.38391,-11.14856],[-71.37526,-11.16112],[-71.37961,-11.17515],[-71.37142,-11.17835],[-71.37208,-11.16469],[-71.34492,-11.16315],[-71.33595,-11.15501],[-71.33319,-11.1699],[-71.31102,-11.16821],[-71.31513,-11.18007],[-71.30698,-11.18534],[-71.30079,-11.17997],[-71.29264,-11.18668],[-71.28006,-11.18033],[-71.26843,-11.19099],[-71.25303,-11.19141],[-71.24645,-11.18103],[-71.24265,-11.19649],[-71.23264,-11.2015],[-71.23626,-11.21871],[-71.22747,-11.21248],[-71.22379,-11.20059],[-71.21684,-11.21073],[-71.20034,-11.20893],[-71.18986,-11.21315],[-71.17882,-11.22839],[-71.17415,-11.21611],[-71.15895,-11.21135],[-71.15364,-11.22712],[-71.13141,-11.22236],[-71.12329,-11.23719],[-71.10306,-11.22091],[-71.10581,-11.22995],[-71.09544,-11.24098],[-71.09052,-11.23012],[-71.0825,-11.23618],[-71.06752,-11.23734],[-71.06948,-11.25093],[-71.06303,-11.25016],[-71.05855,-11.23788],[-71.05216,-11.24793],[-71.03225,-11.24726],[-71.03868,-11.25974],[-71.02965,-11.2571],[-71.02668,-11.24348],[-71.01556,-11.24852],[-71.01353,-11.26506],[-71.00128,-11.25373],[-70.99819,-11.26071],[-70.98192,-11.26794],[-70.96562,-11.2677],[-70.9616,-11.27487],[-70.94595,-11.28109],[-70.94384,-11.28969],[-70.93035,-11.27539],[-70.92276,-11.29009],[-70.91344,-11.27747],[-70.8918,-11.28825],[-70.88894,-11.28324],[-70.87492,-11.28474],[-70.87944,-11.27413],[-70.86083,-11.27806],[-70.86339,-11.29332],[-70.87672,-11.3108],[-70.85278,-11.31837],[-70.84825,-11.32583],[-70.83309,-11.3279],[-70.82381,-11.31873],[-70.81226,-11.32499],[-70.81884,-11.3463],[-70.80514,-11.34779],[-70.79649,-11.35915],[-70.79054,-11.35712],[-70.80009,-11.34121],[-70.78878,-11.34743],[-70.78274,-11.36149],[-70.7662,-11.3842],[-70.75841,-11.37947],[-70.74908,-11.38425],[-70.72201,-11.37865],[-70.5849,-11.36411],[-70.50686,-11.35477],[-70.4922,-11.35606],[-70.47571,-11.35251],[-70.45386,-11.37317],[-70.4526,-11.39469],[-70.43514,-11.40354],[-70.43093,-11.41372],[-70.41608,-11.42849],[-70.40247,-11.43483],[-70.37727,-11.434],[-70.35477,-11.45418],[-70.34158,-11.44558],[-70.32847,-11.45262],[-70.30442,-11.45205],[-70.2897,-11.46139],[-70.27926,-11.47489],[-70.27838,-11.48863],[-70.26218,-11.50887],[-70.25669,-11.53093],[-70.24106,-11.54286],[-70.23927,-11.55908],[-70.21775,-11.57185],[-70.21386,-11.58563],[-70.19073,-11.60346],[-70.1873,-11.61651],[-70.16676,-11.6331],[-70.13441,-11.64469],[-70.13464,-11.65198],[-70.1123,-11.66804],[-70.08694,-11.67485],[-70.07821,-11.67006],[-70.07206,-11.681],[-70.05578,-11.68512],[-70.04039,-11.70341],[-70.03032,-11.71005],[-69.99455,-11.70378],[-69.98304,-11.71274],[-69.96011,-11.71006],[-69.95418,-11.72],[-69.9318,-11.73268],[-69.92249,-11.72733],[-69.9212,-11.73904],[-69.9132,-11.73631],[-69.8986,-11.75935],[-69.87293,-11.76704],[-69.86072,-11.77928],[-69.83964,-11.78213],[-69.82768,-11.79001],[-69.80963,-11.78416],[-69.80349,-11.79548],[-69.7732,-11.79615],[-69.7601,-11.80405],[-69.73936,-11.79629],[-69.72543,-11.80616],[-69.71989,-11.78967],[-69.70937,-11.79348],[-69.70728,-11.78392],[-69.69786,-11.78087],[-69.6939,-11.76959],[-69.67616,-11.77003],[-69.66837,-11.75897],[-69.6552,-11.75878],[-69.64791,-11.77039],[-69.62858,-11.76006],[-69.61201,-11.76773],[-69.61172,-11.77415],[-69.58749,-11.77775],[-69.58357,-11.79588],[-69.56641,-11.79693],[-69.55506,-11.80306],[-69.54715,-11.82115],[-69.52866,-11.82519],[-69.52304,-11.84123],[-69.49558,-11.84492],[-69.48412,-11.85728],[-69.47374,-11.86121],[-69.46107,-11.87503],[-69.44062,-11.86799],[-69.43646,-11.87223],[-69.42078,-11.86586],[-69.38654,-11.88387],[-69.38192,-11.88163],[-69.35683,-11.90237],[-69.32192,-11.90289],[-69.31139,-11.91042],[-69.28655,-11.89957],[-69.27262,-11.90164],[-69.26805,-11.89574],[-69.2521,-11.89613],[-69.2442,-11.88263],[-69.23085,-11.88524],[-69.21739,-11.89897],[-69.21426,-11.89339],[-69.19124,-11.90999],[-69.17625,-11.91426],[-69.14899,-11.91156],[-69.13383,-11.91547],[-69.12523,-11.92775],[-69.11604,-11.93175],[-69.09647,-11.92174],[-69.09193,-11.91082],[-69.08114,-11.90616],[-69.05946,-11.90935],[-69.05554,-11.91471],[-69.03401,-11.9155],[-69.01829,-11.91958],[-69.0124,-11.91267],[-68.99323,-11.91431],[-68.98196,-11.90799],[-68.97029,-11.91315],[-68.88364,-12.07263],[-68.77352,-12.27824],[-68.67777,-12.45532],[-68.65447,-12.49943],[-68.65309,-12.50966],[-68.66029,-12.52003],[-68.65459,-12.52712],[-68.65939,-12.53624],[-68.66385,-12.52462],[-68.67795,-12.52288],[-68.67228,-12.54168],[-68.67448,-12.55297],[-68.6898,-12.55626],[-68.6999,-12.57924],[-68.71013,-12.59069],[-68.71574,-12.60526],[-68.72242,-12.60222],[-68.73241,-12.61094],[-68.73406,-12.62445],[-68.74059,-12.63276],[-68.73137,-12.65317],[-68.73445,-12.66629],[-68.72034,-12.66682],[-68.71252,-12.68164],[-68.7271,-12.69074],[-68.72513,-12.69726],[-68.74201,-12.70732],[-68.72848,-12.71381],[-68.74011,-12.71732],[-68.74172,-12.72494],[-68.76746,-12.74221],[-68.77854,-12.73328],[-68.78822,-12.75695],[-68.8018,-12.75558],[-68.80416,-12.77029],[-68.81775,-12.7897],[-68.80807,-12.80925],[-68.82507,-12.80577],[-68.83469,-12.81316],[-68.83816,-12.82606],[-68.83095,-12.84166],[-68.84175,-12.84434],[-68.83483,-12.8562],[-68.84906,-12.86596],[-68.85901,-12.85926],[-68.86889,-12.86849],[-68.8644,-12.87361],[-68.87228,-12.89011],[-68.87395,-12.92033],[-68.86152,-12.92469],[-68.87311,-12.94027],[-68.86153,-12.94925],[-68.87455,-12.94714],[-68.87671,-12.95935],[-68.87392,-12.98034],[-68.86397,-12.97269],[-68.86286,-12.98362],[-68.87566,-12.98587],[-68.86717,-12.9958],[-68.87187,-13.00393]]]}},{"type":"Feature","properties":{"ubigeo":"1702","nombre":"Manu"},"geometry":{"type":"Polygon","coordinates":[[[-70.38847,-13.19239],[-70.39548,-13.18305],[-70.44651,-13.17038],[-70.46425,-13.15969],[-70.50076,-13.15654],[-70.50432,-13.15946],[-70.52973,-13.15256],[-70.54985,-13.15286],[-70.55801,-13.13669],[-70.57053,-13.13032],[-70.58754,-13.10313],[-70.60638,-13.10174],[-70.62491,-13.09314],[-70.65008,-13.09383],[-70.65976,-13.08846],[-70.68344,-13.09843],[-70.68394,-13.10547],[-70.70565,-13.10516],[-70.71005,-13.10946],[-70.74602,-13.10349],[-70.75841,-13.10804],[-70.77429,-13.10328],[-70.79985,-13.08991],[-70.81448,-13.07129],[-70.84296,-13.06705],[-70.85242,-13.0791],[-70.86311,-13.08032],[-70.88218,-13.07067],[-70.89927,-13.06968],[-70.89903,-13.08075],[-70.88733,-13.10304],[-70.92139,-13.11083],[-70.92826,-13.12924],[-70.94228,-13.13549],[-70.93764,-13.14408],[-70.94219,-13.1565],[-70.96298,-13.16948],[-70.97452,-13.16829],[-70.99432,-13.20322],[-70.99085,-13.22155],[-71.00786,-13.23097],[-71.01149,-13.23979],[-71.0079,-13.25153],[-71.01404,-13.26719],[-71.0279,-13.27068],[-71.04095,-13.26875],[-71.06418,-13.2567],[-71.09106,-13.24032],[-71.12201,-13.23353],[-71.12763,-13.22686],[-71.13935,-13.1958],[-71.14024,-13.16973],[-71.1465,-13.1475],[-71.14381,-13.14],[-71.15114,-13.12412],[-71.16479,-13.11235],[-71.16818,-13.09409],[-71.16158,-13.06646],[-71.17332,-13.05644],[-71.17183,-13.03684],[-71.16623,-13.02252],[-71.16862,-13.01013],[-71.17826,-13.00373],[-71.17304,-12.98333],[-71.159,-12.97868],[-71.16353,-12.96585],[-71.17641,-12.97094],[-71.19506,-12.95997],[-71.22556,-12.96002],[-71.22972,-12.97196],[-71.25211,-12.96398],[-71.27172,-12.96184],[-71.27163,-12.95537],[-71.30067,-12.94185],[-71.30162,-12.9351],[-71.31541,-12.93073],[-71.34127,-12.89554],[-71.35992,-12.88251],[-71.36021,-12.89012],[-71.37562,-12.90061],[-71.39622,-12.88286],[-71.41524,-12.89426],[-71.4243,-12.87589],[-71.43591,-12.87652],[-71.44976,-12.85829],[-71.44249,-12.85361],[-71.44507,-12.84073],[-71.45597,-12.84005],[-71.44616,-12.82766],[-71.45832,-12.8259],[-71.46485,-12.8097],[-71.48606,-12.78752],[-71.49566,-12.78198],[-71.50265,-12.75617],[-71.51227,-12.74519],[-71.52353,-12.7472],[-71.53344,-12.73858],[-71.5473,-12.73445],[-71.55267,-12.72402],[-71.55344,-12.70834],[-71.6003,-12.70006],[-71.63946,-12.70968],[-71.66054,-12.72892],[-71.68383,-12.73315],[-71.69497,-12.73879],[-71.6927,-12.74678],[-71.70064,-12.76437],[-71.72352,-12.78667],[-71.74694,-12.79611],[-71.76021,-12.78792],[-71.76466,-12.76746],[-71.79976,-12.76527],[-71.81059,-12.74498],[-71.83283,-12.74218],[-71.88162,-12.73044],[-71.90035,-12.73336],[-71.91841,-12.71899],[-71.91646,-12.70332],[-71.95312,-12.69065],[-71.96489,-12.69358],[-71.9786,-12.68333],[-71.96937,-12.66142],[-71.95638,-12.65487],[-71.95713,-12.63949],[-71.96506,-12.63197],[-71.96641,-12.61282],[-71.9839,-12.60879],[-71.9814,-12.58049],[-71.99096,-12.57799],[-72.00804,-12.56042],[-72.00799,-12.55098],[-72.03146,-12.52477],[-72.05185,-12.51866],[-72.0547,-12.509],[-72.07113,-12.51148],[-72.07896,-12.49863],[-72.07087,-12.48886],[-72.0651,-12.47152],[-72.06149,-12.44045],[-72.04928,-12.43313],[-72.04646,-12.4224],[-72.03714,-12.42277],[-72.01748,-12.41518],[-72.00984,-12.40423],[-71.99378,-12.39922],[-71.97601,-12.39878],[-71.96297,-12.37146],[-71.97057,-12.35897],[-71.96189,-12.33817],[-71.94589,-12.33022],[-71.95883,-12.3201],[-71.97303,-12.32054],[-71.99089,-12.30601],[-72.01426,-12.29792],[-72.02999,-12.2863],[-72.03384,-12.26504],[-72.04891,-12.25401],[-72.05644,-12.25728],[-72.0753,-12.24326],[-72.08517,-12.24636],[-72.10551,-12.23806],[-72.1014,-12.2171],[-72.09197,-12.19101],[-72.10021,-12.17166],[-72.08756,-12.14269],[-72.09265,-12.13228],[-72.09583,-12.10076],[-72.09445,-12.08519],[-72.13152,-12.07132],[-72.14528,-12.06969],[-72.17373,-12.05981],[-72.18982,-12.05885],[-72.22965,-12.06178],[-72.26893,-12.05437],[-72.27249,-12.04738],[-72.27089,-12.02995],[-72.2593,-12.0063],[-72.28084,-11.99653],[-72.28237,-11.97948],[-72.28917,-11.97476],[-72.31184,-11.97444],[-72.33747,-11.96808],[-72.33827,-11.92421],[-72.3469,-11.91569],[-72.34751,-11.89127],[-72.34026,-11.86801],[-72.33215,-11.85553],[-72.3597,-11.84651],[-72.36563,-11.83785],[-72.3913,-11.82635],[-72.39179,-11.80952],[-72.37453,-11.79468],[-72.37077,-11.78497],[-72.38235,-11.77454],[-72.38463,-11.76238],[-72.42243,-11.73895],[-72.4282,-11.70518],[-72.41007,-11.69301],[-72.40529,-11.6748],[-72.38744,-11.65929],[-72.39048,-11.65127],[-72.37532,-11.64417],[-72.36963,-11.63029],[-72.35562,-11.63503],[-72.35094,-11.6218],[-72.32789,-11.60753],[-72.31551,-11.59558],[-72.30622,-11.57242],[-72.31263,-11.56542],[-72.30378,-11.53153],[-72.30563,-11.51594],[-72.29823,-11.50293],[-72.30398,-11.49784],[-72.28963,-11.48285],[-72.28746,-11.46665],[-72.29235,-11.45094],[-72.29255,-11.43327],[-72.28141,-11.42103],[-72.26669,-11.39647],[-72.24789,-11.38501],[-72.23926,-11.34506],[-72.22667,-11.34261],[-72.20462,-11.34743],[-72.1905,-11.35523],[-72.18474,-11.35102],[-72.18411,-11.33147],[-72.17899,-11.32487],[-72.16309,-11.32012],[-72.13193,-11.33092],[-72.11206,-11.33107],[-72.10298,-11.34432],[-72.11459,-11.35638],[-72.10983,-11.37],[-72.09687,-11.3776],[-72.07611,-11.37842],[-72.06717,-11.38288],[-72.05258,-11.37425],[-72.03524,-11.38244],[-72.02422,-11.36963],[-72.00904,-11.37455],[-71.99936,-11.37045],[-71.98248,-11.38855],[-71.94561,-11.38631],[-71.92647,-11.37433],[-71.92043,-11.36137],[-71.90621,-11.35153],[-71.89356,-11.35287],[-71.87899,-11.36393],[-71.85387,-11.36815],[-71.84387,-11.35132],[-71.84553,-11.34273],[-71.8351,-11.33259],[-71.82613,-11.3151],[-71.81516,-11.31944],[-71.78741,-11.32111],[-71.77447,-11.3257],[-71.76383,-11.34081],[-71.75762,-11.34133],[-71.75021,-11.3299],[-71.73365,-11.34297],[-71.72436,-11.33873],[-71.6992,-11.3552],[-71.69098,-11.37398],[-71.68227,-11.37206],[-71.66781,-11.35472],[-71.66003,-11.3525],[-71.65765,-11.36509],[-71.64861,-11.37773],[-71.65352,-11.39793],[-71.66525,-11.4052],[-71.6647,-11.41939],[-71.64598,-11.42942],[-71.63055,-11.42373],[-71.61791,-11.43532],[-71.59114,-11.43113],[-71.57873,-11.46963],[-71.56384,-11.47587],[-71.55788,-11.48466],[-71.54838,-11.4865],[-71.52958,-11.48042],[-71.5037,-11.4914],[-71.49381,-11.48905],[-71.46221,-11.51203],[-71.44954,-11.50993],[-71.44109,-11.50188],[-71.42424,-11.50348],[-71.41573,-11.52885],[-71.3987,-11.55307],[-71.39996,-11.56493],[-71.41063,-11.57735],[-71.38588,-11.5759],[-71.36895,-11.59688],[-71.37678,-11.60114],[-71.3633,-11.61651],[-71.358,-11.61537],[-71.34551,-11.63019],[-71.33862,-11.62969],[-71.34381,-11.64239],[-71.3308,-11.65556],[-71.3165,-11.65307],[-71.31284,-11.65948],[-71.32066,-11.67919],[-71.31416,-11.68678],[-71.30363,-11.68443],[-71.27395,-11.694],[-71.25143,-11.70817],[-71.23287,-11.73455],[-71.20995,-11.75021],[-71.20923,-11.75658],[-71.19687,-11.76371],[-71.17578,-11.763],[-71.16336,-11.74961],[-71.14147,-11.75377],[-71.12629,-11.75334],[-71.11566,-11.76206],[-71.09073,-11.77004],[-71.06399,-11.79272],[-71.05973,-11.80629],[-71.0565,-11.83776],[-71.04453,-11.85347],[-71.04977,-11.86182],[-71.03732,-11.8741],[-71.03548,-11.86506],[-71.0207,-11.86763],[-71.02616,-11.88501],[-71.02083,-11.89379],[-71.00838,-11.89321],[-71.00469,-11.90023],[-70.97252,-11.92321],[-70.95706,-11.91596],[-70.95125,-11.92897],[-70.94084,-11.92005],[-70.9286,-11.91689],[-70.91744,-11.92465],[-70.90768,-11.91584],[-70.89758,-11.91572],[-70.89607,-11.92401],[-70.88295,-11.94303],[-70.87602,-11.93913],[-70.8665,-11.956],[-70.85318,-11.96651],[-70.846,-11.96133],[-70.82579,-11.96579],[-70.8059,-11.98582],[-70.79685,-11.98245],[-70.76858,-11.99598],[-70.74666,-11.99799],[-70.74371,-11.98764],[-70.73363,-11.98359],[-70.72467,-11.9907],[-70.71681,-11.98685],[-70.68567,-12.00456],[-70.67408,-11.99369],[-70.65562,-12.0037],[-70.64561,-12.00178],[-70.64661,-12.01328],[-70.64009,-12.01363],[-70.63963,-12.02596],[-70.62408,-12.05167],[-70.6047,-12.03817],[-70.61092,-12.05111],[-70.60045,-12.05132],[-70.60217,-12.06208],[-70.58899,-12.06798],[-70.58696,-12.07822],[-70.57581,-12.0733],[-70.56902,-12.08953],[-70.54956,-12.09922],[-70.53394,-12.11908],[-70.52248,-12.11096],[-70.51424,-12.11439],[-70.49264,-12.10755],[-70.47949,-12.12168],[-70.4713,-12.1202],[-70.44513,-12.14494],[-70.43713,-12.14319],[-70.43582,-12.15442],[-70.4256,-12.14653],[-70.42144,-12.15269],[-70.40993,-12.14742],[-70.39634,-12.15354],[-70.38105,-12.17176],[-70.38079,-12.1799],[-70.3716,-12.18179],[-70.37411,-12.19283],[-70.35441,-12.19343],[-70.3475,-12.20445],[-70.33903,-12.23007],[-70.33533,-12.22018],[-70.3261,-12.22923],[-70.31579,-12.23126],[-70.32019,-12.24389],[-70.30576,-12.25831],[-70.3015,-12.28062],[-70.29417,-12.29597],[-70.28042,-12.29394],[-70.28404,-12.30291],[-70.27558,-12.31312],[-70.27967,-12.32001],[-70.26294,-12.34299],[-70.25677,-12.3606],[-70.24846,-12.36165],[-70.25589,-12.37415],[-70.24769,-12.39494],[-70.25659,-12.40616],[-70.25243,-12.41238],[-70.26374,-12.42361],[-70.25033,-12.42846],[-70.25045,-12.44745],[-70.23779,-12.45737],[-70.23127,-12.45359],[-70.22959,-12.46686],[-70.21902,-12.47262],[-70.21043,-12.46526],[-70.206,-12.47815],[-70.20104,-12.47106],[-70.19021,-12.47166],[-70.19081,-12.47984],[-70.17347,-12.48374],[-70.17423,-12.49092],[-70.16094,-12.48759],[-70.15496,-12.49411],[-70.13001,-12.50187],[-70.1331,-12.50924],[-70.1193,-12.51173],[-70.12086,-12.50474],[-70.10343,-12.5083],[-70.10617,-12.51658],[-70.09554,-12.53574],[-70.09701,-12.54868],[-70.09005,-12.54513],[-70.0928,-12.55744],[-70.08252,-12.55407],[-70.0818,-12.56624],[-70.0723,-12.56856],[-70.06729,-12.57967],[-70.0533,-12.58037],[-70.03941,-12.59094],[-70.03839,-12.60871],[-70.05855,-12.61608],[-70.07502,-12.63935],[-70.10302,-12.65325],[-70.13103,-12.65819],[-70.14534,-12.67251],[-70.16155,-12.67868],[-70.16866,-12.69221],[-70.19585,-12.72094],[-70.23086,-12.73039],[-70.24708,-12.73945],[-70.25251,-12.74961],[-70.25693,-12.78276],[-70.27475,-12.80365],[-70.28377,-12.81863],[-70.28727,-12.83548],[-70.29399,-12.84578],[-70.32436,-12.85994],[-70.34076,-12.88395],[-70.34531,-12.90139],[-70.35382,-12.91449],[-70.35274,-12.94489],[-70.35781,-12.96801],[-70.35617,-12.98296],[-70.3593,-13.00841],[-70.36844,-13.0291],[-70.37946,-13.04164],[-70.3884,-13.06915],[-70.3937,-13.09437],[-70.40287,-13.11441],[-70.40441,-13.12608],[-70.4177,-13.13309],[-70.40682,-13.13842],[-70.39373,-13.12998],[-70.39076,-13.13827],[-70.40059,-13.15116],[-70.38558,-13.16704],[-70.38322,-13.18131],[-70.38847,-13.19239]]]}},{"type":"Feature","properties":{"ubigeo":"1703","nombre":"Tahuamanu"},"geometry":{"type":"Polygon","coordinates":[[[-72.17761,-11.04067],[-72.17532,-11.02483],[-72.18519,-11.00893],[-72.17354,-10.99553],[-72.15825,-11.00529],[-72.15286,-10.99421],[-72.12793,-10.97984],[-72.12503,-10.99562],[-72.10471,-10.99293],[-72.09279,-11.00168],[-72.05174,-11.01091],[-72.0437,-10.99692],[-72.02983,-10.99793],[-72.01394,-10.9884],[-71.98656,-10.9955],[-71.98035,-10.99098],[-71.96813,-10.99661],[-71.94459,-10.99745],[-71.93838,-11.0039],[-71.89507,-10.99453],[-71.87736,-10.99993],[-71.84701,-10.99568],[-71.82846,-11.01187],[-71.82436,-11.00408],[-71.80895,-10.99383],[-71.78759,-10.99257],[-71.78023,-10.98781],[-71.77004,-10.99281],[-71.74525,-10.99273],[-71.73,-10.98359],[-71.72016,-10.99655],[-71.70541,-10.97558],[-71.69217,-10.97943],[-71.68072,-10.97156],[-71.6665,-10.98166],[-71.65134,-10.97702],[-71.60432,-10.97054],[-71.58791,-10.97106],[-71.56959,-10.96279],[-71.55885,-10.9648],[-71.53161,-10.95223],[-71.52715,-10.96173],[-71.50813,-10.96609],[-71.48595,-10.96379],[-71.47056,-10.95547],[-71.44336,-10.95875],[-71.42611,-10.95566],[-71.41294,-10.95807],[-71.39486,-10.94763],[-71.37628,-10.95268],[-71.37042,-10.94735],[-71.36144,-10.95161],[-71.35209,-10.9479],[-71.35137,-10.93923],[-71.34179,-10.93288],[-71.33613,-10.91679],[-71.3173,-10.90957],[-71.31646,-10.89737],[-71.30902,-10.8787],[-71.29471,-10.8763],[-71.27534,-10.85639],[-71.27094,-10.84735],[-71.27147,-10.81905],[-71.25872,-10.78493],[-71.24384,-10.77676],[-71.23074,-10.78008],[-71.22156,-10.7767],[-71.22743,-10.7613],[-71.21957,-10.76103],[-71.21889,-10.74921],[-71.2246,-10.73065],[-71.21604,-10.71331],[-71.22439,-10.70774],[-71.23146,-10.69131],[-71.22896,-10.67853],[-71.21283,-10.66833],[-71.20629,-10.65216],[-71.2208,-10.63673],[-71.21091,-10.61916],[-71.20517,-10.59154],[-71.19621,-10.57986],[-71.16649,-10.57161],[-71.16308,-10.54677],[-71.16457,-10.53126],[-71.1468,-10.53098],[-71.13256,-10.50721],[-71.11674,-10.50129],[-71.10838,-10.50778],[-71.07076,-10.49847],[-71.06708,-10.49355],[-71.04089,-10.48866],[-71.02453,-10.4782],[-71.0132,-10.45608],[-71.00064,-10.44222],[-71.00497,-10.43082],[-70.99688,-10.4272],[-70.99327,-10.41616],[-70.96037,-10.39362],[-70.95811,-10.37779],[-70.97068,-10.34602],[-70.96801,-10.33555],[-70.92009,-10.33068],[-70.8974,-10.33741],[-70.88946,-10.33514],[-70.87399,-10.3007],[-70.88262,-10.27595],[-70.88083,-10.26197],[-70.86685,-10.25305],[-70.84157,-10.25067],[-70.81493,-10.25467],[-70.8032,-10.25115],[-70.79041,-10.24104],[-70.7803,-10.21992],[-70.76155,-10.20916],[-70.75349,-10.19406],[-70.73439,-10.1854],[-70.71703,-10.17265],[-70.70511,-10.15868],[-70.70785,-10.13561],[-70.69817,-10.11803],[-70.68388,-10.11258],[-70.68098,-10.10264],[-70.67075,-10.09985],[-70.66103,-10.08496],[-70.65138,-10.0807],[-70.64454,-10.06874],[-70.66003,-10.05147],[-70.65206,-10.04006],[-70.67232,-10.02313],[-70.66648,-10.00659],[-70.65716,-10.00193],[-70.66763,-9.97245],[-70.65039,-9.95463],[-70.64695,-9.94592],[-70.65075,-9.93318],[-70.63348,-9.89896],[-70.63954,-9.88438],[-70.6138,-9.87339],[-70.61311,-10.05945],[-70.61346,-10.12964],[-70.61369,-10.44738],[-70.61375,-11.00017],[-70.52783,-10.93428],[-70.51936,-10.93482],[-70.5145,-10.94774],[-70.50411,-10.95048],[-70.49476,-10.96238],[-70.48194,-10.96786],[-70.47153,-10.98441],[-70.45164,-10.99692],[-70.43784,-11.02618],[-70.43776,-11.0388],[-70.42007,-11.03942],[-70.4077,-11.04714],[-70.3864,-11.04758],[-70.37309,-11.06048],[-70.35317,-11.0598],[-70.34972,-11.06551],[-70.32866,-11.06548],[-70.30779,-11.0705],[-70.27967,-11.05645],[-70.27133,-11.0594],[-70.26312,-11.05159],[-70.24458,-11.04939],[-70.21125,-11.0507],[-70.19905,-11.05401],[-70.18918,-11.0453],[-70.16292,-11.03976],[-70.14123,-11.03006],[-70.10465,-10.99688],[-70.09537,-10.99662],[-70.09016,-10.98659],[-70.06459,-10.99388],[-70.03721,-10.97125],[-70.02802,-10.97763],[-70.02268,-10.96981],[-70.00832,-10.96311],[-69.99694,-10.96337],[-69.99359,-10.95059],[-69.98402,-10.9554],[-69.98236,-10.94337],[-69.97425,-10.9493],[-69.95398,-10.92857],[-69.93401,-10.92241],[-69.91658,-10.92546],[-69.90053,-10.9206],[-69.87836,-10.92455],[-69.8727,-10.93111],[-69.86541,-10.92659],[-69.85864,-10.93424],[-69.85401,-10.92594],[-69.84356,-10.92522],[-69.83159,-10.93388],[-69.79923,-10.92735],[-69.77356,-10.93932],[-69.75936,-10.9401],[-69.7393,-10.96504],[-69.73672,-10.97498],[-69.72137,-10.96487],[-69.7161,-10.97596],[-69.70053,-10.96553],[-69.66873,-10.96196],[-69.65946,-10.95281],[-69.63469,-10.95734],[-69.62212,-10.95031],[-69.61231,-10.95658],[-69.60922,-10.94567],[-69.59268,-10.94595],[-69.57881,-10.94073],[-69.56906,-10.94749],[-69.56293,-10.96684],[-69.49932,-11.06919],[-69.46598,-11.12139],[-69.33879,-11.3246],[-69.22833,-11.49982],[-69.10345,-11.68135],[-68.99984,-11.86111],[-68.97029,-11.91315],[-68.98196,-11.90799],[-68.99323,-11.91431],[-69.0124,-11.91267],[-69.01829,-11.91958],[-69.03401,-11.9155],[-69.05554,-11.91471],[-69.05946,-11.90935],[-69.08114,-11.90616],[-69.09193,-11.91082],[-69.09647,-11.92174],[-69.11604,-11.93175],[-69.12523,-11.92775],[-69.13383,-11.91547],[-69.14899,-11.91156],[-69.17625,-11.91426],[-69.19124,-11.90999],[-69.21426,-11.89339],[-69.21739,-11.89897],[-69.23085,-11.88524],[-69.2442,-11.88263],[-69.2521,-11.89613],[-69.26805,-11.89574],[-69.27262,-11.90164],[-69.28655,-11.89957],[-69.31139,-11.91042],[-69.32192,-11.90289],[-69.35683,-11.90237],[-69.38192,-11.88163],[-69.38654,-11.88387],[-69.42078,-11.86586],[-69.43646,-11.87223],[-69.44062,-11.86799],[-69.46107,-11.87503],[-69.47374,-11.86121],[-69.48412,-11.85728],[-69.49558,-11.84492],[-69.52304,-11.84123],[-69.52866,-11.82519],[-69.54715,-11.82115],[-69.55506,-11.80306],[-69.56641,-11.79693],[-69.58357,-11.79588],[-69.58749,-11.77775],[-69.61172,-11.77415],[-69.61201,-11.76773],[-69.62858,-11.76006],[-69.64791,-11.77039],[-69.6552,-11.75878],[-69.66837,-11.75897],[-69.67616,-11.77003],[-69.6939,-11.76959],[-69.69786,-11.78087],[-69.70728,-11.78392],[-69.70937,-11.79348],[-69.71989,-11.78967],[-69.72543,-11.80616],[-69.73936,-11.79629],[-69.7601,-11.80405],[-69.7732,-11.79615],[-69.80349,-11.79548],[-69.80963,-11.78416],[-69.82768,-11.79001],[-69.83964,-11.78213],[-69.86072,-11.77928],[-69.87293,-11.76704],[-69.8986,-11.75935],[-69.9132,-11.73631],[-69.9212,-11.73904],[-69.92249,-11.72733],[-69.9318,-11.73268],[-69.95418,-11.72],[-69.96011,-11.71006],[-69.98304,-11.71274],[-69.99455,-11.70378],[-70.03032,-11.71005],[-70.04039,-11.70341],[-70.05578,-11.68512],[-70.07206,-11.681],[-70.07821,-11.67006],[-70.08694,-11.67485],[-70.1123,-11.66804],[-70.13464,-11.65198],[-70.13441,-11.64469],[-70.16676,-11.6331],[-70.1873,-11.61651],[-70.19073,-11.60346],[-70.21386,-11.58563],[-70.21775,-11.57185],[-70.23927,-11.55908],[-70.24106,-11.54286],[-70.25669,-11.53093],[-70.26218,-11.50887],[-70.27838,-11.48863],[-70.27926,-11.47489],[-70.2897,-11.46139],[-70.30442,-11.45205],[-70.32847,-11.45262],[-70.34158,-11.44558],[-70.35477,-11.45418],[-70.37727,-11.434],[-70.40247,-11.43483],[-70.41608,-11.42849],[-70.43093,-11.41372],[-70.43514,-11.40354],[-70.4526,-11.39469],[-70.45386,-11.37317],[-70.47571,-11.35251],[-70.4922,-11.35606],[-70.50686,-11.35477],[-70.5849,-11.36411],[-70.72201,-11.37865],[-70.74908,-11.38425],[-70.75841,-11.37947],[-70.7662,-11.3842],[-70.78274,-11.36149],[-70.78878,-11.34743],[-70.80009,-11.34121],[-70.79054,-11.35712],[-70.79649,-11.35915],[-70.80514,-11.34779],[-70.81884,-11.3463],[-70.81226,-11.32499],[-70.82381,-11.31873],[-70.83309,-11.3279],[-70.84825,-11.32583],[-70.85278,-11.31837],[-70.87672,-11.3108],[-70.86339,-11.29332],[-70.86083,-11.27806],[-70.87944,-11.27413],[-70.87492,-11.28474],[-70.88894,-11.28324],[-70.8918,-11.28825],[-70.91344,-11.27747],[-70.92276,-11.29009],[-70.93035,-11.27539],[-70.94384,-11.28969],[-70.94595,-11.28109],[-70.9616,-11.27487],[-70.96562,-11.2677],[-70.98192,-11.26794],[-70.99819,-11.26071],[-71.00128,-11.25373],[-71.01353,-11.26506],[-71.01556,-11.24852],[-71.02668,-11.24348],[-71.02965,-11.2571],[-71.03868,-11.25974],[-71.03225,-11.24726],[-71.05216,-11.24793],[-71.05855,-11.23788],[-71.06303,-11.25016],[-71.06948,-11.25093],[-71.06752,-11.23734],[-71.0825,-11.23618],[-71.09052,-11.23012],[-71.09544,-11.24098],[-71.10581,-11.22995],[-71.10306,-11.22091],[-71.12329,-11.23719],[-71.13141,-11.22236],[-71.15364,-11.22712],[-71.15895,-11.21135],[-71.17415,-11.21611],[-71.17882,-11.22839],[-71.18986,-11.21315],[-71.20034,-11.20893],[-71.21684,-11.21073],[-71.22379,-11.20059],[-71.22747,-11.21248],[-71.23626,-11.21871],[-71.23264,-11.2015],[-71.24265,-11.19649],[-71.24645,-11.18103],[-71.25303,-11.19141],[-71.26843,-11.19099],[-71.28006,-11.18033],[-71.29264,-11.18668],[-71.30079,-11.17997],[-71.30698,-11.18534],[-71.31513,-11.18007],[-71.31102,-11.16821],[-71.33319,-11.1699],[-71.33595,-11.15501],[-71.34492,-11.16315],[-71.37208,-11.16469],[-71.37142,-11.17835],[-71.37961,-11.17515],[-71.37526,-11.16112],[-71.38391,-11.14856],[-71.39868,-11.15149],[-71.41972,-11.13698],[-71.43977,-11.13735],[-71.43394,-11.13082],[-71.4463,-11.11714],[-71.43634,-11.10937],[-71.44238,-11.1032],[-71.45031,-11.11064],[-71.45994,-11.1046],[-71.47379,-11.10636],[-71.485,-11.09309],[-71.49688,-11.09026],[-71.49685,-11.10666],[-71.51245,-11.09971],[-71.52403,-11.08693],[-71.53612,-11.08758],[-71.53946,-11.09997],[-71.54433,-11.08275],[-71.55898,-11.09341],[-71.56847,-11.08344],[-71.57939,-11.09022],[-71.58195,-11.10293],[-71.59712,-11.09059],[-71.611,-11.09742],[-71.62322,-11.09302],[-71.62921,-11.10575],[-71.63589,-11.08956],[-71.64829,-11.09845],[-71.65402,-11.09247],[-71.67296,-11.0946],[-71.68933,-11.10042],[-71.69346,-11.09262],[-71.70667,-11.08993],[-71.71497,-11.08041],[-71.71253,-11.07105],[-71.72235,-11.07199],[-71.72638,-11.06433],[-71.73164,-11.07397],[-71.74147,-11.07588],[-71.74761,-11.08443],[-71.75569,-11.0736],[-71.77804,-11.0741],[-71.79054,-11.07817],[-71.79671,-11.06909],[-71.81156,-11.07055],[-71.82118,-11.06601],[-71.8368,-11.04833],[-71.84403,-11.05289],[-71.85113,-11.04303],[-71.86929,-11.03984],[-71.85985,-11.04657],[-71.87517,-11.0501],[-71.87485,-11.05736],[-71.89404,-11.06508],[-71.9042,-11.05978],[-71.89987,-11.04758],[-71.92416,-11.04662],[-71.94158,-11.05347],[-71.94069,-11.06165],[-71.97765,-11.05247],[-71.99575,-11.05731],[-72.00645,-11.05521],[-72.01804,-11.06368],[-72.03708,-11.06337],[-72.05499,-11.07047],[-72.05657,-11.0623],[-72.0694,-11.06396],[-72.07654,-11.05488],[-72.08842,-11.06784],[-72.08989,-11.07772],[-72.09831,-11.08239],[-72.10724,-11.07857],[-72.13851,-11.08358],[-72.15051,-11.07578],[-72.16071,-11.06135],[-72.16144,-11.05029],[-72.17761,-11.04067]]]}}]}