{"type":"FeatureCollection","features":[{"type":"Feature","properties":{"ubigeo":"1801","nombre":"Mariscal Nieto"},"geometry":{"type":"Polygon","coordinates":[[[-70.14662,-16.93873],[-70.152,-16.93317],[-70.14837,-16.92187],[-70.17731,-16.91619],[-70.18129,-16.93212],[-70.20097,-16.94401],[-70.21134,-16.9436],[-70.22511,-16.95855],[-70.24718,-16.95244],[-70.25433,-16.94003],[-70.25931,-16.92052],[-70.25907,-16.90203],[-70.25228,-16.88942],[-70.24377,-16.86024],[-70.23766,-16.85485],[-70.22308,-16.85609],[-70.21687,-16.84331],[-70.19737,-16.84184],[-70.18407,-16.83469],[-70.18155,-16.81716],[-70.19426,-16.81811],[-70.20335,-16.8086],[-70.2255,-16.80953],[-70.25284,-16.79888],[-70.25388,-16.78885],[-70.2698,-16.77057],[-70.29186,-16.78135],[-70.30761,-16.77305],[-70.32368,-16.78299],[-70.34493,-16.79146],[-70.37279,-16.79818],[-70.38523,-16.81587],[-70.39969,-16.8188],[-70.40939,-16.83019],[-70.44069,-16.84005],[-70.44327,-16.8531],[-70.45037,-16.86032],[-70.45012,-16.8801],[-70.44202,-16.89313],[-70.45175,-16.90001],[-70.45169,-16.91312],[-70.45919,-16.92274],[-70.45342,-16.92857],[-70.46472,-16.94568],[-70.44347,-16.96205],[-70.45203,-16.9864],[-70.46082,-16.99712],[-70.46324,-17.00861],[-70.45375,-17.01731],[-70.44408,-17.04563],[-70.44833,-17.07983],[-70.47999,-17.08441],[-70.49186,-17.09137],[-70.49513,-17.11034],[-70.51687,-17.14286],[-70.5278,-17.16831],[-70.55002,-17.18576],[-70.55505,-17.19766],[-70.57251,-17.19411],[-70.57658,-17.19838],[-70.60998,-17.2145],[-70.61887,-17.20917],[-70.65241,-17.2095],[-70.68422,-17.22498],[-70.68832,-17.23964],[-70.7012,-17.2546],[-70.70428,-17.26721],[-70.71592,-17.27365],[-70.71227,-17.28748],[-70.70592,-17.28961],[-70.7208,-17.31103],[-70.73001,-17.31823],[-70.74614,-17.34953],[-70.7524,-17.38057],[-70.7356,-17.40123],[-70.73931,-17.41196],[-70.75115,-17.42238],[-70.75463,-17.43758],[-70.77998,-17.4506],[-70.82036,-17.49315],[-70.84376,-17.52466],[-70.85603,-17.5316],[-70.86676,-17.54738],[-70.87965,-17.55524],[-70.88408,-17.58164],[-70.89316,-17.59285],[-70.89708,-17.61232],[-70.9026,-17.6195],[-70.90781,-17.64722],[-70.91834,-17.64945],[-70.93392,-17.63806],[-70.9966,-17.62079],[-71.03116,-17.58566],[-71.03614,-17.55802],[-71.05155,-17.54111],[-71.07288,-17.5247],[-71.07395,-17.48747],[-71.10767,-17.47475],[-71.11589,-17.47482],[-71.13319,-17.45594],[-71.14082,-17.43994],[-71.14881,-17.43822],[-71.15761,-17.45328],[-71.17356,-17.45348],[-71.19781,-17.44726],[-71.21587,-17.43467],[-71.25935,-17.43995],[-71.27406,-17.42715],[-71.28116,-17.42926],[-71.31155,-17.44956],[-71.31093,-17.43765],[-71.31866,-17.41362],[-71.33068,-17.39805],[-71.31985,-17.39204],[-71.32923,-17.3862],[-71.34303,-17.39031],[-71.3481,-17.37647],[-71.36492,-17.36434],[-71.37634,-17.35128],[-71.36937,-17.31223],[-71.38676,-17.3115],[-71.39549,-17.30452],[-71.39973,-17.28163],[-71.38657,-17.26434],[-71.42513,-17.26208],[-71.44096,-17.25172],[-71.4217,-17.23463],[-71.41087,-17.21259],[-71.38086,-17.18571],[-71.35139,-17.14741],[-71.32698,-17.13649],[-71.31633,-17.12474],[-71.31628,-17.11611],[-71.30225,-17.09385],[-71.31561,-17.07861],[-71.31589,-17.06528],[-71.32581,-17.0564],[-71.31897,-17.04421],[-71.33942,-17.02176],[-71.3596,-17.02353],[-71.36491,-17.01446],[-71.38461,-17.02111],[-71.39512,-16.98497],[-71.39092,-16.98049],[-71.37752,-16.97403],[-71.35641,-16.97829],[-71.34522,-16.96723],[-71.34845,-16.94838],[-71.33302,-16.94347],[-71.31283,-16.95077],[-71.30368,-16.9582],[-71.28579,-16.94276],[-71.26733,-16.93693],[-71.25435,-16.93717],[-71.24054,-16.9267],[-71.21845,-16.9254],[-71.1939,-16.90251],[-71.16938,-16.90697],[-71.15862,-16.8941],[-71.15596,-16.87191],[-71.13736,-16.85165],[-71.12559,-16.83335],[-71.11723,-16.83054],[-71.11299,-16.81834],[-71.09401,-16.79859],[-71.08392,-16.79315],[-71.07668,-16.77363],[-71.06803,-16.77429],[-71.06092,-16.7586],[-71.03409,-16.75352],[-71.00804,-16.76937],[-70.99457,-16.76426],[-70.96569,-16.77766],[-70.94526,-16.77239],[-70.92044,-16.778],[-70.9015,-16.77771],[-70.89403,-16.7708],[-70.87893,-16.77485],[-70.8734,-16.77013],[-70.85713,-16.77073],[-70.85129,-16.76543],[-70.82586,-16.7615],[-70.81631,-16.74603],[-70.78899,-16.73695],[-70.77836,-16.71517],[-70.77894,-16.70579],[-70.77113,-16.68068],[-70.77072,-16.66175],[-70.76395,-16.63464],[-70.74723,-16.62307],[-70.74267,-16.62788],[-70.72049,-16.61936],[-70.70315,-16.59784],[-70.71977,-16.58395],[-70.72784,-16.57284],[-70.69965,-16.56928],[-70.68004,-16.5474],[-70.65455,-16.54877],[-70.6342,-16.55778],[-70.60303,-16.54808],[-70.59219,-16.56011],[-70.57747,-16.56531],[-70.56278,-16.56388],[-70.5379,-16.55338],[-70.51965,-16.55985],[-70.51238,-16.55456],[-70.47285,-16.55547],[-70.46372,-16.55232],[-70.44563,-16.5325],[-70.43122,-16.52584],[-70.4181,-16.53053],[-70.39663,-16.52376],[-70.37131,-16.49654],[-70.36399,-16.49419],[-70.35975,-16.47764],[-70.32996,-16.46215],[-70.31294,-16.46158],[-70.30117,-16.47867],[-70.24353,-16.50447],[-70.22867,-16.50608],[-70.22019,-16.5133],[-70.20049,-16.53959],[-70.18539,-16.5372],[-70.1757,-16.56072],[-70.17312,-16.58338],[-70.17636,-16.59333],[-70.1687,-16.60962],[-70.14876,-16.61531],[-70.13783,-16.62857],[-70.08785,-16.65523],[-70.0674,-16.63842],[-70.0552,-16.63792],[-70.04697,-16.62796],[-70.03064,-16.63472],[-70.02462,-16.63118],[-70.00147,-16.65657],[-69.99839,-16.67515],[-70.01177,-16.68848],[-70.01045,-16.6999],[-69.99835,-16.70784],[-69.99556,-16.72978],[-70.01188,-16.74185],[-70.03554,-16.74289],[-70.03221,-16.75292],[-70.05712,-16.77016],[-70.05733,-16.78653],[-70.06956,-16.79845],[-70.08161,-16.80173],[-70.09109,-16.81212],[-70.09111,-16.87092],[-70.09428,-16.89092],[-70.1056,-16.89726],[-70.11357,-16.91783],[-70.13227,-16.93477],[-70.14662,-16.93873]]]}},{"type":"Feature","properties":{"ubigeo":"1802","nombre":"General Sánchez Cerro"},"geometry":{"type":"Polygon","coordinates":[[[-70.31294,-16.46158],[-70.32996,-16.46215],[-70.35975,-16.47764],[-70.36399,-16.49419],[-70.37131,-16.49654],[-70.39663,-16.52376],[-70.4181,-16.53053],[-70.43122,-16.52584],[-70.44563,-16.5325],[-70.46372,-16.55232],[-70.47285,-16.55547],[-70.51238,-16.55456],[-70.51965,-16.55985],[-70.5379,-16.55338],[-70.56278,-16.56388],[-70.57747,-16.56531],[-70.59219,-16.56011],[-70.60303,-16.54808],[-70.6342,-16.55778],[-70.65455,-16.54877],[-70.68004,-16.5474],[-70.69965,-16.56928],[-70.72784,-16.57284],[-70.71977,-16.58395],[-70.70315,-16.59784],[-70.72049,-16.61936],[-70.74267,-16.62788],[-70.74723,-16.62307],[-70.76395,-16.63464],[-70.77072,-16.66175],[-70.77113,-16.68068],[-70.77894,-16.70579],[-70.77836,-16.71517],[-70.78899,-16.73695],[-70.81631,-16.74603],[-70.82586,-16.7615],[-70.85129,-16.76543],[-70.85713,-16.77073],[-70.8734,-16.77013],[-70.87893,-16.77485],[-70.89403,-16.7708],[-70.9015,-16.77771],[-70.92044,-16.778],[-70.94526,-16.77239],[-70.96569,-16.77766],[-70.99457,-16.76426],[-71.00804,-16.76937],[-71.03409,-16.75352],[-71.06092,-16.7586],[-71.06803,-16.77429],[-71.07668,-16.77363],[-71.08392,-16.79315],[-71.09401,-16.79859],[-71.11299,-16.81834],[-71.11723,-16.83054],[-71.12559,-16.83335],[-71.13736,-16.85165],[-71.15596,-16.87191],[-71.15862,-16.8941],[-71.16938,-16.90697],[-71.1939,-16.90251],[-71.21845,-16.9254],[-71.24054,-16.9267],[-71.25435,-16.93717],[-71.26733,-16.93693],[-71.28579,-16.94276],[-71.30368,-16.9582],[-71.31283,-16.95077],[-71.33302,-16.94347],[-71.34845,-16.94838],[-71.34522,-16.96723],[-71.35641,-16.97829],[-71.37752,-16.97403],[-71.39092,-16.98049],[-71.4013,-16.96985],[-71.40579,-16.95584],[-71.4221,-16.95508],[-71.43436,-16.96029],[-71.44489,-16.95648],[-71.45954,-16.96082],[-71.46594,-16.95057],[-71.45597,-16.93419],[-71.44135,-16.93242],[-71.42417,-16.91976],[-71.42214,-16.8964],[-71.43505,-16.8793],[-71.44085,-16.86128],[-71.44045,-16.84147],[-71.44371,-16.80468],[-71.43646,-16.79563],[-71.42939,-16.77473],[-71.42969,-16.75134],[-71.42594,-16.74142],[-71.4009,-16.72814],[-71.39456,-16.7312],[-71.36943,-16.71968],[-71.35329,-16.72495],[-71.34698,-16.74224],[-71.32757,-16.75226],[-71.31143,-16.73868],[-71.28909,-16.72646],[-71.28581,-16.71635],[-71.29604,-16.70743],[-71.29364,-16.69056],[-71.2839,-16.68224],[-71.28474,-16.66701],[-71.28037,-16.65764],[-71.27915,-16.61582],[-71.27318,-16.60702],[-71.2615,-16.60666],[-71.26284,-16.58491],[-71.25275,-16.57257],[-71.2448,-16.55023],[-71.24277,-16.52563],[-71.23707,-16.50212],[-71.24934,-16.48236],[-71.24564,-16.46686],[-71.21914,-16.46057],[-71.19703,-16.47166],[-71.15793,-16.47097],[-71.13952,-16.47497],[-71.12392,-16.46097],[-71.1102,-16.46579],[-71.07827,-16.45856],[-71.07265,-16.46576],[-71.05305,-16.46157],[-71.04811,-16.45508],[-71.03726,-16.48569],[-71.01833,-16.48742],[-71.0115,-16.49828],[-70.99245,-16.49587],[-70.98055,-16.48133],[-70.9672,-16.48111],[-70.95544,-16.47163],[-70.95293,-16.46099],[-70.96483,-16.4463],[-70.9649,-16.43716],[-70.9737,-16.42587],[-70.97524,-16.41216],[-70.96482,-16.39759],[-70.9754,-16.38891],[-70.9696,-16.37226],[-70.97557,-16.36224],[-70.98001,-16.3318],[-70.98629,-16.30995],[-70.95702,-16.3084],[-70.94625,-16.31384],[-70.93911,-16.29893],[-70.91579,-16.2824],[-70.90343,-16.27761],[-70.88614,-16.28527],[-70.87648,-16.28155],[-70.872,-16.2657],[-70.85388,-16.24147],[-70.84641,-16.23815],[-70.85051,-16.22798],[-70.86578,-16.22627],[-70.86653,-16.21839],[-70.85389,-16.20248],[-70.86107,-16.17475],[-70.87859,-16.16662],[-70.86783,-16.15387],[-70.87193,-16.14288],[-70.86711,-16.12848],[-70.88613,-16.11814],[-70.89376,-16.10283],[-70.87506,-16.09458],[-70.87811,-16.08144],[-70.86681,-16.08008],[-70.86449,-16.06716],[-70.85674,-16.05634],[-70.80451,-16.05513],[-70.80665,-16.0423],[-70.82012,-16.03161],[-70.81487,-16.01217],[-70.81656,-16.00276],[-70.82861,-15.99921],[-70.8202,-15.97847],[-70.81117,-15.98668],[-70.79997,-15.97596],[-70.79535,-15.9924],[-70.77446,-16.01383],[-70.76511,-16.01775],[-70.7564,-16.01352],[-70.74156,-16.01606],[-70.72859,-16.03141],[-70.7054,-16.03176],[-70.69212,-16.02295],[-70.66918,-16.01378],[-70.64137,-15.98809],[-70.62477,-16.00302],[-70.61237,-15.99477],[-70.58749,-15.98794],[-70.56997,-15.98898],[-70.56289,-15.9825],[-70.54929,-15.99518],[-70.53884,-16.01045],[-70.53092,-16.01416],[-70.52608,-16.02672],[-70.50771,-16.03777],[-70.48256,-16.03947],[-70.46306,-16.04962],[-70.4452,-16.03378],[-70.4392,-16.03808],[-70.43507,-16.06015],[-70.41753,-16.07441],[-70.40979,-16.07635],[-70.40288,-16.08906],[-70.40129,-16.10253],[-70.4083,-16.1208],[-70.40194,-16.14903],[-70.38965,-16.15624],[-70.37375,-16.17592],[-70.36723,-16.18926],[-70.36882,-16.19898],[-70.3592,-16.20863],[-70.34028,-16.2009],[-70.33077,-16.20289],[-70.32453,-16.21591],[-70.32784,-16.23482],[-70.34513,-16.2561],[-70.34038,-16.26883],[-70.3478,-16.29084],[-70.33876,-16.3228],[-70.34833,-16.35477],[-70.35782,-16.36832],[-70.3706,-16.36865],[-70.38211,-16.38496],[-70.35655,-16.40027],[-70.36089,-16.41083],[-70.35032,-16.41572],[-70.3334,-16.41145],[-70.31589,-16.43159],[-70.31674,-16.4444],[-70.30631,-16.44721],[-70.31294,-16.46158]]]}},{"type":"Feature","properties":{"ubigeo":"1803","nombre":"Ilo"},"geometry":{"type":"Polygon","coordinates":[[[-71.13944,-17.82148],[-71.14984,-17.81975],[-71.17455,-17.80326],[-71.17745,-17.7892],[-71.18488,-17.78121],[-71.20564,-17.76865],[-71.32688,-17.70428],[-71.3562,-17.6916],[-71.36371,-17.69287],[-71.36818,-17.70616],[-71.3799,-17.70192],[-71.37065,-17.69152],[-71.37221,-17.68171],[-71.36378,-17.67436],[-71.35925,-17.66051],[-71.35119,-17.6538],[-71.3415,-17.63671],[-71.34419,-17.61257],[-71.35821,-17.58883],[-71.35755,-17.56863],[-71.36555,-17.54536],[-71.36074,-17.53951],[-71.36787,-17.52102],[-71.36115,-17.50945],[-71.36295,-17.48879],[-71.37257,-17.47539],[-71.38686,-17.42852],[-71.38334,-17.42031],[-71.38964,-17.3985],[-71.39761,-17.38638],[-71.41353,-17.38011],[-71.42703,-17.36396],[-71.43187,-17.36745],[-71.43144,-17.35085],[-71.43711,-17.33856],[-71.45879,-17.33147],[-71.47088,-17.31887],[-71.47671,-17.32293],[-71.47096,-17.30528],[-71.47254,-17.29716],[-71.4908,-17.28501],[-71.46686,-17.25548],[-71.44096,-17.25172],[-71.42513,-17.26208],[-71.38657,-17.26434],[-71.39973,-17.28163],[-71.39549,-17.30452],[-71.38676,-17.3115],[-71.36937,-17.31223],[-71.37634,-17.35128],[-71.36492,-17.36434],[-71.3481,-17.37647],[-71.34303,-17.39031],[-71.32923,-17.3862],[-71.31985,-17.39204],[-71.33068,-17.39805],[-71.31866,-17.41362],[-71.31093,-17.43765],[-71.31155,-17.44956],[-71.28116,-17.42926],[-71.27406,-17.42715],[-71.25935,-17.43995],[-71.21587,-17.43467],[-71.19781,-17.44726],[-71.17356,-17.45348],[-71.15761,-17.45328],[-71.14881,-17.43822],[-71.14082,-17.43994],[-71.13319,-17.45594],[-71.11589,-17.47482],[-71.10767,-17.47475],[-71.07395,-17.48747],[-71.07288,-17.5247],[-71.05155,-17.54111],[-71.03614,-17.55802],[-71.03116,-17.58566],[-70.9966,-17.62079],[-70.93392,-17.63806],[-70.91834,-17.64945],[-70.90781,-17.64722],[-70.90746,-17.66177],[-70.9125,-17.68737],[-70.93089,-17.68768],[-70.95628,-17.67596],[-70.98316,-17.68463],[-70.98969,-17.67926],[-71.00335,-17.6837],[-71.00514,-17.6926],[-71.01663,-17.70877],[-71.02692,-17.70387],[-71.03694,-17.70965],[-71.04938,-17.70883],[-71.06054,-17.71864],[-71.07348,-17.71375],[-71.08334,-17.71753],[-71.08199,-17.73399],[-71.09424,-17.73324],[-71.10113,-17.7395],[-71.10314,-17.75528],[-71.12158,-17.786],[-71.12107,-17.80146],[-71.12628,-17.81283],[-71.13944,-17.82148]]]}}]}