{"type":"FeatureCollection","features":[{"type":"Feature","properties":{"ubigeo":"1901","nombre":"Pasco"},"geometry":{"type":"Polygon","coordinates":[[[-76.12293,-10.96264],[-76.12019,-10.95636],[-76.13615,-10.94652],[-76.1589,-10.95018],[-76.1909,-10.96031],[-76.20093,-10.94412],[-76.20743,-10.94349],[-76.21279,-10.93175],[-76.2098,-10.91897],[-76.22368,-10.91501],[-76.24908,-10.92455],[-76.27982,-10.91313],[-76.27886,-10.92345],[-76.27672,-10.95035],[-76.26615,-10.96107],[-76.27295,-10.97102],[-76.26582,-10.98071],[-76.26358,-10.99882],[-76.25567,-11.0024],[-76.25957,-11.02592],[-76.25079,-11.04022],[-76.24016,-11.04693],[-76.24414,-11.07658],[-76.25125,-11.09538],[-76.24938,-11.10729],[-76.23859,-11.11535],[-76.2189,-11.13904],[-76.21463,-11.15031],[-76.22778,-11.1556],[-76.2449,-11.14298],[-76.25218,-11.15052],[-76.26294,-11.1496],[-76.28025,-11.13817],[-76.3079,-11.13266],[-76.31788,-11.11042],[-76.31807,-11.09164],[-76.3378,-11.08274],[-76.35096,-11.09419],[-76.35931,-11.08754],[-76.38357,-11.08026],[-76.39235,-11.07042],[-76.39722,-11.07576],[-76.43001,-11.07646],[-76.44681,-11.07125],[-76.45192,-11.07981],[-76.46457,-11.08473],[-76.47752,-11.0831],[-76.49121,-11.08944],[-76.51468,-11.06871],[-76.52651,-11.05154],[-76.5313,-11.03606],[-76.56925,-11.01348],[-76.57695,-11.01653],[-76.58016,-11.01084],[-76.57917,-10.98138],[-76.56508,-10.96618],[-76.56905,-10.9509],[-76.56836,-10.93481],[-76.5783,-10.90251],[-76.58418,-10.85278],[-76.58821,-10.84505],[-76.58926,-10.8367],[-76.60158,-10.81587],[-76.61413,-10.817],[-76.63349,-10.78453],[-76.62699,-10.76933],[-76.63422,-10.75249],[-76.64046,-10.74864],[-76.65448,-10.71295],[-76.65938,-10.68825],[-76.66906,-10.68067],[-76.65566,-10.64678],[-76.63735,-10.64647],[-76.61487,-10.67043],[-76.58762,-10.68232],[-76.57246,-10.7092],[-76.53851,-10.70435],[-76.53136,-10.71255],[-76.52879,-10.72566],[-76.51617,-10.74295],[-76.5064,-10.7456],[-76.49543,-10.71083],[-76.47541,-10.69437],[-76.47113,-10.66966],[-76.45636,-10.64743],[-76.43498,-10.65372],[-76.41961,-10.65317],[-76.38429,-10.62574],[-76.37309,-10.62009],[-76.36387,-10.62706],[-76.35014,-10.61094],[-76.34603,-10.59606],[-76.33455,-10.59011],[-76.30989,-10.58685],[-76.30407,-10.59853],[-76.29372,-10.60189],[-76.28258,-10.58176],[-76.27344,-10.57888],[-76.27207,-10.56178],[-76.25411,-10.54616],[-76.24196,-10.5427],[-76.23599,-10.52368],[-76.23812,-10.5145],[-76.24981,-10.51002],[-76.25333,-10.50003],[-76.24681,-10.47916],[-76.25589,-10.47369],[-76.26716,-10.45745],[-76.28333,-10.4522],[-76.28226,-10.44524],[-76.29505,-10.43303],[-76.30588,-10.41217],[-76.29763,-10.41005],[-76.2868,-10.4168],[-76.27508,-10.40305],[-76.27112,-10.3711],[-76.26648,-10.3692],[-76.22524,-10.3966],[-76.23089,-10.37179],[-76.20282,-10.37758],[-76.20717,-10.38871],[-76.1854,-10.39546],[-76.17995,-10.40607],[-76.16433,-10.41403],[-76.15197,-10.40825],[-76.14041,-10.41065],[-76.12886,-10.43097],[-76.1188,-10.42637],[-76.10419,-10.43555],[-76.09464,-10.42942],[-76.07472,-10.43951],[-76.07828,-10.45199],[-76.05764,-10.46515],[-76.04887,-10.45806],[-76.03167,-10.45593],[-76.02812,-10.4671],[-76.01069,-10.4554],[-76.00279,-10.48889],[-75.97581,-10.47934],[-75.95848,-10.45696],[-75.94349,-10.42873],[-75.92515,-10.40676],[-75.93454,-10.37498],[-75.92441,-10.35603],[-75.90366,-10.33423],[-75.87876,-10.3136],[-75.85972,-10.30283],[-75.85567,-10.32639],[-75.86196,-10.35449],[-75.85574,-10.37197],[-75.85537,-10.40593],[-75.85869,-10.44164],[-75.86809,-10.45202],[-75.86093,-10.45373],[-75.85222,-10.4437],[-75.81916,-10.43965],[-75.81722,-10.45151],[-75.80714,-10.45709],[-75.80063,-10.43943],[-75.78783,-10.43492],[-75.77718,-10.44033],[-75.76786,-10.43304],[-75.7501,-10.43505],[-75.71051,-10.4316],[-75.69294,-10.44946],[-75.66844,-10.45878],[-75.66774,-10.47559],[-75.67654,-10.51843],[-75.66964,-10.54142],[-75.6611,-10.55331],[-75.67074,-10.56631],[-75.66705,-10.57707],[-75.67992,-10.60892],[-75.65335,-10.63034],[-75.63907,-10.62911],[-75.63597,-10.62104],[-75.61334,-10.62126],[-75.60597,-10.62867],[-75.59389,-10.62908],[-75.59147,-10.63863],[-75.58118,-10.64915],[-75.56203,-10.64464],[-75.55685,-10.63705],[-75.53952,-10.64106],[-75.53885,-10.66116],[-75.54852,-10.67315],[-75.53107,-10.6828],[-75.52131,-10.67797],[-75.5121,-10.68234],[-75.51052,-10.70283],[-75.51529,-10.70905],[-75.51688,-10.72853],[-75.52187,-10.73903],[-75.53142,-10.74329],[-75.55692,-10.74407],[-75.56385,-10.72977],[-75.57382,-10.74699],[-75.57432,-10.77037],[-75.5841,-10.80157],[-75.58967,-10.8109],[-75.60147,-10.81393],[-75.6056,-10.82189],[-75.64085,-10.82679],[-75.64977,-10.82338],[-75.6661,-10.82858],[-75.67855,-10.84018],[-75.69342,-10.8342],[-75.68853,-10.82732],[-75.69325,-10.81722],[-75.73237,-10.80919],[-75.743,-10.82253],[-75.76267,-10.83021],[-75.78599,-10.82456],[-75.80698,-10.83908],[-75.81832,-10.85405],[-75.816,-10.87288],[-75.83061,-10.87658],[-75.83838,-10.8863],[-75.86176,-10.86841],[-75.86526,-10.87654],[-75.87405,-10.86768],[-75.89698,-10.86884],[-75.91711,-10.87444],[-75.92275,-10.88315],[-75.93592,-10.88972],[-75.93715,-10.87151],[-75.95573,-10.85878],[-75.96163,-10.84396],[-75.97019,-10.84323],[-75.99267,-10.82098],[-76.00814,-10.83035],[-76.01503,-10.84268],[-76.05079,-10.88349],[-76.06808,-10.88662],[-76.09134,-10.90656],[-76.09896,-10.93031],[-76.10915,-10.93894],[-76.12293,-10.96264]]]}},{"type":"Feature","properties":{"ubigeo":"1902","nombre":"Daniel Alcides Carrión"},"geometry":{"type":"Polygon","coordinates":[[[-76.65566,-10.64678],[-76.66134,-10.63523],[-76.67557,-10.62137],[-76.6727,-10.60989],[-76.68145,-10.59914],[-76.68586,-10.58146],[-76.70372,-10.58859],[-76.705,-10.56392],[-76.70937,-10.55876],[-76.71019,-10.54074],[-76.71687,-10.52298],[-76.72891,-10.51106],[-76.72915,-10.47907],[-76.71483,-10.46207],[-76.70217,-10.46154],[-76.69846,-10.44456],[-76.67679,-10.43762],[-76.66325,-10.43763],[-76.65882,-10.4213],[-76.6472,-10.41514],[-76.62039,-10.41525],[-76.60632,-10.40398],[-76.59336,-10.40149],[-76.59338,-10.38724],[-76.5751,-10.3758],[-76.55786,-10.39333],[-76.55188,-10.38464],[-76.53373,-10.38756],[-76.52419,-10.37736],[-76.50984,-10.3821],[-76.49094,-10.3789],[-76.48632,-10.35186],[-76.47599,-10.34732],[-76.4728,-10.33777],[-76.49398,-10.31053],[-76.47255,-10.30991],[-76.44394,-10.32053],[-76.42294,-10.31868],[-76.40235,-10.30919],[-76.38722,-10.28929],[-76.36466,-10.29941],[-76.35304,-10.29658],[-76.34428,-10.28688],[-76.33579,-10.28632],[-76.32576,-10.30553],[-76.33085,-10.31383],[-76.32197,-10.32539],[-76.31685,-10.34099],[-76.32341,-10.35958],[-76.31262,-10.38346],[-76.30588,-10.41217],[-76.29505,-10.43303],[-76.28226,-10.44524],[-76.28333,-10.4522],[-76.26716,-10.45745],[-76.25589,-10.47369],[-76.24681,-10.47916],[-76.25333,-10.50003],[-76.24981,-10.51002],[-76.23812,-10.5145],[-76.23599,-10.52368],[-76.24196,-10.5427],[-76.25411,-10.54616],[-76.27207,-10.56178],[-76.27344,-10.57888],[-76.28258,-10.58176],[-76.29372,-10.60189],[-76.30407,-10.59853],[-76.30989,-10.58685],[-76.33455,-10.59011],[-76.34603,-10.59606],[-76.35014,-10.61094],[-76.36387,-10.62706],[-76.37309,-10.62009],[-76.38429,-10.62574],[-76.41961,-10.65317],[-76.43498,-10.65372],[-76.45636,-10.64743],[-76.47113,-10.66966],[-76.47541,-10.69437],[-76.49543,-10.71083],[-76.5064,-10.7456],[-76.51617,-10.74295],[-76.52879,-10.72566],[-76.53136,-10.71255],[-76.53851,-10.70435],[-76.57246,-10.7092],[-76.58762,-10.68232],[-76.61487,-10.67043],[-76.63735,-10.64647],[-76.65566,-10.64678]]]}},{"type":"Feature","properties":{"ubigeo":"1903","nombre":"Oxapampa"},"geometry":{"type":"Polygon","coordinates":[[[-74.41233,-9.95396],[-74.42403,-9.98944],[-74.4124,-10.00824],[-74.41832,-10.02482],[-74.40432,-10.0506],[-74.3899,-10.05135],[-74.37772,-10.07356],[-74.37709,-10.09987],[-74.36697,-10.1129],[-74.35565,-10.11877],[-74.33127,-10.10855],[-74.31502,-10.11316],[-74.30673,-10.13887],[-74.3037,-10.16386],[-74.28522,-10.1718],[-74.26685,-10.17169],[-74.24325,-10.17747],[-74.23166,-10.18505],[-74.22734,-10.19875],[-74.23465,-10.22001],[-74.2264,-10.2305],[-74.22914,-10.25114],[-74.22396,-10.2562],[-74.22716,-10.27733],[-74.23437,-10.29544],[-74.24609,-10.29718],[-74.25017,-10.31445],[-74.23686,-10.32009],[-74.2478,-10.332],[-74.26274,-10.36366],[-74.254,-10.37733],[-74.242,-10.38317],[-74.24683,-10.40593],[-74.25288,-10.41714],[-74.24489,-10.42289],[-74.23929,-10.44119],[-74.22689,-10.44305],[-74.18139,-10.48516],[-74.17753,-10.49948],[-74.18235,-10.50333],[-74.1692,-10.53163],[-74.15692,-10.5492],[-74.15093,-10.57208],[-74.1415,-10.58337],[-74.13267,-10.60491],[-74.13925,-10.61319],[-74.1394,-10.6252],[-74.13098,-10.65474],[-74.13862,-10.67073],[-74.14045,-10.65677],[-74.15778,-10.64853],[-74.16924,-10.63711],[-74.19276,-10.63918],[-74.2017,-10.63114],[-74.22966,-10.6346],[-74.22758,-10.65184],[-74.24574,-10.6545],[-74.25993,-10.66935],[-74.25892,-10.68043],[-74.27105,-10.67886],[-74.28688,-10.67041],[-74.28829,-10.68538],[-74.31097,-10.71491],[-74.31644,-10.72593],[-74.33702,-10.73386],[-74.34934,-10.74556],[-74.34926,-10.75369],[-74.35971,-10.75941],[-74.36814,-10.75185],[-74.3839,-10.74748],[-74.38291,-10.77351],[-74.37452,-10.7849],[-74.38568,-10.81177],[-74.40052,-10.81148],[-74.42014,-10.8161],[-74.42958,-10.81269],[-74.45832,-10.82827],[-74.46659,-10.83634],[-74.48007,-10.83509],[-74.49172,-10.84876],[-74.48454,-10.85587],[-74.48854,-10.87175],[-74.48619,-10.88745],[-74.50322,-10.89418],[-74.53841,-10.89628],[-74.5433,-10.89126],[-74.56923,-10.90404],[-74.56996,-10.91521],[-74.59481,-10.91149],[-74.6141,-10.90463],[-74.62354,-10.8909],[-74.63355,-10.88411],[-74.63417,-10.87356],[-74.6493,-10.86707],[-74.65781,-10.87396],[-74.67918,-10.87907],[-74.68135,-10.88916],[-74.69491,-10.88492],[-74.70017,-10.87789],[-74.70795,-10.85816],[-74.72213,-10.84788],[-74.73171,-10.83493],[-74.74061,-10.83618],[-74.76036,-10.82514],[-74.76816,-10.83048],[-74.77613,-10.82665],[-74.7918,-10.83116],[-74.80574,-10.81717],[-74.8365,-10.7713],[-74.85114,-10.73297],[-74.86971,-10.70767],[-74.88232,-10.70185],[-74.88702,-10.71245],[-74.87068,-10.73905],[-74.86594,-10.75897],[-74.89331,-10.76917],[-74.91452,-10.7483],[-74.91736,-10.75457],[-74.93932,-10.74884],[-74.95648,-10.73282],[-74.96063,-10.739],[-74.98282,-10.74979],[-74.98651,-10.73551],[-75.0055,-10.72033],[-75.00878,-10.71062],[-75.00731,-10.68739],[-75.0207,-10.67369],[-75.03564,-10.68232],[-75.03921,-10.67278],[-75.05444,-10.65708],[-75.06507,-10.65289],[-75.07432,-10.66581],[-75.07162,-10.67785],[-75.08845,-10.68354],[-75.09773,-10.7084],[-75.12701,-10.73823],[-75.14233,-10.74125],[-75.15729,-10.76008],[-75.17665,-10.7499],[-75.18995,-10.7804],[-75.20418,-10.76468],[-75.22973,-10.75943],[-75.24419,-10.76416],[-75.24347,-10.79056],[-75.24747,-10.80196],[-75.25752,-10.80991],[-75.26236,-10.82529],[-75.28837,-10.84206],[-75.30427,-10.83824],[-75.31047,-10.82775],[-75.32647,-10.81936],[-75.33879,-10.80066],[-75.3534,-10.80411],[-75.36188,-10.81917],[-75.35526,-10.82027],[-75.35648,-10.8368],[-75.36274,-10.85011],[-75.37897,-10.85612],[-75.38693,-10.86494],[-75.39805,-10.85331],[-75.41072,-10.8617],[-75.40957,-10.84595],[-75.40168,-10.84507],[-75.39076,-10.83226],[-75.38694,-10.79945],[-75.39647,-10.76906],[-75.3951,-10.75901],[-75.4135,-10.75082],[-75.42392,-10.75484],[-75.4351,-10.74758],[-75.46468,-10.75159],[-75.46971,-10.7762],[-75.48182,-10.77866],[-75.48293,-10.7655],[-75.49025,-10.75683],[-75.49833,-10.75867],[-75.52308,-10.75367],[-75.53142,-10.74329],[-75.52187,-10.73903],[-75.51688,-10.72853],[-75.51529,-10.70905],[-75.51052,-10.70283],[-75.5121,-10.68234],[-75.52131,-10.67797],[-75.53107,-10.6828],[-75.54852,-10.67315],[-75.53885,-10.66116],[-75.53952,-10.64106],[-75.55685,-10.63705],[-75.56203,-10.64464],[-75.58118,-10.64915],[-75.59147,-10.63863],[-75.59389,-10.62908],[-75.60597,-10.62867],[-75.61334,-10.62126],[-75.63597,-10.62104],[-75.63907,-10.62911],[-75.65335,-10.63034],[-75.67992,-10.60892],[-75.66705,-10.57707],[-75.67074,-10.56631],[-75.6611,-10.55331],[-75.66964,-10.54142],[-75.67654,-10.51843],[-75.66774,-10.47559],[-75.66844,-10.45878],[-75.69294,-10.44946],[-75.71051,-10.4316],[-75.7501,-10.43505],[-75.76786,-10.43304],[-75.77718,-10.44033],[-75.78783,-10.43492],[-75.80063,-10.43943],[-75.80714,-10.45709],[-75.81722,-10.45151],[-75.81916,-10.43965],[-75.85222,-10.4437],[-75.86093,-10.45373],[-75.86809,-10.45202],[-75.85869,-10.44164],[-75.85537,-10.40593],[-75.85574,-10.37197],[-75.86196,-10.35449],[-75.85567,-10.32639],[-75.85972,-10.30283],[-75.84895,-10.29075],[-75.8429,-10.26244],[-75.82626,-10.24788],[-75.81271,-10.24409],[-75.7856,-10.25237],[-75.75953,-10.23768],[-75.75136,-10.24001],[-75.7215,-10.2274],[-75.70397,-10.20669],[-75.69925,-10.17173],[-75.70574,-10.15909],[-75.70107,-10.12964],[-75.68962,-10.11671],[-75.69324,-10.10401],[-75.68628,-10.09154],[-75.67695,-10.05621],[-75.64027,-10.02641],[-75.60311,-10.02548],[-75.59529,-10.01017],[-75.59488,-9.98468],[-75.59797,-9.95811],[-75.59227,-9.95196],[-75.59039,-9.95559],[-75.56038,-9.96414],[-75.56074,-9.97011],[-75.54838,-9.98441],[-75.5371,-9.97996],[-75.49208,-9.98002],[-75.47455,-9.99217],[-75.4681,-9.98117],[-75.46231,-9.95728],[-75.4537,-9.95577],[-75.4508,-9.94376],[-75.44174,-9.93626],[-75.42292,-9.94357],[-75.40426,-9.92603],[-75.39662,-9.90896],[-75.40896,-9.90283],[-75.41118,-9.88843],[-75.3996,-9.87846],[-75.36936,-9.87083],[-75.32521,-9.87691],[-75.28822,-9.8707],[-75.27582,-9.84976],[-75.28262,-9.83049],[-75.29263,-9.81617],[-75.29761,-9.79426],[-75.30991,-9.7761],[-75.28483,-9.77606],[-75.27978,-9.77919],[-75.25688,-9.77858],[-75.24075,-9.78584],[-75.20261,-9.81537],[-75.16012,-9.83997],[-75.13519,-9.83861],[-75.1084,-9.84625],[-75.08013,-9.8392],[-75.05677,-9.81921],[-75.04326,-9.82285],[-75.03521,-9.8308],[-75.02174,-9.83094],[-75.01309,-9.8381],[-74.99362,-9.8398],[-74.98555,-9.86406],[-74.95162,-9.85991],[-74.90339,-9.83889],[-74.88587,-9.82004],[-74.87908,-9.82047],[-74.8526,-9.84836],[-74.835,-9.84711],[-74.8304,-9.83381],[-74.83624,-9.82005],[-74.82379,-9.81591],[-74.82303,-9.80049],[-74.8156,-9.79543],[-74.82137,-9.78492],[-74.84252,-9.78746],[-74.84707,-9.78048],[-74.83924,-9.76392],[-74.8438,-9.74915],[-74.81684,-9.73643],[-74.82877,-9.70396],[-74.81865,-9.69358],[-74.82188,-9.67719],[-74.81806,-9.67107],[-74.80842,-9.67551],[-74.79755,-9.66564],[-74.7866,-9.66451],[-74.78165,-9.65296],[-74.76579,-9.63831],[-74.76373,-9.62664],[-74.77238,-9.61432],[-74.76301,-9.60446],[-74.75574,-9.60654],[-74.75585,-9.58405],[-74.73517,-9.57271],[-74.74805,-9.54291],[-74.75052,-9.52461],[-74.74194,-9.51734],[-74.73979,-9.49726],[-74.72882,-9.47241],[-74.71677,-9.45908],[-74.68939,-9.4457],[-74.67596,-9.44691],[-74.66396,-9.45434],[-74.62245,-9.46111],[-74.60831,-9.47209],[-74.58109,-9.4766],[-74.57822,-9.48217],[-74.58318,-9.49844],[-74.59317,-9.50962],[-74.58162,-9.52701],[-74.58238,-9.53374],[-74.57324,-9.55089],[-74.57556,-9.57049],[-74.55693,-9.57715],[-74.53165,-9.5921],[-74.51081,-9.5941],[-74.49477,-9.59114],[-74.49389,-9.61612],[-74.49073,-9.61878],[-74.49729,-9.6376],[-74.48965,-9.65327],[-74.49014,-9.6852],[-74.4842,-9.69496],[-74.47409,-9.73012],[-74.45536,-9.74598],[-74.44724,-9.77715],[-74.45115,-9.81067],[-74.4502,-9.87023],[-74.43757,-9.87238],[-74.41455,-9.90211],[-74.41103,-9.9157],[-74.41665,-9.93082],[-74.41147,-9.93616],[-74.41233,-9.95396]]]}}]}