{"type":"FeatureCollection","features":[{"type":"Feature","properties":{"ubigeo":"2001","nombre":"Piura"},"geometry":{"type":"Polygon","coordinates":[[[-80.11054,-4.91236],[-80.11619,-4.93271],[-80.13329,-4.94488],[-80.15767,-4.95506],[-80.17417,-4.97999],[-80.17611,-4.98809],[-80.18632,-4.98643],[-80.20409,-5.00346],[-80.21121,-4.99444],[-80.22829,-4.98967],[-80.25897,-5.00377],[-80.24292,-5.00382],[-80.23264,-5.0108],[-80.23386,-5.02287],[-80.222,-5.02993],[-80.22228,-5.05354],[-80.23906,-5.06485],[-80.25417,-5.06914],[-80.28706,-5.06848],[-80.29307,-5.08591],[-80.31032,-5.09305],[-80.33554,-5.12172],[-80.33807,-5.13717],[-80.35372,-5.14015],[-80.34971,-5.14808],[-80.35233,-5.17402],[-80.36426,-5.2325],[-80.34666,-5.2332],[-80.35141,-5.25983],[-80.33029,-5.28406],[-80.25913,-5.33033],[-80.18475,-5.43148],[-80.16297,-5.45991],[-80.12683,-5.51081],[-80.10668,-5.51892],[-80.10295,-5.53235],[-80.08755,-5.54617],[-80.08287,-5.56041],[-80.05562,-5.55379],[-80.05284,-5.56357],[-80.05695,-5.57684],[-80.05555,-5.6082],[-80.0577,-5.61956],[-80.06996,-5.64617],[-80.06621,-5.65614],[-80.07105,-5.67325],[-80.06107,-5.6844],[-80.06637,-5.69821],[-80.09419,-5.70366],[-80.09115,-5.72686],[-80.09809,-5.7355],[-80.10292,-5.76211],[-80.09237,-5.79509],[-80.11141,-5.78509],[-80.1407,-5.76519],[-80.17213,-5.75054],[-80.19171,-5.73256],[-80.20755,-5.72183],[-80.24449,-5.70888],[-80.2511,-5.69689],[-80.29273,-5.6781],[-80.32249,-5.67994],[-80.53463,-5.60161],[-80.53753,-5.56817],[-80.55258,-5.49227],[-80.59146,-5.47937],[-80.60152,-5.47921],[-80.64519,-5.48711],[-80.64868,-5.46184],[-80.64432,-5.43673],[-80.72089,-5.41974],[-80.723,-5.4117],[-80.7379,-5.4052],[-80.74903,-5.41349],[-80.75191,-5.40266],[-80.77221,-5.40023],[-80.85102,-5.40605],[-80.96108,-5.35045],[-80.96169,-5.31018],[-80.99532,-5.27669],[-81.01714,-5.26654],[-81.02251,-5.24209],[-81.01652,-5.23428],[-80.99892,-5.23106],[-80.97061,-5.24134],[-80.96057,-5.23759],[-80.93923,-5.23754],[-80.90623,-5.26199],[-80.89787,-5.26257],[-80.87509,-5.27851],[-80.85955,-5.28064],[-80.84909,-5.29321],[-80.84328,-5.28687],[-80.83489,-5.2651],[-80.83625,-5.24755],[-80.82947,-5.2277],[-80.82176,-5.21678],[-80.80508,-5.22193],[-80.78559,-5.18459],[-80.77574,-5.17385],[-80.77205,-5.15961],[-80.75926,-5.13882],[-80.7416,-5.12364],[-80.70032,-5.01762],[-80.65688,-5.02355],[-80.64944,-5.00663],[-80.64529,-4.97858],[-80.62996,-4.97493],[-80.61803,-4.94076],[-80.60628,-4.92949],[-80.60529,-4.91801],[-80.59569,-4.90606],[-80.57359,-4.89972],[-80.57224,-4.88483],[-80.55298,-4.87555],[-80.55453,-4.86305],[-80.54005,-4.83979],[-80.52201,-4.82606],[-80.50743,-4.82337],[-80.48917,-4.8312],[-80.47653,-4.82583],[-80.45444,-4.83257],[-80.43489,-4.82596],[-80.41887,-4.82896],[-80.40496,-4.81256],[-80.38599,-4.8071],[-80.37668,-4.79817],[-80.36185,-4.80101],[-80.3499,-4.79221],[-80.36011,-4.7779],[-80.35575,-4.77108],[-80.36793,-4.76552],[-80.38525,-4.74709],[-80.39279,-4.72815],[-80.39869,-4.72571],[-80.40689,-4.70499],[-80.40153,-4.70078],[-80.38803,-4.66662],[-80.3486,-4.65829],[-80.3472,-4.64417],[-80.3368,-4.62808],[-80.30978,-4.61904],[-80.29944,-4.60778],[-80.27369,-4.60029],[-80.26344,-4.59061],[-80.24875,-4.58504],[-80.22518,-4.5898],[-80.22143,-4.59545],[-80.20123,-4.61041],[-80.18586,-4.60336],[-80.15738,-4.60153],[-80.15342,-4.60419],[-80.14149,-4.64176],[-80.1257,-4.6613],[-80.12357,-4.67301],[-80.11361,-4.6776],[-80.10123,-4.66346],[-80.0753,-4.66243],[-80.03555,-4.65635],[-80.02375,-4.66192],[-80.00998,-4.67558],[-80.01025,-4.69461],[-80.01973,-4.69991],[-80.02569,-4.71823],[-80.04969,-4.73077],[-80.07732,-4.73155],[-80.09246,-4.74195],[-80.09646,-4.75243],[-80.08154,-4.76545],[-80.07779,-4.78281],[-80.08506,-4.79428],[-80.11476,-4.80497],[-80.10278,-4.82184],[-80.10397,-4.83532],[-80.09373,-4.84487],[-80.09836,-4.86613],[-80.11709,-4.88237],[-80.12199,-4.89249],[-80.11185,-4.90067],[-80.11054,-4.91236]]]}},{"type":"Feature","properties":{"ubigeo":"2002","nombre":"Ayabaca"},"geometry":{"type":"Polygon","coordinates":[[[-79.64221,-5.10722],[-79.65141,-5.09987],[-79.64886,-5.09165],[-79.66442,-5.09791],[-79.67826,-5.09355],[-79.71348,-5.06023],[-79.72528,-5.0568],[-79.73121,-5.04509],[-79.72943,-5.02178],[-79.75463,-5.02484],[-79.76328,-5.01844],[-79.77522,-5.00096],[-79.78848,-4.99082],[-79.80637,-4.99789],[-79.82008,-4.9919],[-79.83134,-4.99391],[-79.83876,-4.97532],[-79.84956,-4.97238],[-79.85335,-4.9535],[-79.86425,-4.96509],[-79.86243,-4.97204],[-79.87857,-4.98484],[-79.9001,-4.99476],[-79.90225,-5.01149],[-79.90917,-5.0194],[-79.92528,-5.01938],[-79.94047,-5.0314],[-79.95932,-5.0367],[-79.96919,-5.02734],[-79.98943,-5.02621],[-80.00225,-5.01597],[-80.0101,-5.02142],[-80.02199,-5.0183],[-80.0388,-5.02636],[-80.04293,-5.0188],[-80.08256,-5.00447],[-80.08665,-4.99482],[-80.09008,-4.9682],[-80.07839,-4.94412],[-80.09003,-4.93186],[-80.10214,-4.92844],[-80.11054,-4.91236],[-80.11185,-4.90067],[-80.12199,-4.89249],[-80.11709,-4.88237],[-80.09836,-4.86613],[-80.09373,-4.84487],[-80.10397,-4.83532],[-80.10278,-4.82184],[-80.11476,-4.80497],[-80.08506,-4.79428],[-80.07779,-4.78281],[-80.08154,-4.76545],[-80.09646,-4.75243],[-80.09246,-4.74195],[-80.07732,-4.73155],[-80.04969,-4.73077],[-80.02569,-4.71823],[-80.01973,-4.69991],[-80.01025,-4.69461],[-80.00998,-4.67558],[-80.02375,-4.66192],[-80.03555,-4.65635],[-80.0753,-4.66243],[-80.10123,-4.66346],[-80.11361,-4.6776],[-80.12357,-4.67301],[-80.1257,-4.6613],[-80.14149,-4.64176],[-80.15342,-4.60419],[-80.15738,-4.60153],[-80.18586,-4.60336],[-80.20123,-4.61041],[-80.22143,-4.59545],[-80.20768,-4.58466],[-80.20159,-4.57385],[-80.20832,-4.54659],[-80.22172,-4.53646],[-80.22377,-4.51396],[-80.21276,-4.50699],[-80.21425,-4.48447],[-80.2233,-4.47764],[-80.223,-4.46923],[-80.21236,-4.46302],[-80.22792,-4.45123],[-80.23493,-4.43755],[-80.24929,-4.43932],[-80.26526,-4.42937],[-80.27223,-4.43871],[-80.28376,-4.42577],[-80.28988,-4.43324],[-80.29565,-4.42477],[-80.27708,-4.4041],[-80.26205,-4.41043],[-80.25008,-4.40188],[-80.2467,-4.39069],[-80.23541,-4.38749],[-80.23224,-4.3738],[-80.2197,-4.37636],[-80.21901,-4.35532],[-80.19486,-4.34636],[-80.20548,-4.33867],[-80.1872,-4.33556],[-80.17916,-4.29751],[-80.16479,-4.2899],[-80.16581,-4.3007],[-80.15399,-4.30327],[-80.1418,-4.28563],[-80.13496,-4.29628],[-80.11725,-4.29447],[-80.108,-4.29804],[-80.10424,-4.29096],[-80.09145,-4.30092],[-80.06148,-4.31022],[-80.05105,-4.33079],[-80.04022,-4.33587],[-80.0345,-4.34875],[-80.01409,-4.35688],[-80.00819,-4.36897],[-79.99177,-4.37996],[-79.97878,-4.37921],[-79.95992,-4.39498],[-79.93088,-4.39434],[-79.9207,-4.38561],[-79.89182,-4.40152],[-79.88222,-4.41042],[-79.87135,-4.41298],[-79.85405,-4.43447],[-79.853,-4.45131],[-79.83984,-4.4676],[-79.81302,-4.4911],[-79.80043,-4.48854],[-79.79388,-4.49298],[-79.74884,-4.4829],[-79.71973,-4.4681],[-79.70643,-4.47157],[-79.68897,-4.45801],[-79.68185,-4.44792],[-79.67464,-4.44813],[-79.65551,-4.434],[-79.62808,-4.43935],[-79.60026,-4.45649],[-79.59679,-4.46801],[-79.58246,-4.48299],[-79.58136,-4.49798],[-79.56987,-4.50348],[-79.56069,-4.51529],[-79.55069,-4.51503],[-79.54387,-4.52648],[-79.52752,-4.52984],[-79.51488,-4.51862],[-79.49634,-4.52192],[-79.48528,-4.53764],[-79.48284,-4.55652],[-79.47661,-4.56972],[-79.4916,-4.57759],[-79.48977,-4.61039],[-79.48559,-4.62906],[-79.46977,-4.64224],[-79.46093,-4.66689],[-79.4584,-4.6982],[-79.44547,-4.72233],[-79.43754,-4.72888],[-79.42879,-4.74787],[-79.39355,-4.83617],[-79.40554,-4.85011],[-79.40858,-4.86705],[-79.4172,-4.88479],[-79.40619,-4.9093],[-79.4098,-4.92643],[-79.40481,-4.94494],[-79.41475,-4.95505],[-79.43374,-4.96426],[-79.4498,-4.96626],[-79.45433,-4.98862],[-79.46272,-4.98637],[-79.48192,-5.02153],[-79.47493,-5.05285],[-79.48091,-5.06111],[-79.48465,-5.07866],[-79.4921,-5.08564],[-79.49686,-5.10819],[-79.51819,-5.08476],[-79.53319,-5.07933],[-79.55598,-5.076],[-79.56679,-5.06947],[-79.57812,-5.07091],[-79.57893,-5.06106],[-79.59525,-5.05665],[-79.60004,-5.08438],[-79.6152,-5.09781],[-79.64221,-5.10722]]]}},{"type":"Feature","properties":{"ubigeo":"2003","nombre":"Huancabamba"},"geometry":{"type":"Polygon","coordinates":[[[-79.27596,-5.51974],[-79.29306,-5.52545],[-79.31066,-5.52006],[-79.32896,-5.5351],[-79.35222,-5.52749],[-79.36784,-5.52871],[-79.38698,-5.52237],[-79.3995,-5.53875],[-79.39013,-5.55826],[-79.38025,-5.5704],[-79.38054,-5.58952],[-79.37213,-5.59803],[-79.3828,-5.63626],[-79.378,-5.64772],[-79.38414,-5.65739],[-79.38451,-5.68027],[-79.39827,-5.69937],[-79.39766,-5.72552],[-79.40155,-5.74925],[-79.39815,-5.77448],[-79.38914,-5.79355],[-79.376,-5.80053],[-79.37626,-5.82405],[-79.35577,-5.85193],[-79.35364,-5.87112],[-79.33916,-5.88198],[-79.33544,-5.89397],[-79.35465,-5.91296],[-79.36741,-5.93722],[-79.38022,-5.94013],[-79.39836,-5.94993],[-79.41861,-5.9701],[-79.43546,-5.95529],[-79.4629,-5.94442],[-79.47005,-5.92808],[-79.49894,-5.91519],[-79.5174,-5.92006],[-79.52067,-5.9128],[-79.55168,-5.93293],[-79.60045,-5.93957],[-79.61111,-5.92346],[-79.61348,-5.89507],[-79.62642,-5.88745],[-79.62557,-5.8758],[-79.63524,-5.8522],[-79.62875,-5.85161],[-79.63143,-5.82903],[-79.62398,-5.82354],[-79.62258,-5.79757],[-79.62876,-5.79602],[-79.6365,-5.81004],[-79.65136,-5.81604],[-79.662,-5.83415],[-79.68271,-5.84645],[-79.70733,-5.8458],[-79.71261,-5.83801],[-79.73733,-5.83765],[-79.74193,-5.81897],[-79.73932,-5.79959],[-79.72743,-5.78194],[-79.71775,-5.75039],[-79.71728,-5.73935],[-79.74927,-5.70967],[-79.76642,-5.70825],[-79.75929,-5.69626],[-79.74553,-5.68604],[-79.74536,-5.67585],[-79.77757,-5.65885],[-79.78693,-5.64659],[-79.80501,-5.64641],[-79.81823,-5.66463],[-79.8276,-5.64494],[-79.83294,-5.64549],[-79.83944,-5.63003],[-79.83273,-5.6061],[-79.8004,-5.56215],[-79.77705,-5.56192],[-79.75705,-5.53894],[-79.75707,-5.53076],[-79.73738,-5.509],[-79.7294,-5.47337],[-79.71733,-5.48554],[-79.71352,-5.49688],[-79.68434,-5.5247],[-79.68161,-5.53098],[-79.66113,-5.53168],[-79.6509,-5.52271],[-79.65173,-5.50052],[-79.64253,-5.48519],[-79.64386,-5.47574],[-79.65473,-5.4701],[-79.66899,-5.47161],[-79.69103,-5.45903],[-79.72257,-5.45299],[-79.73283,-5.44436],[-79.74999,-5.44644],[-79.76038,-5.4401],[-79.76843,-5.42453],[-79.76482,-5.40378],[-79.74605,-5.39126],[-79.74036,-5.38093],[-79.72264,-5.37585],[-79.71085,-5.37708],[-79.69804,-5.38566],[-79.67633,-5.38104],[-79.66282,-5.36895],[-79.65988,-5.34874],[-79.6478,-5.33546],[-79.6552,-5.3333],[-79.66984,-5.31743],[-79.6686,-5.29665],[-79.6941,-5.2592],[-79.70053,-5.23904],[-79.71119,-5.22134],[-79.72004,-5.21525],[-79.70311,-5.20981],[-79.69999,-5.20337],[-79.70737,-5.18992],[-79.72033,-5.18209],[-79.71258,-5.15427],[-79.71492,-5.12663],[-79.68804,-5.09788],[-79.67601,-5.10724],[-79.67082,-5.12382],[-79.66258,-5.12832],[-79.66091,-5.15118],[-79.64726,-5.13237],[-79.65493,-5.12143],[-79.64352,-5.11573],[-79.64221,-5.10722],[-79.6152,-5.09781],[-79.60004,-5.08438],[-79.59525,-5.05665],[-79.57893,-5.06106],[-79.57812,-5.07091],[-79.56679,-5.06947],[-79.55598,-5.076],[-79.53319,-5.07933],[-79.51819,-5.08476],[-79.49686,-5.10819],[-79.4921,-5.08564],[-79.48465,-5.07866],[-79.48091,-5.06111],[-79.47493,-5.05285],[-79.48192,-5.02153],[-79.46272,-4.98637],[-79.45433,-4.98862],[-79.4498,-4.96626],[-79.43374,-4.96426],[-79.41475,-4.95505],[-79.40481,-4.94494],[-79.4098,-4.92643],[-79.40619,-4.9093],[-79.4172,-4.88479],[-79.40858,-4.86705],[-79.40554,-4.85011],[-79.39355,-4.83617],[-79.37376,-4.83271],[-79.36614,-4.83767],[-79.35378,-4.87058],[-79.3457,-4.88565],[-79.33393,-4.8842],[-79.32057,-4.90067],[-79.3098,-4.89769],[-79.30167,-4.9092],[-79.30029,-4.92096],[-79.28803,-4.94315],[-79.26177,-4.96844],[-79.2236,-4.96447],[-79.21004,-4.96585],[-79.21285,-4.97635],[-79.22218,-4.9824],[-79.21614,-4.991],[-79.21502,-5.01014],[-79.22774,-5.0498],[-79.24113,-5.04967],[-79.24509,-5.05563],[-79.27301,-5.05852],[-79.27326,-5.07278],[-79.29619,-5.10122],[-79.29603,-5.11198],[-79.33035,-5.12443],[-79.34056,-5.13914],[-79.34331,-5.16537],[-79.36748,-5.17451],[-79.37841,-5.19052],[-79.3683,-5.21342],[-79.34865,-5.23258],[-79.34703,-5.24987],[-79.35293,-5.26819],[-79.35937,-5.27292],[-79.35905,-5.28863],[-79.34548,-5.29985],[-79.34365,-5.30773],[-79.32807,-5.31591],[-79.33036,-5.32545],[-79.32579,-5.34851],[-79.31974,-5.36227],[-79.30836,-5.36467],[-79.31008,-5.37498],[-79.3044,-5.3918],[-79.30464,-5.42829],[-79.29451,-5.44025],[-79.2977,-5.45813],[-79.28864,-5.48002],[-79.28075,-5.48738],[-79.27872,-5.51757],[-79.27596,-5.51974]]]}},{"type":"Feature","properties":{"ubigeo":"2004","nombre":"Morropón"},"geometry":{"type":"Polygon","coordinates":[[[-79.83944,-5.63003],[-79.85381,-5.59911],[-79.86442,-5.56342],[-79.8641,-5.54868],[-79.85399,-5.53182],[-79.87751,-5.50964],[-79.87903,-5.49927],[-79.89536,-5.48213],[-79.90305,-5.49145],[-79.93246,-5.50537],[-79.93874,-5.51666],[-79.94587,-5.515],[-79.9557,-5.541],[-79.96052,-5.58162],[-79.97784,-5.57982],[-79.99919,-5.58536],[-80.03128,-5.56948],[-80.05284,-5.56357],[-80.05562,-5.55379],[-80.08287,-5.56041],[-80.08755,-5.54617],[-80.10295,-5.53235],[-80.10668,-5.51892],[-80.12683,-5.51081],[-80.16297,-5.45991],[-80.18475,-5.43148],[-80.25913,-5.33033],[-80.33029,-5.28406],[-80.35141,-5.25983],[-80.34666,-5.2332],[-80.36426,-5.2325],[-80.35233,-5.17402],[-80.34971,-5.14808],[-80.35372,-5.14015],[-80.33807,-5.13717],[-80.33554,-5.12172],[-80.31032,-5.09305],[-80.29307,-5.08591],[-80.28706,-5.06848],[-80.25417,-5.06914],[-80.23906,-5.06485],[-80.22228,-5.05354],[-80.222,-5.02993],[-80.23386,-5.02287],[-80.23264,-5.0108],[-80.24292,-5.00382],[-80.25897,-5.00377],[-80.22829,-4.98967],[-80.21121,-4.99444],[-80.20409,-5.00346],[-80.18632,-4.98643],[-80.17611,-4.98809],[-80.17417,-4.97999],[-80.15767,-4.95506],[-80.13329,-4.94488],[-80.11619,-4.93271],[-80.11054,-4.91236],[-80.10214,-4.92844],[-80.09003,-4.93186],[-80.07839,-4.94412],[-80.09008,-4.9682],[-80.08665,-4.99482],[-80.08256,-5.00447],[-80.04293,-5.0188],[-80.0388,-5.02636],[-80.02199,-5.0183],[-80.0101,-5.02142],[-80.00225,-5.01597],[-79.98943,-5.02621],[-79.96919,-5.02734],[-79.95932,-5.0367],[-79.94047,-5.0314],[-79.92528,-5.01938],[-79.90917,-5.0194],[-79.90225,-5.01149],[-79.9001,-4.99476],[-79.87857,-4.98484],[-79.86243,-4.97204],[-79.86425,-4.96509],[-79.85335,-4.9535],[-79.84956,-4.97238],[-79.83876,-4.97532],[-79.83134,-4.99391],[-79.82008,-4.9919],[-79.80637,-4.99789],[-79.78848,-4.99082],[-79.77522,-5.00096],[-79.76328,-5.01844],[-79.75463,-5.02484],[-79.72943,-5.02178],[-79.73121,-5.04509],[-79.72528,-5.0568],[-79.71348,-5.06023],[-79.67826,-5.09355],[-79.66442,-5.09791],[-79.64886,-5.09165],[-79.65141,-5.09987],[-79.64221,-5.10722],[-79.64352,-5.11573],[-79.65493,-5.12143],[-79.64726,-5.13237],[-79.66091,-5.15118],[-79.66258,-5.12832],[-79.67082,-5.12382],[-79.67601,-5.10724],[-79.68804,-5.09788],[-79.71492,-5.12663],[-79.71258,-5.15427],[-79.72033,-5.18209],[-79.70737,-5.18992],[-79.69999,-5.20337],[-79.70311,-5.20981],[-79.72004,-5.21525],[-79.71119,-5.22134],[-79.70053,-5.23904],[-79.6941,-5.2592],[-79.6686,-5.29665],[-79.66984,-5.31743],[-79.6552,-5.3333],[-79.6478,-5.33546],[-79.65988,-5.34874],[-79.66282,-5.36895],[-79.67633,-5.38104],[-79.69804,-5.38566],[-79.71085,-5.37708],[-79.72264,-5.37585],[-79.74036,-5.38093],[-79.74605,-5.39126],[-79.76482,-5.40378],[-79.76843,-5.42453],[-79.76038,-5.4401],[-79.74999,-5.44644],[-79.73283,-5.44436],[-79.72257,-5.45299],[-79.69103,-5.45903],[-79.66899,-5.47161],[-79.65473,-5.4701],[-79.64386,-5.47574],[-79.64253,-5.48519],[-79.65173,-5.50052],[-79.6509,-5.52271],[-79.66113,-5.53168],[-79.68161,-5.53098],[-79.68434,-5.5247],[-79.71352,-5.49688],[-79.71733,-5.48554],[-79.7294,-5.47337],[-79.73738,-5.509],[-79.75707,-5.53076],[-79.75705,-5.53894],[-79.77705,-5.56192],[-79.8004,-5.56215],[-79.83273,-5.6061],[-79.83944,-5.63003]]]}},{"type":"Feature","properties":{"ubigeo":"2005","nombre":"Paita"},"geometry":{"type":"Polygon","coordinates":[[[-80.96108,-5.35045],[-80.9722,-5.3526],[-80.98715,-5.37371],[-80.99395,-5.38846],[-81.02849,-5.35261],[-81.05298,-5.33099],[-81.07817,-5.31321],[-81.09184,-5.30837],[-81.10815,-5.31475],[-81.1185,-5.29187],[-81.13812,-5.26362],[-81.15037,-5.25494],[-81.19455,-5.21212],[-81.189,-5.19404],[-81.17357,-5.18413],[-81.1676,-5.15641],[-81.17902,-5.13217],[-81.1698,-5.13184],[-81.16047,-5.12341],[-81.16028,-5.11127],[-81.17136,-5.08832],[-81.15998,-5.07275],[-81.14929,-5.07932],[-81.13316,-5.07028],[-81.12332,-5.07255],[-81.10931,-5.08486],[-81.09067,-5.08174],[-81.07538,-5.06972],[-81.06022,-5.03928],[-81.06674,-5.00535],[-81.08642,-4.96733],[-81.09774,-4.95347],[-81.14217,-4.90763],[-81.15482,-4.88429],[-81.17662,-4.85536],[-81.21055,-4.8164],[-80.96826,-4.77179],[-80.93193,-4.80492],[-80.93411,-4.82726],[-80.94037,-4.8463],[-80.95376,-4.86319],[-80.93936,-4.86868],[-80.93815,-4.88184],[-80.9243,-4.89339],[-80.88161,-4.89212],[-80.8666,-4.89867],[-80.85766,-4.89592],[-80.85247,-4.90943],[-80.8401,-4.90185],[-80.82836,-4.90419],[-80.82436,-4.91876],[-80.829,-4.94058],[-80.85082,-4.95061],[-80.84816,-5.09313],[-80.85955,-5.28064],[-80.87509,-5.27851],[-80.89787,-5.26257],[-80.90623,-5.26199],[-80.93923,-5.23754],[-80.96057,-5.23759],[-80.97061,-5.24134],[-80.99892,-5.23106],[-81.01652,-5.23428],[-81.02251,-5.24209],[-81.01714,-5.26654],[-80.99532,-5.27669],[-80.96169,-5.31018],[-80.96108,-5.35045]]]}},{"type":"Feature","properties":{"ubigeo":"2006","nombre":"Sullana"},"geometry":{"type":"Polygon","coordinates":[[[-80.22143,-4.59545],[-80.22518,-4.5898],[-80.24875,-4.58504],[-80.26344,-4.59061],[-80.27369,-4.60029],[-80.29944,-4.60778],[-80.30978,-4.61904],[-80.3368,-4.62808],[-80.3472,-4.64417],[-80.3486,-4.65829],[-80.38803,-4.66662],[-80.40153,-4.70078],[-80.40689,-4.70499],[-80.39869,-4.72571],[-80.39279,-4.72815],[-80.38525,-4.74709],[-80.36793,-4.76552],[-80.35575,-4.77108],[-80.36011,-4.7779],[-80.3499,-4.79221],[-80.36185,-4.80101],[-80.37668,-4.79817],[-80.38599,-4.8071],[-80.40496,-4.81256],[-80.41887,-4.82896],[-80.43489,-4.82596],[-80.45444,-4.83257],[-80.47653,-4.82583],[-80.48917,-4.8312],[-80.50743,-4.82337],[-80.52201,-4.82606],[-80.54005,-4.83979],[-80.55453,-4.86305],[-80.55298,-4.87555],[-80.57224,-4.88483],[-80.57359,-4.89972],[-80.59569,-4.90606],[-80.60529,-4.91801],[-80.60628,-4.92949],[-80.61803,-4.94076],[-80.62996,-4.97493],[-80.64529,-4.97858],[-80.64944,-5.00663],[-80.65688,-5.02355],[-80.70032,-5.01762],[-80.7416,-5.12364],[-80.75926,-5.13882],[-80.77205,-5.15961],[-80.77574,-5.17385],[-80.78559,-5.18459],[-80.80508,-5.22193],[-80.82176,-5.21678],[-80.82947,-5.2277],[-80.83625,-5.24755],[-80.83489,-5.2651],[-80.84328,-5.28687],[-80.84909,-5.29321],[-80.85955,-5.28064],[-80.84816,-5.09313],[-80.85082,-4.95061],[-80.829,-4.94058],[-80.82436,-4.91876],[-80.82836,-4.90419],[-80.8401,-4.90185],[-80.85247,-4.90943],[-80.85766,-4.89592],[-80.8666,-4.89867],[-80.88161,-4.89212],[-80.9243,-4.89339],[-80.93815,-4.88184],[-80.93936,-4.86868],[-80.95376,-4.86319],[-80.94037,-4.8463],[-80.93411,-4.82726],[-80.93193,-4.80492],[-80.96826,-4.77179],[-80.84821,-4.74837],[-80.85248,-4.7321],[-80.87248,-4.68843],[-80.89842,-4.67163],[-80.91629,-4.64737],[-80.92304,-4.63288],[-80.92944,-4.63287],[-80.93638,-4.6181],[-80.9142,-4.61551],[-80.90441,-4.60061],[-80.89096,-4.59547],[-80.88587,-4.57949],[-80.89323,-4.57563],[-80.89636,-4.56118],[-80.904,-4.55024],[-80.91321,-4.55249],[-80.91959,-4.54466],[-80.91944,-4.52033],[-80.88042,-4.49153],[-80.87378,-4.49039],[-80.87635,-4.47536],[-80.87005,-4.46231],[-80.85029,-4.45628],[-80.85851,-4.43586],[-80.84545,-4.42216],[-80.85113,-4.40909],[-80.83281,-4.39646],[-80.82912,-4.38534],[-80.85231,-4.38307],[-80.85837,-4.37395],[-80.87718,-4.36472],[-80.87727,-4.3417],[-80.86885,-4.33554],[-80.86748,-4.31644],[-80.89239,-4.31887],[-80.90492,-4.3078],[-80.91473,-4.31795],[-80.93327,-4.30076],[-80.93771,-4.29109],[-80.92896,-4.26462],[-80.92704,-4.24631],[-80.90893,-4.22452],[-80.92297,-4.21076],[-80.93638,-4.18977],[-80.93638,-4.17824],[-80.92831,-4.16903],[-80.90077,-4.17942],[-80.88282,-4.1928],[-80.8657,-4.18888],[-80.85053,-4.19099],[-80.82402,-4.18562],[-80.80331,-4.17597],[-80.79015,-4.18024],[-80.77046,-4.17422],[-80.74551,-4.18403],[-80.73338,-4.17889],[-80.71865,-4.19425],[-80.70032,-4.1878],[-80.68037,-4.20078],[-80.66645,-4.21506],[-80.64523,-4.22956],[-80.62322,-4.23178],[-80.61133,-4.22539],[-80.60458,-4.21115],[-80.58982,-4.21412],[-80.58723,-4.19951],[-80.57768,-4.19604],[-80.57245,-4.18117],[-80.56083,-4.1747],[-80.55898,-4.16108],[-80.54166,-4.14139],[-80.53299,-4.1217],[-80.52642,-4.12036],[-80.52435,-4.10741],[-80.5172,-4.09804],[-80.48733,-4.08313],[-80.47501,-4.10384],[-80.46385,-4.1158],[-80.46493,-4.12937],[-80.4486,-4.12073],[-80.44931,-4.20934],[-80.43427,-4.19594],[-80.4189,-4.20335],[-80.40928,-4.21854],[-80.3883,-4.20248],[-80.3823,-4.20725],[-80.37129,-4.19755],[-80.35268,-4.2207],[-80.33938,-4.20854],[-80.32937,-4.21458],[-80.31319,-4.19825],[-80.30958,-4.20562],[-80.32883,-4.22313],[-80.35251,-4.25872],[-80.36725,-4.26995],[-80.36718,-4.28205],[-80.39838,-4.30378],[-80.42993,-4.34283],[-80.4354,-4.36165],[-80.44414,-4.36599],[-80.45249,-4.38083],[-80.45353,-4.40697],[-80.44905,-4.41937],[-80.45198,-4.43034],[-80.43879,-4.45644],[-80.41727,-4.45969],[-80.39607,-4.47656],[-80.38954,-4.48611],[-80.37987,-4.4767],[-80.36189,-4.48008],[-80.35523,-4.47265],[-80.33587,-4.4674],[-80.3185,-4.45132],[-80.30847,-4.44899],[-80.28988,-4.43324],[-80.28376,-4.42577],[-80.27223,-4.43871],[-80.26526,-4.42937],[-80.24929,-4.43932],[-80.23493,-4.43755],[-80.22792,-4.45123],[-80.21236,-4.46302],[-80.223,-4.46923],[-80.2233,-4.47764],[-80.21425,-4.48447],[-80.21276,-4.50699],[-80.22377,-4.51396],[-80.22172,-4.53646],[-80.20832,-4.54659],[-80.20159,-4.57385],[-80.20768,-4.58466],[-80.22143,-4.59545]]]}},{"type":"Feature","properties":{"ubigeo":"2007","nombre":"Talara"},"geometry":{"type":"Polygon","coordinates":[[[-80.96826,-4.77179],[-81.21055,-4.8164],[-81.24212,-4.78159],[-81.28518,-4.73165],[-81.31507,-4.69881],[-81.3281,-4.68188],[-81.327,-4.66887],[-81.30965,-4.66182],[-81.29473,-4.61722],[-81.29532,-4.60388],[-81.28699,-4.58621],[-81.28619,-4.57542],[-81.2748,-4.57223],[-81.28046,-4.55056],[-81.28245,-4.52519],[-81.30361,-4.48325],[-81.29839,-4.47234],[-81.29984,-4.45971],[-81.2801,-4.45273],[-81.26479,-4.42824],[-81.26099,-4.40711],[-81.25227,-4.39269],[-81.24928,-4.35482],[-81.25309,-4.32752],[-81.26066,-4.31089],[-81.25449,-4.27941],[-81.23705,-4.25068],[-81.22169,-4.24733],[-81.20401,-4.2281],[-81.17672,-4.21713],[-81.16858,-4.21046],[-81.14291,-4.178],[-81.12695,-4.17214],[-81.10062,-4.12894],[-81.07571,-4.11135],[-81.05428,-4.10284],[-81.04191,-4.08292],[-81.02888,-4.10522],[-81.01197,-4.11423],[-81.00065,-4.1112],[-80.97132,-4.12712],[-80.96189,-4.15049],[-80.97078,-4.16691],[-80.96756,-4.1726],[-80.94275,-4.169],[-80.93638,-4.17824],[-80.93638,-4.18977],[-80.92297,-4.21076],[-80.90893,-4.22452],[-80.92704,-4.24631],[-80.92896,-4.26462],[-80.93771,-4.29109],[-80.93327,-4.30076],[-80.91473,-4.31795],[-80.90492,-4.3078],[-80.89239,-4.31887],[-80.86748,-4.31644],[-80.86885,-4.33554],[-80.87727,-4.3417],[-80.87718,-4.36472],[-80.85837,-4.37395],[-80.85231,-4.38307],[-80.82912,-4.38534],[-80.83281,-4.39646],[-80.85113,-4.40909],[-80.84545,-4.42216],[-80.85851,-4.43586],[-80.85029,-4.45628],[-80.87005,-4.46231],[-80.87635,-4.47536],[-80.87378,-4.49039],[-80.88042,-4.49153],[-80.91944,-4.52033],[-80.91959,-4.54466],[-80.91321,-4.55249],[-80.904,-4.55024],[-80.89636,-4.56118],[-80.89323,-4.57563],[-80.88587,-4.57949],[-80.89096,-4.59547],[-80.90441,-4.60061],[-80.9142,-4.61551],[-80.93638,-4.6181],[-80.92944,-4.63287],[-80.92304,-4.63288],[-80.91629,-4.64737],[-80.89842,-4.67163],[-80.87248,-4.68843],[-80.85248,-4.7321],[-80.84821,-4.74837],[-80.96826,-4.77179]]]}},{"type":"Feature","properties":{"ubigeo":"2008","nombre":"Sechura"},"geometry":{"type":"Polygon","coordinates":[[[-80.62713,-6.37208],[-80.65994,-6.3545],[-80.70995,-6.3301],[-80.75691,-6.31215],[-80.77911,-6.30176],[-80.79792,-6.28898],[-80.86109,-6.22885],[-80.91313,-6.19058],[-81.00743,-6.13286],[-81.05108,-6.10858],[-81.09157,-6.08203],[-81.1115,-6.06194],[-81.11729,-6.04034],[-81.1316,-6.02285],[-81.14036,-6.00666],[-81.14926,-5.98124],[-81.14514,-5.97032],[-81.14956,-5.94761],[-81.14497,-5.93121],[-81.14577,-5.89878],[-81.14929,-5.88923],[-81.12851,-5.86446],[-81.12351,-5.84297],[-81.10263,-5.84321],[-81.08782,-5.82093],[-81.08284,-5.80637],[-81.08435,-5.79477],[-81.06845,-5.78575],[-81.05864,-5.79329],[-81.04227,-5.81711],[-81.0217,-5.83056],[-81.01396,-5.82803],[-81.00199,-5.83591],[-80.97646,-5.83838],[-80.96751,-5.8447],[-80.94314,-5.84568],[-80.92196,-5.83686],[-80.90463,-5.82427],[-80.89149,-5.80982],[-80.87628,-5.77517],[-80.86124,-5.74967],[-80.85389,-5.71655],[-80.85023,-5.66355],[-80.85255,-5.63549],[-80.8663,-5.59015],[-80.88146,-5.55004],[-80.89229,-5.52879],[-80.89758,-5.51145],[-80.91156,-5.48565],[-80.93022,-5.45752],[-80.95848,-5.42309],[-80.97186,-5.41234],[-80.99395,-5.38846],[-80.98715,-5.37371],[-80.9722,-5.3526],[-80.96108,-5.35045],[-80.85102,-5.40605],[-80.77221,-5.40023],[-80.75191,-5.40266],[-80.74903,-5.41349],[-80.7379,-5.4052],[-80.723,-5.4117],[-80.72089,-5.41974],[-80.64432,-5.43673],[-80.64868,-5.46184],[-80.64519,-5.48711],[-80.60152,-5.47921],[-80.59146,-5.47937],[-80.55258,-5.49227],[-80.53753,-5.56817],[-80.53463,-5.60161],[-80.32249,-5.67994],[-80.29273,-5.6781],[-80.2511,-5.69689],[-80.24449,-5.70888],[-80.20755,-5.72183],[-80.19171,-5.73256],[-80.17213,-5.75054],[-80.1407,-5.76519],[-80.11141,-5.78509],[-80.09237,-5.79509],[-80.07971,-5.80231],[-80.05298,-5.81124],[-80.07999,-5.8353],[-80.10607,-5.86745],[-80.12036,-5.87257],[-80.12385,-5.89131],[-80.13086,-5.88867],[-80.16668,-5.89239],[-80.19891,-5.893],[-80.21731,-5.90387],[-80.26963,-5.91703],[-80.29175,-5.926],[-80.32741,-5.94744],[-80.35007,-5.97154],[-80.35456,-5.98591],[-80.37622,-6.00697],[-80.50273,-6.19239],[-80.62713,-6.37208]]]}}]}