{"type":"FeatureCollection","features":[{"type":"Feature","properties":{"ubigeo":"2101","nombre":"Puno"},"geometry":{"type":"MultiPolygon","coordinates":[[[[-70.02462,-16.63118],[-70.03064,-16.63472],[-70.04697,-16.62796],[-70.0552,-16.63792],[-70.0674,-16.63842],[-70.08785,-16.65523],[-70.13783,-16.62857],[-70.14876,-16.61531],[-70.1687,-16.60962],[-70.17636,-16.59333],[-70.17312,-16.58338],[-70.1757,-16.56072],[-70.18539,-16.5372],[-70.20049,-16.53959],[-70.22019,-16.5133],[-70.22867,-16.50608],[-70.24353,-16.50447],[-70.30117,-16.47867],[-70.31294,-16.46158],[-70.30631,-16.44721],[-70.31674,-16.4444],[-70.31589,-16.43159],[-70.3334,-16.41145],[-70.35032,-16.41572],[-70.36089,-16.41083],[-70.35655,-16.40027],[-70.38211,-16.38496],[-70.3706,-16.36865],[-70.35782,-16.36832],[-70.34833,-16.35477],[-70.33876,-16.3228],[-70.3478,-16.29084],[-70.34038,-16.26883],[-70.34513,-16.2561],[-70.32784,-16.23482],[-70.32453,-16.21591],[-70.33077,-16.20289],[-70.34028,-16.2009],[-70.3592,-16.20863],[-70.36882,-16.19898],[-70.36723,-16.18926],[-70.37375,-16.17592],[-70.38965,-16.15624],[-70.40194,-16.14903],[-70.4083,-16.1208],[-70.40129,-16.10253],[-70.40288,-16.08906],[-70.40979,-16.07635],[-70.41753,-16.07441],[-70.43507,-16.06015],[-70.4392,-16.03808],[-70.4452,-16.03378],[-70.46306,-16.04962],[-70.48256,-16.03947],[-70.50771,-16.03777],[-70.52608,-16.02672],[-70.53092,-16.01416],[-70.53884,-16.01045],[-70.54929,-15.99518],[-70.56289,-15.9825],[-70.54639,-15.97818],[-70.51755,-15.97645],[-70.50414,-15.95898],[-70.48081,-15.9465],[-70.47949,-15.93211],[-70.48441,-15.92384],[-70.47928,-15.9112],[-70.44617,-15.89573],[-70.44961,-15.88184],[-70.44326,-15.86198],[-70.43299,-15.85805],[-70.42765,-15.84889],[-70.43073,-15.83208],[-70.41906,-15.81941],[-70.43842,-15.78715],[-70.43499,-15.77404],[-70.41974,-15.75669],[-70.42452,-15.74469],[-70.4033,-15.73011],[-70.38115,-15.7348],[-70.37632,-15.74101],[-70.35858,-15.73599],[-70.34143,-15.72613],[-70.32367,-15.7279],[-70.3128,-15.73599],[-70.30787,-15.73246],[-70.2897,-15.70188],[-70.28079,-15.69384],[-70.26897,-15.69207],[-70.26372,-15.67671],[-70.24624,-15.67554],[-70.23322,-15.66576],[-70.21694,-15.64733],[-70.20534,-15.64251],[-70.20186,-15.61734],[-70.19163,-15.61887],[-70.1838,-15.62934],[-70.17058,-15.63417],[-70.1603,-15.65308],[-70.14906,-15.65671],[-70.14547,-15.66988],[-70.12911,-15.64234],[-70.11871,-15.6372],[-70.08374,-15.64246],[-70.08466,-15.63304],[-70.06741,-15.61956],[-70.05893,-15.60188],[-70.04264,-15.58762],[-70.02573,-15.5655],[-69.99818,-15.55965],[-70.01036,-15.55638],[-69.99559,-15.54228],[-69.98041,-15.5467],[-69.96178,-15.54681],[-69.96831,-15.53571],[-69.95845,-15.53048],[-69.94708,-15.51444],[-69.93198,-15.50803],[-69.90694,-15.50777],[-69.89694,-15.49463],[-69.88906,-15.51026],[-69.87647,-15.51951],[-69.86441,-15.53493],[-69.86071,-15.55705],[-69.84941,-15.5607],[-69.84178,-15.57636],[-69.82533,-15.58809],[-69.80872,-15.61142],[-69.81626,-15.61714],[-69.80802,-15.62457],[-69.8136,-15.63193],[-69.8046,-15.65397],[-69.79577,-15.66216],[-69.78447,-15.66281],[-69.78024,-15.65595],[-69.77069,-15.65839],[-69.76108,-15.68181],[-69.77632,-15.68202],[-69.79705,-15.6676],[-69.80325,-15.67426],[-69.78478,-15.69379],[-69.75334,-15.71265],[-69.74376,-15.72284],[-69.75077,-15.72908],[-69.79386,-15.7253],[-69.80188,-15.71663],[-69.82124,-15.70702],[-69.82921,-15.69679],[-69.84552,-15.68501],[-69.8508,-15.67414],[-69.84977,-15.65011],[-69.84491,-15.64068],[-69.86072,-15.61865],[-69.88085,-15.60752],[-69.89292,-15.59343],[-69.906,-15.56549],[-69.92955,-15.5709],[-69.9247,-15.57655],[-69.93316,-15.58886],[-69.9186,-15.59081],[-69.92243,-15.60603],[-69.93081,-15.61424],[-69.9183,-15.61255],[-69.91585,-15.62707],[-69.92492,-15.62996],[-69.92627,-15.64454],[-69.93237,-15.64757],[-69.94992,-15.67539],[-69.9592,-15.66466],[-69.96737,-15.66545],[-69.95626,-15.6879],[-69.96347,-15.69975],[-69.97489,-15.70528],[-69.98923,-15.69101],[-70.01159,-15.68666],[-70.02107,-15.70292],[-70.02786,-15.70674],[-70.0342,-15.72299],[-70.02513,-15.73439],[-70.02532,-15.74509],[-70.03596,-15.75419],[-70.03515,-15.76868],[-70.01672,-15.7932],[-70.00529,-15.78936],[-69.9934,-15.80331],[-69.98897,-15.81997],[-70.01782,-15.82944],[-70.01508,-15.8507],[-70.00289,-15.85339],[-69.99726,-15.8637],[-69.98378,-15.8615],[-69.9745,-15.85287],[-69.96331,-15.85088],[-69.95196,-15.86181],[-69.92249,-15.87298],[-69.91946,-15.87998],[-69.89906,-15.88465],[-69.8935,-15.8819],[-69.88304,-15.8902],[-69.88437,-15.90185],[-69.86827,-15.91636],[-69.86035,-15.93164],[-69.8429,-15.91885],[-69.83545,-15.92336],[-69.83696,-15.91096],[-69.81839,-15.91197],[-69.80268,-15.92358],[-69.79487,-15.92099],[-69.78414,-15.92811],[-69.77765,-15.91672],[-69.78908,-15.88841],[-69.79478,-15.89384],[-69.79783,-15.88142],[-69.80825,-15.86907],[-69.81101,-15.88035],[-69.82249,-15.87778],[-69.81546,-15.87272],[-69.82521,-15.86155],[-69.84812,-15.86725],[-69.85069,-15.84432],[-69.84406,-15.8365],[-69.84283,-15.80818],[-69.82212,-15.78545],[-69.80556,-15.78339],[-69.79753,-15.80603],[-69.78503,-15.81331],[-69.76676,-15.83386],[-69.77288,-15.83735],[-69.77945,-15.85603],[-69.76931,-15.89496],[-69.76051,-15.91156],[-69.75811,-15.90074],[-69.74667,-15.90873],[-69.73556,-15.90162],[-69.72531,-15.91455],[-69.70207,-15.9203],[-69.68417,-15.95179],[-69.66364,-15.96972],[-69.63017,-15.97914],[-69.62335,-15.98771],[-69.60974,-15.98339],[-69.61439,-16.00738],[-69.62855,-16.01904],[-69.6451,-16.01256],[-69.6508,-16.0151],[-69.65119,-16.05147],[-69.65666,-16.06133],[-69.66888,-16.06932],[-69.68136,-16.06901],[-69.68774,-16.084],[-69.7018,-16.0859],[-69.69986,-16.09447],[-69.66896,-16.11475],[-69.67949,-16.12716],[-69.68832,-16.12785],[-69.69392,-16.14929],[-69.69156,-16.16034],[-69.70314,-16.16894],[-69.70425,-16.18813],[-69.71001,-16.19847],[-69.7255,-16.20841],[-69.74342,-16.20445],[-69.75517,-16.21786],[-69.76022,-16.21522],[-69.76651,-16.24497],[-69.78209,-16.266],[-69.80734,-16.27786],[-69.80062,-16.30156],[-69.79835,-16.32281],[-69.80197,-16.34534],[-69.78774,-16.36162],[-69.79785,-16.37445],[-69.80107,-16.38709],[-69.81155,-16.39325],[-69.83802,-16.39219],[-69.85483,-16.40607],[-69.85503,-16.42182],[-69.86658,-16.44755],[-69.88442,-16.46487],[-69.87872,-16.47416],[-69.89475,-16.49946],[-69.89528,-16.50901],[-69.90483,-16.51865],[-69.92842,-16.51519],[-69.94195,-16.52952],[-69.96419,-16.53915],[-69.9644,-16.54654],[-69.99065,-16.5788],[-70.01039,-16.59478],[-70.02415,-16.59681],[-70.02827,-16.6054],[-70.02273,-16.62413],[-70.02462,-16.63118]],[[-70.20114,-15.70622],[-70.20904,-15.7215],[-70.20617,-15.76579],[-70.20144,-15.77169],[-70.18764,-15.76815],[-70.17246,-15.75353],[-70.14743,-15.75139],[-70.14299,-15.7409],[-70.14757,-15.73026],[-70.1637,-15.71928],[-70.15001,-15.72091],[-70.14979,-15.71301],[-70.18963,-15.72529],[-70.19972,-15.71463],[-70.19285,-15.70347],[-70.20114,-15.70622]]],[[[-69.60994,-15.95902],[-69.62331,-15.95973],[-69.62581,-15.96664],[-69.63319,-15.95796],[-69.61024,-15.95676],[-69.60994,-15.95902]]],[[[-69.69215,-15.89515],[-69.66846,-15.9132],[-69.68711,-15.90841],[-69.6978,-15.91053],[-69.70587,-15.91924],[-69.71098,-15.91577],[-69.70024,-15.9078],[-69.69725,-15.88995],[-69.69215,-15.89515]]],[[[-69.83193,-15.89487],[-69.83347,-15.88678],[-69.8241,-15.88122],[-69.82324,-15.891],[-69.83193,-15.89487]]],[[[-69.68158,-15.75487],[-69.67633,-15.76742],[-69.67549,-15.7906],[-69.68301,-15.79764],[-69.68275,-15.78525],[-69.69617,-15.75379],[-69.68158,-15.75487]]],[[[-69.70343,-15.65287],[-69.69241,-15.66104],[-69.70293,-15.67673],[-69.72073,-15.67786],[-69.7272,-15.66344],[-69.71573,-15.65069],[-69.70343,-15.65287]]]]}},{"type":"Feature","properties":{"ubigeo":"2102","nombre":"Azángaro"},"geometry":{"type":"Polygon","coordinates":[[[-69.87661,-15.10876],[-69.89112,-15.13004],[-69.90013,-15.1662],[-69.89693,-15.18082],[-69.88007,-15.19797],[-69.88735,-15.20582],[-69.9107,-15.19592],[-69.93261,-15.15392],[-69.94649,-15.15099],[-69.95554,-15.17481],[-69.97344,-15.15591],[-69.97471,-15.13502],[-69.97938,-15.12248],[-69.98959,-15.11945],[-69.99716,-15.14019],[-69.99002,-15.16744],[-70.00225,-15.1638],[-70.01164,-15.15253],[-70.02622,-15.14542],[-70.01966,-15.15926],[-70.02596,-15.15829],[-70.02703,-15.14495],[-70.03917,-15.12678],[-70.03424,-15.1186],[-70.04495,-15.11066],[-70.05321,-15.11206],[-70.07317,-15.12551],[-70.09329,-15.14648],[-70.11711,-15.14715],[-70.11616,-15.16793],[-70.07655,-15.18951],[-70.06054,-15.19405],[-70.03897,-15.19347],[-70.0141,-15.19653],[-69.97774,-15.20782],[-69.96511,-15.20767],[-69.96516,-15.21386],[-69.9453,-15.22016],[-69.95605,-15.21201],[-69.96103,-15.20044],[-69.95012,-15.2092],[-69.94382,-15.202],[-69.94598,-15.19266],[-69.93447,-15.20885],[-69.93273,-15.22237],[-69.91581,-15.21162],[-69.89867,-15.21651],[-69.88774,-15.20693],[-69.89588,-15.21185],[-69.89611,-15.22447],[-69.90323,-15.23565],[-69.92074,-15.2325],[-69.9302,-15.24272],[-69.94086,-15.23826],[-69.96315,-15.25104],[-69.99706,-15.27575],[-70.00586,-15.29241],[-70.0029,-15.29581],[-70.00574,-15.32752],[-69.98876,-15.346],[-69.99038,-15.3556],[-69.97586,-15.38722],[-69.98386,-15.39323],[-69.99765,-15.39377],[-70.00527,-15.40246],[-70.02305,-15.39906],[-70.03522,-15.3809],[-70.04705,-15.3702],[-70.05101,-15.35427],[-70.06437,-15.35295],[-70.09099,-15.37911],[-70.09488,-15.38389],[-70.10731,-15.34516],[-70.13203,-15.33382],[-70.15924,-15.35484],[-70.16279,-15.32453],[-70.1578,-15.32596],[-70.14809,-15.31263],[-70.16049,-15.29261],[-70.17377,-15.30298],[-70.20366,-15.2994],[-70.20699,-15.2857],[-70.20903,-15.25192],[-70.22739,-15.25197],[-70.22597,-15.21973],[-70.22969,-15.20127],[-70.26598,-15.16927],[-70.30856,-15.16609],[-70.34526,-15.16622],[-70.35701,-15.16042],[-70.34913,-15.1554],[-70.36063,-15.13975],[-70.34726,-15.13588],[-70.35909,-15.12294],[-70.34718,-15.12001],[-70.36017,-15.11664],[-70.35847,-15.10671],[-70.34462,-15.0727],[-70.36005,-15.05059],[-70.35478,-15.0395],[-70.3628,-15.03227],[-70.3475,-15.03475],[-70.36501,-15.01435],[-70.3608,-14.99914],[-70.38144,-15.00132],[-70.37796,-14.98161],[-70.3915,-14.97945],[-70.4054,-14.95804],[-70.41059,-14.96573],[-70.42041,-14.96552],[-70.43042,-14.95196],[-70.44019,-14.95431],[-70.445,-14.94382],[-70.45698,-14.93901],[-70.46552,-14.92815],[-70.46702,-14.91543],[-70.45598,-14.88081],[-70.43658,-14.8589],[-70.44394,-14.84566],[-70.44225,-14.83281],[-70.45316,-14.82741],[-70.44512,-14.79673],[-70.44554,-14.78799],[-70.42693,-14.77061],[-70.42585,-14.7577],[-70.41714,-14.73125],[-70.40024,-14.71667],[-70.39794,-14.70053],[-70.38475,-14.67696],[-70.38775,-14.63671],[-70.39618,-14.62757],[-70.41783,-14.61381],[-70.4127,-14.6005],[-70.43077,-14.5791],[-70.41888,-14.56891],[-70.40404,-14.5623],[-70.38842,-14.57216],[-70.36467,-14.59732],[-70.34206,-14.57803],[-70.34538,-14.5658],[-70.36664,-14.55067],[-70.3692,-14.54105],[-70.35256,-14.5304],[-70.35286,-14.5079],[-70.33828,-14.48861],[-70.32955,-14.46808],[-70.33396,-14.45329],[-70.32637,-14.42606],[-70.32717,-14.4193],[-70.31803,-14.40601],[-70.31546,-14.37932],[-70.32349,-14.37197],[-70.32665,-14.3499],[-70.31473,-14.34024],[-70.30434,-14.34564],[-70.29327,-14.34004],[-70.27616,-14.32195],[-70.26799,-14.30048],[-70.26824,-14.28297],[-70.25699,-14.2891],[-70.25129,-14.30545],[-70.22727,-14.30772],[-70.22072,-14.27751],[-70.21236,-14.26893],[-70.19601,-14.28537],[-70.17969,-14.29284],[-70.17976,-14.3212],[-70.1683,-14.31948],[-70.14954,-14.34067],[-70.1225,-14.35512],[-70.07866,-14.36221],[-70.05243,-14.37033],[-70.02076,-14.36655],[-70.00188,-14.36953],[-69.97278,-14.36831],[-69.95667,-14.37766],[-69.95052,-14.38974],[-69.93981,-14.39868],[-69.91039,-14.40885],[-69.89801,-14.4198],[-69.88988,-14.43427],[-69.89289,-14.44362],[-69.88982,-14.45895],[-69.89526,-14.47857],[-69.91051,-14.48371],[-69.92755,-14.48362],[-69.94867,-14.49138],[-69.95291,-14.50206],[-69.98596,-14.52362],[-70.00465,-14.54628],[-70.00901,-14.55999],[-69.99667,-14.57794],[-69.98758,-14.58367],[-69.95262,-14.57004],[-69.93428,-14.56869],[-69.91747,-14.57927],[-69.90181,-14.56594],[-69.88743,-14.57665],[-69.88962,-14.58572],[-69.87756,-14.60184],[-69.86743,-14.58588],[-69.86114,-14.59042],[-69.85561,-14.61421],[-69.85989,-14.6201],[-69.85702,-14.64705],[-69.84859,-14.6558],[-69.85014,-14.67322],[-69.85866,-14.68555],[-69.85508,-14.70264],[-69.84124,-14.72267],[-69.8369,-14.74266],[-69.85416,-14.76079],[-69.85814,-14.77725],[-69.84967,-14.79026],[-69.90075,-14.82728],[-69.90421,-14.83546],[-69.89763,-14.8513],[-69.91162,-14.86529],[-69.92224,-14.8624],[-69.9369,-14.84346],[-69.95148,-14.8512],[-69.96949,-14.85205],[-69.97052,-14.86115],[-69.98858,-14.8731],[-69.97669,-14.88928],[-69.97691,-14.90537],[-69.96592,-14.92545],[-69.97611,-14.94401],[-69.95925,-14.96072],[-69.9669,-15.02965],[-69.94331,-15.05698],[-69.92229,-15.05915],[-69.92407,-15.06956],[-69.91604,-15.07953],[-69.92188,-15.09098],[-69.91111,-15.09508],[-69.89826,-15.1108],[-69.88473,-15.10278],[-69.87661,-15.10876]]]}},{"type":"Feature","properties":{"ubigeo":"2103","nombre":"Carabaya"},"geometry":{"type":"Polygon","coordinates":[[[-69.69096,-14.51782],[-69.70993,-14.50809],[-69.7274,-14.50873],[-69.73188,-14.49276],[-69.74539,-14.48501],[-69.75592,-14.47342],[-69.76642,-14.4714],[-69.76922,-14.45374],[-69.79493,-14.44634],[-69.79616,-14.45563],[-69.8084,-14.45562],[-69.83874,-14.44377],[-69.87102,-14.44404],[-69.88988,-14.43427],[-69.89801,-14.4198],[-69.91039,-14.40885],[-69.93981,-14.39868],[-69.95052,-14.38974],[-69.95667,-14.37766],[-69.97278,-14.36831],[-70.00188,-14.36953],[-70.02076,-14.36655],[-70.05243,-14.37033],[-70.07866,-14.36221],[-70.1225,-14.35512],[-70.14954,-14.34067],[-70.1683,-14.31948],[-70.17976,-14.3212],[-70.17969,-14.29284],[-70.19601,-14.28537],[-70.21236,-14.26893],[-70.22072,-14.27751],[-70.22727,-14.30772],[-70.25129,-14.30545],[-70.25699,-14.2891],[-70.26824,-14.28297],[-70.2754,-14.27573],[-70.27471,-14.26581],[-70.28548,-14.26773],[-70.29288,-14.24376],[-70.28929,-14.21885],[-70.30224,-14.21853],[-70.32326,-14.19684],[-70.32946,-14.17518],[-70.3571,-14.1708],[-70.36347,-14.18823],[-70.37613,-14.18926],[-70.38691,-14.19602],[-70.41068,-14.18936],[-70.42517,-14.17809],[-70.4429,-14.18875],[-70.44645,-14.19647],[-70.47963,-14.22315],[-70.49597,-14.22035],[-70.50264,-14.20416],[-70.51361,-14.19856],[-70.52144,-14.20215],[-70.54119,-14.18971],[-70.55105,-14.15532],[-70.56712,-14.15265],[-70.57053,-14.14473],[-70.58937,-14.15787],[-70.59877,-14.15499],[-70.60686,-14.16148],[-70.61184,-14.15415],[-70.61929,-14.15936],[-70.63545,-14.14605],[-70.64008,-14.13098],[-70.6524,-14.12086],[-70.66823,-14.12629],[-70.69202,-14.12392],[-70.69464,-14.11022],[-70.70218,-14.10073],[-70.70342,-14.08564],[-70.71985,-14.07498],[-70.73494,-14.07957],[-70.74992,-14.07587],[-70.77016,-14.08267],[-70.78982,-14.07882],[-70.79588,-14.07212],[-70.82037,-14.06845],[-70.82947,-14.07634],[-70.8326,-14.06066],[-70.84819,-14.05555],[-70.86181,-14.02623],[-70.85353,-14.01286],[-70.84047,-14.00727],[-70.85198,-14.0005],[-70.84394,-13.97537],[-70.84562,-13.9622],[-70.83304,-13.9381],[-70.81104,-13.9186],[-70.8107,-13.90507],[-70.83086,-13.89508],[-70.82562,-13.87873],[-70.83127,-13.85893],[-70.83875,-13.85281],[-70.85351,-13.85375],[-70.86128,-13.84331],[-70.88123,-13.83284],[-70.88025,-13.81807],[-70.8625,-13.80029],[-70.85114,-13.80119],[-70.85027,-13.81279],[-70.8284,-13.82763],[-70.81791,-13.82053],[-70.79631,-13.82215],[-70.79449,-13.81806],[-70.76837,-13.81433],[-70.75191,-13.81648],[-70.72136,-13.82934],[-70.70982,-13.84206],[-70.70856,-13.8281],[-70.69886,-13.80317],[-70.71493,-13.77231],[-70.72182,-13.77102],[-70.72641,-13.74713],[-70.73475,-13.73902],[-70.73565,-13.71178],[-70.72124,-13.70016],[-70.72094,-13.68301],[-70.71425,-13.67721],[-70.71513,-13.66225],[-70.68888,-13.65259],[-70.67066,-13.66207],[-70.65391,-13.65594],[-70.63692,-13.63278],[-70.62157,-13.6211],[-70.61619,-13.60906],[-70.60072,-13.59908],[-70.58585,-13.59643],[-70.57787,-13.58584],[-70.56037,-13.58661],[-70.54172,-13.57449],[-70.54591,-13.54544],[-70.53403,-13.52527],[-70.51987,-13.51397],[-70.49576,-13.50143],[-70.48477,-13.49091],[-70.45662,-13.45656],[-70.45316,-13.44546],[-70.471,-13.44233],[-70.45096,-13.40212],[-70.44255,-13.39336],[-70.45236,-13.36853],[-70.45044,-13.3645],[-70.41887,-13.35894],[-70.40007,-13.37174],[-70.39273,-13.34477],[-70.40195,-13.32654],[-70.39284,-13.31416],[-70.37282,-13.31331],[-70.36919,-13.30758],[-70.34585,-13.31275],[-70.34829,-13.29361],[-70.37084,-13.27641],[-70.3824,-13.27161],[-70.40135,-13.2706],[-70.42041,-13.25857],[-70.41736,-13.2436],[-70.39063,-13.23211],[-70.39001,-13.21534],[-70.38446,-13.20474],[-70.38847,-13.19239],[-70.38322,-13.18131],[-70.38558,-13.16704],[-70.40059,-13.15116],[-70.39076,-13.13827],[-70.39373,-13.12998],[-70.40682,-13.13842],[-70.4177,-13.13309],[-70.40441,-13.12608],[-70.40287,-13.11441],[-70.03255,-13.22375],[-69.97416,-13.2451],[-69.69864,-13.32748],[-69.64986,-13.34172],[-69.65511,-13.37153],[-69.65367,-13.38145],[-69.63276,-13.4063],[-69.64135,-13.40814],[-69.65118,-13.42674],[-69.65626,-13.45938],[-69.66716,-13.45484],[-69.6792,-13.46184],[-69.66895,-13.47521],[-69.68164,-13.49984],[-69.69098,-13.50446],[-69.7044,-13.49967],[-69.71314,-13.50558],[-69.72203,-13.49257],[-69.72879,-13.49415],[-69.7365,-13.50792],[-69.71968,-13.51305],[-69.7152,-13.52074],[-69.69748,-13.51906],[-69.70194,-13.53413],[-69.7096,-13.53484],[-69.70744,-13.54652],[-69.72513,-13.59596],[-69.71878,-13.60345],[-69.72342,-13.61034],[-69.72653,-13.63375],[-69.74416,-13.65861],[-69.75251,-13.67724],[-69.74601,-13.6906],[-69.75389,-13.72606],[-69.75372,-13.73789],[-69.76802,-13.74491],[-69.7787,-13.7389],[-69.78574,-13.75072],[-69.77743,-13.76049],[-69.7759,-13.77417],[-69.75309,-13.79606],[-69.74944,-13.80573],[-69.73246,-13.81169],[-69.73428,-13.83064],[-69.72737,-13.84187],[-69.72002,-13.84174],[-69.70852,-13.85886],[-69.69853,-13.86638],[-69.677,-13.87081],[-69.6635,-13.88464],[-69.66436,-13.90143],[-69.67579,-13.92063],[-69.70221,-13.93578],[-69.70493,-13.9521],[-69.7232,-13.97697],[-69.72519,-14.01878],[-69.75319,-14.035],[-69.7632,-14.03059],[-69.77817,-14.04582],[-69.77959,-14.05422],[-69.8059,-14.08283],[-69.8088,-14.10474],[-69.81521,-14.11173],[-69.82137,-14.13152],[-69.83291,-14.13817],[-69.82629,-14.14589],[-69.82333,-14.1619],[-69.82678,-14.1737],[-69.83897,-14.19442],[-69.84162,-14.20724],[-69.8501,-14.21402],[-69.84361,-14.22234],[-69.85119,-14.2322],[-69.85092,-14.26272],[-69.84007,-14.27463],[-69.83124,-14.26932],[-69.81281,-14.27137],[-69.79937,-14.26833],[-69.78633,-14.27499],[-69.78153,-14.2848],[-69.78323,-14.31199],[-69.76856,-14.31889],[-69.76667,-14.32845],[-69.7574,-14.33562],[-69.73755,-14.33422],[-69.72786,-14.34969],[-69.73321,-14.35824],[-69.72689,-14.37759],[-69.72932,-14.3911],[-69.72407,-14.41808],[-69.71546,-14.42356],[-69.70274,-14.416],[-69.6867,-14.42221],[-69.6816,-14.44131],[-69.67483,-14.44054],[-69.65978,-14.45333],[-69.6826,-14.49006],[-69.69096,-14.51782]]]}},{"type":"Feature","properties":{"ubigeo":"2104","nombre":"Chucuito"},"geometry":{"type":"Polygon","coordinates":[[[-69.20017,-16.26419],[-69.19884,-16.28126],[-69.20457,-16.29869],[-69.19094,-16.31455],[-69.17818,-16.31395],[-69.16686,-16.32435],[-69.15004,-16.3318],[-69.14194,-16.33099],[-69.13646,-16.35465],[-69.1451,-16.37397],[-69.13631,-16.39725],[-69.1255,-16.39665],[-69.12413,-16.36538],[-69.09487,-16.37088],[-69.07443,-16.38266],[-69.06668,-16.39294],[-69.05422,-16.39263],[-69.06076,-16.40135],[-69.04295,-16.4204],[-69.04255,-16.4301],[-69.05603,-16.43486],[-69.06619,-16.45113],[-69.09195,-16.4708],[-69.09114,-16.48216],[-69.0985,-16.49071],[-69.09354,-16.49958],[-69.08456,-16.49713],[-69.06596,-16.53336],[-69.05671,-16.53747],[-69.03692,-16.55971],[-69.03906,-16.57288],[-69.0313,-16.60581],[-69.02248,-16.61542],[-69.01705,-16.63815],[-68.9961,-16.65658],[-69.01195,-16.66984],[-69.02561,-16.67277],[-69.04529,-16.68833],[-69.07311,-16.69629],[-69.10452,-16.71246],[-69.12392,-16.71619],[-69.13644,-16.71354],[-69.15297,-16.72455],[-69.17001,-16.72754],[-69.18169,-16.75749],[-69.18619,-16.79755],[-69.19753,-16.79924],[-69.21924,-16.83613],[-69.2534,-16.86099],[-69.30467,-16.91584],[-69.32459,-16.95154],[-69.32008,-16.96075],[-69.34364,-16.98687],[-69.37121,-16.99216],[-69.39463,-17.02387],[-69.38414,-17.03123],[-69.37309,-17.04831],[-69.37374,-17.07312],[-69.40627,-17.10029],[-69.43292,-17.10986],[-69.44913,-17.09775],[-69.47271,-17.11792],[-69.51185,-17.14617],[-69.5569,-17.15928],[-69.5628,-17.17498],[-69.58085,-17.15361],[-69.59102,-17.13545],[-69.58738,-17.11287],[-69.60287,-17.09746],[-69.5935,-17.08409],[-69.58134,-17.07836],[-69.57128,-17.08464],[-69.5497,-17.06577],[-69.53477,-17.06086],[-69.5448,-17.03687],[-69.53815,-17.02914],[-69.53631,-17.01378],[-69.54658,-16.97944],[-69.54598,-16.97186],[-69.53436,-16.96478],[-69.54721,-16.9487],[-69.55079,-16.93848],[-69.56823,-16.91782],[-69.56596,-16.90239],[-69.55657,-16.89519],[-69.56592,-16.87628],[-69.55506,-16.84927],[-69.56587,-16.83344],[-69.55737,-16.81525],[-69.54692,-16.81045],[-69.53956,-16.78683],[-69.51988,-16.7723],[-69.51787,-16.75283],[-69.51149,-16.7424],[-69.51963,-16.71833],[-69.53682,-16.69846],[-69.53619,-16.68735],[-69.54215,-16.6706],[-69.52425,-16.65478],[-69.50175,-16.66059],[-69.49755,-16.65453],[-69.49851,-16.63729],[-69.48784,-16.62494],[-69.49189,-16.61165],[-69.48891,-16.58881],[-69.49878,-16.56419],[-69.48552,-16.55583],[-69.48828,-16.52635],[-69.47457,-16.50922],[-69.47952,-16.48942],[-69.47094,-16.47462],[-69.47159,-16.4587],[-69.4838,-16.42874],[-69.50099,-16.42716],[-69.50316,-16.43424],[-69.52061,-16.43382],[-69.53155,-16.41918],[-69.54062,-16.42159],[-69.54286,-16.43284],[-69.55442,-16.44637],[-69.56223,-16.43165],[-69.58293,-16.44296],[-69.60319,-16.43826],[-69.62279,-16.42884],[-69.6607,-16.42593],[-69.66791,-16.42011],[-69.67016,-16.40531],[-69.68366,-16.38922],[-69.68454,-16.37569],[-69.6679,-16.36344],[-69.67626,-16.34699],[-69.66572,-16.3319],[-69.65209,-16.33916],[-69.65744,-16.32261],[-69.65506,-16.31511],[-69.63187,-16.30086],[-69.60903,-16.30074],[-69.6032,-16.29108],[-69.59509,-16.29088],[-69.5864,-16.27474],[-69.58575,-16.22892],[-69.57897,-16.20719],[-69.58038,-16.19919],[-69.57192,-16.17428],[-69.55243,-16.1839],[-69.53466,-16.17556],[-69.51389,-16.17997],[-69.50896,-16.19505],[-69.49432,-16.20806],[-69.47271,-16.19821],[-69.46257,-16.20273],[-69.436,-16.18154],[-69.42412,-16.17894],[-69.40256,-16.18979],[-69.38952,-16.18013],[-69.38349,-16.18876],[-69.39939,-16.2069],[-69.37561,-16.23558],[-69.35805,-16.25014],[-69.31777,-16.25676],[-69.29527,-16.2539],[-69.28612,-16.26331],[-69.28953,-16.27418],[-69.27869,-16.28926],[-69.26789,-16.29044],[-69.25677,-16.29973],[-69.25749,-16.28563],[-69.24848,-16.28636],[-69.23629,-16.26678],[-69.20887,-16.26749],[-69.20017,-16.26419]]]}},{"type":"Feature","properties":{"ubigeo":"2105","nombre":"El Collao"},"geometry":{"type":"Polygon","coordinates":[[[-69.5628,-17.17498],[-69.57322,-17.18519],[-69.569,-17.194],[-69.57976,-17.20813],[-69.59056,-17.21054],[-69.60381,-17.22121],[-69.61598,-17.26128],[-69.62736,-17.273],[-69.63633,-17.27118],[-69.64429,-17.28097],[-69.64132,-17.28745],[-69.65474,-17.27078],[-69.68293,-17.27874],[-69.6936,-17.27464],[-69.71108,-17.28194],[-69.71563,-17.29163],[-69.73107,-17.29547],[-69.76184,-17.28044],[-69.76497,-17.26402],[-69.78825,-17.23644],[-69.79873,-17.23201],[-69.81967,-17.24136],[-69.8514,-17.24374],[-69.85879,-17.23328],[-69.86893,-17.23171],[-69.8731,-17.22383],[-69.89813,-17.22107],[-69.92296,-17.20407],[-69.93857,-17.20015],[-69.96767,-17.17882],[-69.97312,-17.16564],[-69.98136,-17.16862],[-69.98763,-17.15142],[-70.01199,-17.14139],[-70.02313,-17.12381],[-70.03972,-17.12797],[-70.0468,-17.09943],[-70.04157,-17.0774],[-70.04677,-17.05638],[-70.07315,-17.03491],[-70.08195,-17.02226],[-70.09964,-17.00601],[-70.09577,-16.98523],[-70.11709,-16.97261],[-70.11878,-16.96011],[-70.13342,-16.94527],[-70.14662,-16.93873],[-70.13227,-16.93477],[-70.11357,-16.91783],[-70.1056,-16.89726],[-70.09428,-16.89092],[-70.09111,-16.87092],[-70.09109,-16.81212],[-70.08161,-16.80173],[-70.06956,-16.79845],[-70.05733,-16.78653],[-70.05712,-16.77016],[-70.03221,-16.75292],[-70.03554,-16.74289],[-70.01188,-16.74185],[-69.99556,-16.72978],[-69.99835,-16.70784],[-70.01045,-16.6999],[-70.01177,-16.68848],[-69.99839,-16.67515],[-70.00147,-16.65657],[-70.02462,-16.63118],[-70.02273,-16.62413],[-70.02827,-16.6054],[-70.02415,-16.59681],[-70.01039,-16.59478],[-69.99065,-16.5788],[-69.9644,-16.54654],[-69.96419,-16.53915],[-69.94195,-16.52952],[-69.92842,-16.51519],[-69.90483,-16.51865],[-69.89528,-16.50901],[-69.89475,-16.49946],[-69.87872,-16.47416],[-69.88442,-16.46487],[-69.86658,-16.44755],[-69.85503,-16.42182],[-69.85483,-16.40607],[-69.83802,-16.39219],[-69.81155,-16.39325],[-69.80107,-16.38709],[-69.79785,-16.37445],[-69.78774,-16.36162],[-69.80197,-16.34534],[-69.79835,-16.32281],[-69.80062,-16.30156],[-69.80734,-16.27786],[-69.78209,-16.266],[-69.76651,-16.24497],[-69.76022,-16.21522],[-69.75517,-16.21786],[-69.74342,-16.20445],[-69.7255,-16.20841],[-69.71001,-16.19847],[-69.70425,-16.18813],[-69.70314,-16.16894],[-69.69156,-16.16034],[-69.69392,-16.14929],[-69.68832,-16.12785],[-69.67949,-16.12716],[-69.66896,-16.11475],[-69.69986,-16.09447],[-69.7018,-16.0859],[-69.68774,-16.084],[-69.68136,-16.06901],[-69.66888,-16.06932],[-69.65666,-16.06133],[-69.65119,-16.05147],[-69.6508,-16.0151],[-69.6451,-16.01256],[-69.62855,-16.01904],[-69.61439,-16.00738],[-69.60974,-15.98339],[-69.59887,-15.98948],[-69.55608,-15.97589],[-69.51318,-15.98972],[-69.49853,-15.99971],[-69.49427,-16.01582],[-69.48656,-16.00568],[-69.47545,-16.01863],[-69.46368,-16.01457],[-69.47382,-16.0053],[-69.50708,-15.98266],[-69.5347,-15.97006],[-69.55739,-15.9625],[-69.60994,-15.95902],[-69.61024,-15.95676],[-69.56266,-15.95946],[-69.53106,-15.96933],[-69.48144,-15.99423],[-69.45174,-15.99361],[-69.44433,-16.00276],[-69.44391,-16.01621],[-69.42316,-16.04704],[-69.42229,-16.05723],[-69.43031,-16.09444],[-69.44686,-16.11129],[-69.43465,-16.09116],[-69.43195,-16.07927],[-69.43617,-16.06905],[-69.43419,-16.05416],[-69.45524,-16.06407],[-69.45204,-16.08014],[-69.45975,-16.09361],[-69.46868,-16.09431],[-69.46686,-16.10466],[-69.47452,-16.11621],[-69.49135,-16.1242],[-69.50548,-16.14374],[-69.49186,-16.16008],[-69.50467,-16.17333],[-69.51522,-16.16218],[-69.51389,-16.17997],[-69.53466,-16.17556],[-69.55243,-16.1839],[-69.57192,-16.17428],[-69.58038,-16.19919],[-69.57897,-16.20719],[-69.58575,-16.22892],[-69.5864,-16.27474],[-69.59509,-16.29088],[-69.6032,-16.29108],[-69.60903,-16.30074],[-69.63187,-16.30086],[-69.65506,-16.31511],[-69.65744,-16.32261],[-69.65209,-16.33916],[-69.66572,-16.3319],[-69.67626,-16.34699],[-69.6679,-16.36344],[-69.68454,-16.37569],[-69.68366,-16.38922],[-69.67016,-16.40531],[-69.66791,-16.42011],[-69.6607,-16.42593],[-69.62279,-16.42884],[-69.60319,-16.43826],[-69.58293,-16.44296],[-69.56223,-16.43165],[-69.55442,-16.44637],[-69.54286,-16.43284],[-69.54062,-16.42159],[-69.53155,-16.41918],[-69.52061,-16.43382],[-69.50316,-16.43424],[-69.50099,-16.42716],[-69.4838,-16.42874],[-69.47159,-16.4587],[-69.47094,-16.47462],[-69.47952,-16.48942],[-69.47457,-16.50922],[-69.48828,-16.52635],[-69.48552,-16.55583],[-69.49878,-16.56419],[-69.48891,-16.58881],[-69.49189,-16.61165],[-69.48784,-16.62494],[-69.49851,-16.63729],[-69.49755,-16.65453],[-69.50175,-16.66059],[-69.52425,-16.65478],[-69.54215,-16.6706],[-69.53619,-16.68735],[-69.53682,-16.69846],[-69.51963,-16.71833],[-69.51149,-16.7424],[-69.51787,-16.75283],[-69.51988,-16.7723],[-69.53956,-16.78683],[-69.54692,-16.81045],[-69.55737,-16.81525],[-69.56587,-16.83344],[-69.55506,-16.84927],[-69.56592,-16.87628],[-69.55657,-16.89519],[-69.56596,-16.90239],[-69.56823,-16.91782],[-69.55079,-16.93848],[-69.54721,-16.9487],[-69.53436,-16.96478],[-69.54598,-16.97186],[-69.54658,-16.97944],[-69.53631,-17.01378],[-69.53815,-17.02914],[-69.5448,-17.03687],[-69.53477,-17.06086],[-69.5497,-17.06577],[-69.57128,-17.08464],[-69.58134,-17.07836],[-69.5935,-17.08409],[-69.60287,-17.09746],[-69.58738,-17.11287],[-69.59102,-17.13545],[-69.58085,-17.15361],[-69.5628,-17.17498]]]}},{"type":"Feature","properties":{"ubigeo":"2106","nombre":"Huancané"},"geometry":{"type":"Polygon","coordinates":[[[-69.88774,-15.20693],[-69.88735,-15.20582],[-69.88007,-15.19797],[-69.89693,-15.18082],[-69.90013,-15.1662],[-69.89112,-15.13004],[-69.87661,-15.10876],[-69.87494,-15.08719],[-69.88519,-15.08386],[-69.86929,-15.06544],[-69.86789,-15.05283],[-69.85133,-15.04242],[-69.85235,-15.03317],[-69.84322,-15.01915],[-69.84734,-15.00489],[-69.83343,-14.99716],[-69.82754,-14.98183],[-69.8175,-14.98728],[-69.79792,-14.9778],[-69.80373,-14.9659],[-69.80095,-14.95876],[-69.78353,-14.95453],[-69.7649,-14.96336],[-69.74586,-14.99447],[-69.73094,-14.99769],[-69.72539,-14.98493],[-69.72937,-14.97592],[-69.71276,-14.9604],[-69.69683,-14.95299],[-69.67493,-14.95153],[-69.65367,-14.94404],[-69.6365,-14.95505],[-69.62224,-14.94971],[-69.62331,-14.93763],[-69.61538,-14.92928],[-69.6138,-14.91396],[-69.58291,-14.91372],[-69.56753,-14.91595],[-69.5625,-14.92304],[-69.54179,-14.92943],[-69.53952,-14.91746],[-69.51766,-14.87617],[-69.5296,-14.85797],[-69.52966,-14.84296],[-69.51632,-14.82078],[-69.51095,-14.82086],[-69.50092,-14.79881],[-69.51171,-14.78206],[-69.5117,-14.7735],[-69.49305,-14.76319],[-69.48029,-14.77217],[-69.46593,-14.77032],[-69.45138,-14.78532],[-69.44797,-14.80485],[-69.435,-14.83868],[-69.41565,-14.84576],[-69.4038,-14.82566],[-69.3873,-14.81602],[-69.3538,-14.80167],[-69.35679,-14.85198],[-69.34387,-14.88273],[-69.35384,-14.92441],[-69.36372,-14.93119],[-69.35956,-14.93709],[-69.36006,-14.96046],[-69.34572,-14.9829],[-69.32488,-15.00479],[-69.31644,-15.0364],[-69.29923,-15.0495],[-69.3041,-15.05363],[-69.29756,-15.07031],[-69.29048,-15.07409],[-69.28522,-15.09457],[-69.26373,-15.11041],[-69.24334,-15.11241],[-69.24338,-15.12221],[-69.23367,-15.12685],[-69.19527,-15.1587],[-69.17527,-15.1794],[-69.15747,-15.20504],[-69.15401,-15.21511],[-69.13153,-15.23399],[-69.13252,-15.24382],[-69.12013,-15.26008],[-69.13972,-15.25668],[-69.15293,-15.26853],[-69.1763,-15.26136],[-69.17321,-15.25577],[-69.18495,-15.24399],[-69.18942,-15.23118],[-69.2269,-15.21534],[-69.2315,-15.19606],[-69.24063,-15.18684],[-69.25381,-15.18675],[-69.27765,-15.17934],[-69.29175,-15.16227],[-69.31458,-15.17654],[-69.3302,-15.17711],[-69.35193,-15.18829],[-69.362,-15.21407],[-69.37193,-15.21695],[-69.40108,-15.2128],[-69.41147,-15.2292],[-69.42454,-15.23314],[-69.44338,-15.24441],[-69.4471,-15.26642],[-69.45638,-15.26566],[-69.48607,-15.27158],[-69.50858,-15.24867],[-69.52193,-15.25027],[-69.52586,-15.26847],[-69.54749,-15.28496],[-69.54109,-15.30681],[-69.54843,-15.30868],[-69.59541,-15.28463],[-69.62987,-15.26487],[-69.64527,-15.26115],[-69.65511,-15.27137],[-69.67742,-15.24304],[-69.69921,-15.23364],[-69.73719,-15.24318],[-69.74002,-15.25732],[-69.74977,-15.2498],[-69.74446,-15.26438],[-69.75077,-15.26977],[-69.73455,-15.27093],[-69.74155,-15.2771],[-69.72398,-15.27807],[-69.72441,-15.27313],[-69.70243,-15.29522],[-69.70687,-15.3059],[-69.71694,-15.30964],[-69.72441,-15.2965],[-69.75094,-15.2832],[-69.76034,-15.30848],[-69.77394,-15.30624],[-69.7737,-15.31906],[-69.78259,-15.3186],[-69.79173,-15.30122],[-69.8163,-15.2876],[-69.81338,-15.27542],[-69.82943,-15.27705],[-69.82039,-15.29267],[-69.8238,-15.30246],[-69.83296,-15.28151],[-69.84441,-15.29369],[-69.85644,-15.29245],[-69.85736,-15.30003],[-69.86743,-15.30128],[-69.87002,-15.29026],[-69.87976,-15.30119],[-69.89429,-15.29511],[-69.90107,-15.31427],[-69.88983,-15.32118],[-69.88941,-15.33172],[-69.87148,-15.33457],[-69.86619,-15.34258],[-69.87745,-15.34854],[-69.89296,-15.34148],[-69.88963,-15.34767],[-69.87568,-15.35088],[-69.87295,-15.36603],[-69.84419,-15.353],[-69.83105,-15.35287],[-69.80693,-15.3451],[-69.792,-15.35174],[-69.79966,-15.358],[-69.80893,-15.35239],[-69.83371,-15.36038],[-69.83948,-15.36775],[-69.85443,-15.36026],[-69.86268,-15.36277],[-69.87367,-15.37707],[-69.87673,-15.36168],[-69.90519,-15.35603],[-69.90642,-15.36735],[-69.93349,-15.36646],[-69.92921,-15.38469],[-69.94289,-15.39668],[-69.93219,-15.41151],[-69.93759,-15.41526],[-69.92578,-15.43372],[-69.91944,-15.43664],[-69.92211,-15.45485],[-69.89694,-15.49463],[-69.90694,-15.50777],[-69.93198,-15.50803],[-69.94708,-15.51444],[-69.95845,-15.53048],[-69.96831,-15.53571],[-69.97276,-15.53598],[-69.99646,-15.50625],[-69.99705,-15.49525],[-69.99015,-15.48871],[-70.00129,-15.48004],[-70.00378,-15.47041],[-70.02904,-15.45559],[-70.0272,-15.43754],[-70.04215,-15.44687],[-70.08404,-15.45524],[-70.07519,-15.44474],[-70.07819,-15.43876],[-70.07113,-15.42524],[-70.08137,-15.40473],[-70.07112,-15.39921],[-70.07878,-15.3876],[-70.09076,-15.38997],[-70.09471,-15.38368],[-70.09099,-15.37911],[-70.06437,-15.35295],[-70.05101,-15.35427],[-70.04705,-15.3702],[-70.03522,-15.3809],[-70.02305,-15.39906],[-70.00527,-15.40246],[-69.99765,-15.39377],[-69.98386,-15.39323],[-69.97586,-15.38722],[-69.99038,-15.3556],[-69.98876,-15.346],[-70.00574,-15.32752],[-70.0029,-15.29581],[-70.00586,-15.29241],[-69.99706,-15.27575],[-69.96315,-15.25104],[-69.94086,-15.23826],[-69.9302,-15.24272],[-69.92074,-15.2325],[-69.90323,-15.23565],[-69.89611,-15.22447],[-69.89588,-15.21185],[-69.88774,-15.20693]]]}},{"type":"Feature","properties":{"ubigeo":"2107","nombre":"Lampa"},"geometry":{"type":"Polygon","coordinates":[[[-70.15924,-15.35484],[-70.18074,-15.37699],[-70.19063,-15.36656],[-70.21167,-15.36052],[-70.21499,-15.35152],[-70.2317,-15.33705],[-70.25397,-15.3302],[-70.27574,-15.31393],[-70.27764,-15.33696],[-70.28641,-15.33816],[-70.29237,-15.35422],[-70.28199,-15.3583],[-70.26687,-15.37494],[-70.2687,-15.39548],[-70.27515,-15.40212],[-70.30533,-15.38612],[-70.31539,-15.39579],[-70.32753,-15.39304],[-70.33157,-15.40506],[-70.33991,-15.40961],[-70.33761,-15.42665],[-70.32432,-15.4387],[-70.32778,-15.44559],[-70.30105,-15.46812],[-70.28748,-15.46825],[-70.29674,-15.48874],[-70.27081,-15.51094],[-70.27297,-15.52197],[-70.25733,-15.55155],[-70.28162,-15.56811],[-70.29323,-15.58754],[-70.30143,-15.58847],[-70.31202,-15.60377],[-70.34082,-15.632],[-70.3559,-15.64093],[-70.36661,-15.66429],[-70.39914,-15.67589],[-70.41303,-15.67346],[-70.42918,-15.67727],[-70.43957,-15.67508],[-70.46646,-15.6542],[-70.49115,-15.66784],[-70.49363,-15.67737],[-70.52595,-15.68741],[-70.53462,-15.69631],[-70.54107,-15.71968],[-70.54659,-15.72422],[-70.54685,-15.73898],[-70.55434,-15.74086],[-70.57538,-15.72144],[-70.58631,-15.74089],[-70.60424,-15.74743],[-70.6105,-15.75947],[-70.63382,-15.74491],[-70.65784,-15.76077],[-70.66268,-15.77319],[-70.67563,-15.78927],[-70.69205,-15.7941],[-70.71124,-15.78353],[-70.71669,-15.79023],[-70.72731,-15.78775],[-70.74614,-15.77607],[-70.75636,-15.7778],[-70.76986,-15.7874],[-70.79726,-15.78032],[-70.81356,-15.79334],[-70.81386,-15.8144],[-70.82546,-15.80733],[-70.84477,-15.80586],[-70.86557,-15.82865],[-70.8692,-15.83727],[-70.88835,-15.84155],[-70.89054,-15.85125],[-70.89523,-15.84778],[-70.91984,-15.80558],[-70.91982,-15.79998],[-70.93614,-15.78484],[-70.94227,-15.77455],[-70.93322,-15.77067],[-70.92331,-15.74701],[-70.90391,-15.73535],[-70.90013,-15.71215],[-70.90919,-15.70378],[-70.91756,-15.68738],[-70.91587,-15.66389],[-70.91798,-15.6438],[-70.924,-15.633],[-70.96128,-15.60621],[-70.98303,-15.59704],[-71.00734,-15.56289],[-71.00719,-15.54295],[-71.01795,-15.52785],[-71.00803,-15.51924],[-71.01773,-15.50288],[-71.01517,-15.48917],[-70.99447,-15.46988],[-70.99396,-15.45484],[-71.00591,-15.44168],[-71.02712,-15.43204],[-71.03897,-15.40517],[-71.03642,-15.39195],[-71.01988,-15.37326],[-71.01228,-15.34375],[-71.00612,-15.33523],[-70.98389,-15.31665],[-70.97755,-15.32041],[-70.95793,-15.31823],[-70.95101,-15.30663],[-70.9523,-15.28984],[-70.97342,-15.27503],[-70.97677,-15.26095],[-70.98528,-15.24903],[-70.97032,-15.23306],[-70.9625,-15.21564],[-70.97291,-15.19655],[-70.9719,-15.17988],[-70.98201,-15.1471],[-70.97754,-15.14466],[-70.98032,-15.10635],[-70.99436,-15.09338],[-70.9936,-15.08459],[-70.9611,-15.06122],[-70.93994,-15.05911],[-70.93622,-15.0518],[-70.89743,-15.03737],[-70.88088,-15.04541],[-70.86597,-15.0382],[-70.85835,-15.02516],[-70.84446,-15.01784],[-70.83349,-15.00209],[-70.81262,-15.01695],[-70.77377,-15.03359],[-70.76082,-15.03086],[-70.75665,-15.04603],[-70.74741,-15.04745],[-70.70904,-15.08589],[-70.7075,-15.1025],[-70.71144,-15.11224],[-70.70789,-15.12663],[-70.67992,-15.11621],[-70.67121,-15.13206],[-70.65732,-15.134],[-70.6322,-15.11829],[-70.62338,-15.12834],[-70.61366,-15.11876],[-70.59585,-15.12681],[-70.57622,-15.1522],[-70.57786,-15.16069],[-70.56258,-15.18401],[-70.56255,-15.19159],[-70.54877,-15.19486],[-70.53837,-15.1884],[-70.54068,-15.17809],[-70.52322,-15.16493],[-70.52008,-15.1513],[-70.51314,-15.14424],[-70.52467,-15.14271],[-70.53361,-15.13324],[-70.53334,-15.0949],[-70.54867,-15.08662],[-70.55256,-15.06364],[-70.54772,-15.05102],[-70.5388,-15.04314],[-70.53184,-15.02795],[-70.53241,-15.01356],[-70.53916,-15.00704],[-70.54181,-14.9919],[-70.5333,-14.98245],[-70.51366,-14.97096],[-70.49931,-14.95027],[-70.50656,-14.94771],[-70.50878,-14.92437],[-70.50071,-14.91393],[-70.49194,-14.91337],[-70.49516,-14.92443],[-70.47495,-14.93337],[-70.46552,-14.92815],[-70.45698,-14.93901],[-70.445,-14.94382],[-70.44019,-14.95431],[-70.43042,-14.95196],[-70.42041,-14.96552],[-70.41059,-14.96573],[-70.4054,-14.95804],[-70.3915,-14.97945],[-70.37796,-14.98161],[-70.38144,-15.00132],[-70.3608,-14.99914],[-70.36501,-15.01435],[-70.3475,-15.03475],[-70.3628,-15.03227],[-70.35478,-15.0395],[-70.36005,-15.05059],[-70.34462,-15.0727],[-70.35847,-15.10671],[-70.36017,-15.11664],[-70.34718,-15.12001],[-70.35909,-15.12294],[-70.34726,-15.13588],[-70.36063,-15.13975],[-70.34913,-15.1554],[-70.35701,-15.16042],[-70.34526,-15.16622],[-70.30856,-15.16609],[-70.26598,-15.16927],[-70.22969,-15.20127],[-70.22597,-15.21973],[-70.22739,-15.25197],[-70.20903,-15.25192],[-70.20699,-15.2857],[-70.20366,-15.2994],[-70.17377,-15.30298],[-70.16049,-15.29261],[-70.14809,-15.31263],[-70.1578,-15.32596],[-70.16279,-15.32453],[-70.15924,-15.35484]]]}},{"type":"Feature","properties":{"ubigeo":"2108","nombre":"Melgar"},"geometry":{"type":"Polygon","coordinates":[[[-70.46552,-14.92815],[-70.47495,-14.93337],[-70.49516,-14.92443],[-70.49194,-14.91337],[-70.50071,-14.91393],[-70.50878,-14.92437],[-70.50656,-14.94771],[-70.49931,-14.95027],[-70.51366,-14.97096],[-70.5333,-14.98245],[-70.54181,-14.9919],[-70.53916,-15.00704],[-70.53241,-15.01356],[-70.53184,-15.02795],[-70.5388,-15.04314],[-70.54772,-15.05102],[-70.55256,-15.06364],[-70.54867,-15.08662],[-70.53334,-15.0949],[-70.53361,-15.13324],[-70.52467,-15.14271],[-70.51314,-15.14424],[-70.52008,-15.1513],[-70.52322,-15.16493],[-70.54068,-15.17809],[-70.53837,-15.1884],[-70.54877,-15.19486],[-70.56255,-15.19159],[-70.56258,-15.18401],[-70.57786,-15.16069],[-70.57622,-15.1522],[-70.59585,-15.12681],[-70.61366,-15.11876],[-70.62338,-15.12834],[-70.6322,-15.11829],[-70.65732,-15.134],[-70.67121,-15.13206],[-70.67992,-15.11621],[-70.70789,-15.12663],[-70.71144,-15.11224],[-70.7075,-15.1025],[-70.70904,-15.08589],[-70.74741,-15.04745],[-70.75665,-15.04603],[-70.76082,-15.03086],[-70.77377,-15.03359],[-70.81262,-15.01695],[-70.83349,-15.00209],[-70.84446,-15.01784],[-70.85835,-15.02516],[-70.86597,-15.0382],[-70.88088,-15.04541],[-70.89743,-15.03737],[-70.93622,-15.0518],[-70.93994,-15.05911],[-70.9611,-15.06122],[-70.9936,-15.08459],[-70.9924,-15.0703],[-70.99655,-15.05435],[-70.99314,-15.04235],[-70.99657,-15.01673],[-71.00393,-15.00135],[-71.00405,-14.97188],[-70.99625,-14.96372],[-70.99664,-14.95393],[-70.98474,-14.94607],[-70.99057,-14.92687],[-70.98629,-14.91548],[-70.99486,-14.89904],[-70.99661,-14.8857],[-70.99147,-14.8609],[-70.99659,-14.84394],[-70.99578,-14.83137],[-70.97927,-14.82515],[-70.97732,-14.80783],[-70.98371,-14.78603],[-70.97548,-14.76413],[-70.98153,-14.75549],[-71.01309,-14.73969],[-71.02776,-14.76007],[-71.03569,-14.75212],[-71.05324,-14.75433],[-71.06322,-14.73652],[-71.08951,-14.71319],[-71.08776,-14.69715],[-71.11368,-14.66673],[-71.11794,-14.64892],[-71.10973,-14.63422],[-71.08069,-14.6299],[-71.0739,-14.63145],[-71.05196,-14.61422],[-71.04275,-14.60138],[-71.0249,-14.59193],[-71.00987,-14.59669],[-71.02043,-14.58535],[-71.00145,-14.57221],[-70.97979,-14.58298],[-70.96612,-14.56834],[-70.98157,-14.54852],[-70.9791,-14.53853],[-70.98823,-14.5263],[-70.99917,-14.50227],[-70.98659,-14.49872],[-70.98916,-14.48944],[-70.98267,-14.47581],[-70.98809,-14.45594],[-70.98137,-14.44902],[-70.9625,-14.44482],[-70.97872,-14.41666],[-70.98582,-14.40673],[-70.97869,-14.39448],[-70.9852,-14.37915],[-70.97048,-14.37828],[-70.96258,-14.36185],[-70.92642,-14.34007],[-70.91771,-14.34472],[-70.90783,-14.33397],[-70.91297,-14.32758],[-70.91393,-14.30442],[-70.8917,-14.28401],[-70.8917,-14.27384],[-70.88058,-14.27088],[-70.8821,-14.25379],[-70.89935,-14.2293],[-70.89458,-14.20911],[-70.88214,-14.19879],[-70.88961,-14.18504],[-70.88618,-14.17141],[-70.86683,-14.16908],[-70.86327,-14.16074],[-70.8491,-14.15085],[-70.8209,-14.14],[-70.82168,-14.13382],[-70.80893,-14.1242],[-70.80561,-14.09928],[-70.78982,-14.07882],[-70.77016,-14.08267],[-70.74992,-14.07587],[-70.73494,-14.07957],[-70.71985,-14.07498],[-70.70342,-14.08564],[-70.70218,-14.10073],[-70.69464,-14.11022],[-70.69202,-14.12392],[-70.66823,-14.12629],[-70.6524,-14.12086],[-70.64008,-14.13098],[-70.63545,-14.14605],[-70.61929,-14.15936],[-70.61184,-14.15415],[-70.60686,-14.16148],[-70.59877,-14.15499],[-70.58937,-14.15787],[-70.57053,-14.14473],[-70.56712,-14.15265],[-70.55105,-14.15532],[-70.54119,-14.18971],[-70.52144,-14.20215],[-70.51361,-14.19856],[-70.50264,-14.20416],[-70.49597,-14.22035],[-70.47963,-14.22315],[-70.44645,-14.19647],[-70.4429,-14.18875],[-70.42517,-14.17809],[-70.41068,-14.18936],[-70.38691,-14.19602],[-70.37613,-14.18926],[-70.36347,-14.18823],[-70.3571,-14.1708],[-70.32946,-14.17518],[-70.32326,-14.19684],[-70.30224,-14.21853],[-70.28929,-14.21885],[-70.29288,-14.24376],[-70.28548,-14.26773],[-70.27471,-14.26581],[-70.2754,-14.27573],[-70.26824,-14.28297],[-70.26799,-14.30048],[-70.27616,-14.32195],[-70.29327,-14.34004],[-70.30434,-14.34564],[-70.31473,-14.34024],[-70.32665,-14.3499],[-70.32349,-14.37197],[-70.31546,-14.37932],[-70.31803,-14.40601],[-70.32717,-14.4193],[-70.32637,-14.42606],[-70.33396,-14.45329],[-70.32955,-14.46808],[-70.33828,-14.48861],[-70.35286,-14.5079],[-70.35256,-14.5304],[-70.3692,-14.54105],[-70.36664,-14.55067],[-70.34538,-14.5658],[-70.34206,-14.57803],[-70.36467,-14.59732],[-70.38842,-14.57216],[-70.40404,-14.5623],[-70.41888,-14.56891],[-70.43077,-14.5791],[-70.4127,-14.6005],[-70.41783,-14.61381],[-70.39618,-14.62757],[-70.38775,-14.63671],[-70.38475,-14.67696],[-70.39794,-14.70053],[-70.40024,-14.71667],[-70.41714,-14.73125],[-70.42585,-14.7577],[-70.42693,-14.77061],[-70.44554,-14.78799],[-70.44512,-14.79673],[-70.45316,-14.82741],[-70.44225,-14.83281],[-70.44394,-14.84566],[-70.43658,-14.8589],[-70.45598,-14.88081],[-70.46702,-14.91543],[-70.46552,-14.92815]]]}},{"type":"Feature","properties":{"ubigeo":"2109","nombre":"Moho"},"geometry":{"type":"Polygon","coordinates":[[[-69.65511,-15.27137],[-69.64527,-15.26115],[-69.62987,-15.26487],[-69.59541,-15.28463],[-69.54843,-15.30868],[-69.54109,-15.30681],[-69.54749,-15.28496],[-69.52586,-15.26847],[-69.52193,-15.25027],[-69.50858,-15.24867],[-69.48607,-15.27158],[-69.45638,-15.26566],[-69.4471,-15.26642],[-69.44338,-15.24441],[-69.42454,-15.23314],[-69.41147,-15.2292],[-69.40108,-15.2128],[-69.37193,-15.21695],[-69.362,-15.21407],[-69.35193,-15.18829],[-69.3302,-15.17711],[-69.31458,-15.17654],[-69.29175,-15.16227],[-69.27765,-15.17934],[-69.25381,-15.18675],[-69.24063,-15.18684],[-69.2315,-15.19606],[-69.2269,-15.21534],[-69.18942,-15.23118],[-69.18495,-15.24399],[-69.17321,-15.25577],[-69.1763,-15.26136],[-69.17797,-15.27918],[-69.19326,-15.29516],[-69.19479,-15.31504],[-69.20656,-15.32425],[-69.21564,-15.31716],[-69.23105,-15.3355],[-69.24856,-15.37081],[-69.26033,-15.37404],[-69.24985,-15.42672],[-69.23233,-15.4418],[-69.24083,-15.46039],[-69.25351,-15.46919],[-69.29007,-15.43688],[-69.30895,-15.46389],[-69.31172,-15.47297],[-69.30058,-15.48635],[-69.31256,-15.49165],[-69.30886,-15.50513],[-69.31446,-15.51804],[-69.33112,-15.53795],[-69.35901,-15.52798],[-69.37625,-15.51432],[-69.39111,-15.50725],[-69.37501,-15.48927],[-69.35965,-15.50624],[-69.3548,-15.49776],[-69.35837,-15.48293],[-69.37611,-15.4715],[-69.39016,-15.47326],[-69.39446,-15.48082],[-69.43496,-15.48236],[-69.41706,-15.5041],[-69.4313,-15.50325],[-69.44163,-15.49173],[-69.43591,-15.47956],[-69.43784,-15.46744],[-69.44703,-15.45765],[-69.45977,-15.45329],[-69.4647,-15.44096],[-69.4767,-15.42725],[-69.49969,-15.413],[-69.50056,-15.40377],[-69.51318,-15.40688],[-69.53087,-15.38785],[-69.51584,-15.37772],[-69.52211,-15.36997],[-69.53367,-15.37172],[-69.54044,-15.37964],[-69.55376,-15.37559],[-69.55559,-15.35938],[-69.56901,-15.34728],[-69.56838,-15.36123],[-69.59291,-15.37228],[-69.605,-15.3548],[-69.61513,-15.35477],[-69.62108,-15.34518],[-69.63133,-15.35521],[-69.6298,-15.34371],[-69.64022,-15.334],[-69.62924,-15.33373],[-69.64198,-15.32015],[-69.6537,-15.29861],[-69.63652,-15.31303],[-69.64401,-15.29476],[-69.6422,-15.28226],[-69.65681,-15.2826],[-69.66829,-15.2748],[-69.66765,-15.26815],[-69.65511,-15.27137]]]}},{"type":"Feature","properties":{"ubigeo":"2110","nombre":"San Antonio de Putina"},"geometry":{"type":"Polygon","coordinates":[[[-69.3538,-14.80167],[-69.3873,-14.81602],[-69.4038,-14.82566],[-69.41565,-14.84576],[-69.435,-14.83868],[-69.44797,-14.80485],[-69.45138,-14.78532],[-69.46593,-14.77032],[-69.48029,-14.77217],[-69.49305,-14.76319],[-69.5117,-14.7735],[-69.51171,-14.78206],[-69.50092,-14.79881],[-69.51095,-14.82086],[-69.51632,-14.82078],[-69.52966,-14.84296],[-69.5296,-14.85797],[-69.51766,-14.87617],[-69.53952,-14.91746],[-69.54179,-14.92943],[-69.5625,-14.92304],[-69.56753,-14.91595],[-69.58291,-14.91372],[-69.6138,-14.91396],[-69.61538,-14.92928],[-69.62331,-14.93763],[-69.62224,-14.94971],[-69.6365,-14.95505],[-69.65367,-14.94404],[-69.67493,-14.95153],[-69.69683,-14.95299],[-69.71276,-14.9604],[-69.72937,-14.97592],[-69.72539,-14.98493],[-69.73094,-14.99769],[-69.74586,-14.99447],[-69.7649,-14.96336],[-69.78353,-14.95453],[-69.80095,-14.95876],[-69.80373,-14.9659],[-69.79792,-14.9778],[-69.8175,-14.98728],[-69.82754,-14.98183],[-69.83343,-14.99716],[-69.84734,-15.00489],[-69.84322,-15.01915],[-69.85235,-15.03317],[-69.85133,-15.04242],[-69.86789,-15.05283],[-69.86929,-15.06544],[-69.88519,-15.08386],[-69.87494,-15.08719],[-69.87661,-15.10876],[-69.88473,-15.10278],[-69.89826,-15.1108],[-69.91111,-15.09508],[-69.92188,-15.09098],[-69.91604,-15.07953],[-69.92407,-15.06956],[-69.92229,-15.05915],[-69.94331,-15.05698],[-69.9669,-15.02965],[-69.95925,-14.96072],[-69.97611,-14.94401],[-69.96592,-14.92545],[-69.97691,-14.90537],[-69.97669,-14.88928],[-69.98858,-14.8731],[-69.97052,-14.86115],[-69.96949,-14.85205],[-69.95148,-14.8512],[-69.9369,-14.84346],[-69.92224,-14.8624],[-69.91162,-14.86529],[-69.89763,-14.8513],[-69.90421,-14.83546],[-69.90075,-14.82728],[-69.84967,-14.79026],[-69.85814,-14.77725],[-69.85416,-14.76079],[-69.8369,-14.74266],[-69.84124,-14.72267],[-69.85508,-14.70264],[-69.85866,-14.68555],[-69.85014,-14.67322],[-69.84859,-14.6558],[-69.85702,-14.64705],[-69.85989,-14.6201],[-69.85561,-14.61421],[-69.86114,-14.59042],[-69.86743,-14.58588],[-69.87756,-14.60184],[-69.88962,-14.58572],[-69.88743,-14.57665],[-69.90181,-14.56594],[-69.91747,-14.57927],[-69.93428,-14.56869],[-69.95262,-14.57004],[-69.98758,-14.58367],[-69.99667,-14.57794],[-70.00901,-14.55999],[-70.00465,-14.54628],[-69.98596,-14.52362],[-69.95291,-14.50206],[-69.94867,-14.49138],[-69.92755,-14.48362],[-69.91051,-14.48371],[-69.89526,-14.47857],[-69.88982,-14.45895],[-69.89289,-14.44362],[-69.88988,-14.43427],[-69.87102,-14.44404],[-69.83874,-14.44377],[-69.8084,-14.45562],[-69.79616,-14.45563],[-69.79493,-14.44634],[-69.76922,-14.45374],[-69.76642,-14.4714],[-69.75592,-14.47342],[-69.74539,-14.48501],[-69.73188,-14.49276],[-69.7274,-14.50873],[-69.70993,-14.50809],[-69.69096,-14.51782],[-69.6721,-14.52362],[-69.66109,-14.54184],[-69.66131,-14.57077],[-69.65813,-14.60509],[-69.65353,-14.61539],[-69.63545,-14.62586],[-69.62257,-14.65488],[-69.61221,-14.66182],[-69.58176,-14.62722],[-69.54891,-14.6269],[-69.53887,-14.61136],[-69.52991,-14.61151],[-69.51445,-14.60158],[-69.50677,-14.60737],[-69.49277,-14.59269],[-69.46268,-14.58714],[-69.44697,-14.59742],[-69.44467,-14.61163],[-69.42622,-14.61285],[-69.41273,-14.62111],[-69.39132,-14.61758],[-69.37206,-14.61032],[-69.34785,-14.62352],[-69.33132,-14.61592],[-69.3248,-14.60142],[-69.3332,-14.57642],[-69.32381,-14.57116],[-69.32347,-14.55872],[-69.31296,-14.54956],[-69.31725,-14.53397],[-69.31483,-14.52116],[-69.30817,-14.51991],[-69.30913,-14.5041],[-69.30383,-14.48711],[-69.29643,-14.48554],[-69.29062,-14.44997],[-69.28917,-14.42495],[-69.30313,-14.40156],[-69.27043,-14.34607],[-69.27105,-14.31374],[-69.26346,-14.30628],[-69.24528,-14.31682],[-69.22847,-14.34376],[-69.23442,-14.3494],[-69.23121,-14.35859],[-69.23155,-14.38388],[-69.2186,-14.39237],[-69.2209,-14.41689],[-69.22505,-14.42735],[-69.22049,-14.43927],[-69.20871,-14.43749],[-69.18699,-14.44043],[-69.1488,-14.45132],[-69.1427,-14.45507],[-69.12739,-14.47784],[-69.11391,-14.4878],[-69.11538,-14.50256],[-69.12473,-14.51264],[-69.1406,-14.51343],[-69.15424,-14.52208],[-69.14354,-14.53026],[-69.14764,-14.54369],[-69.14683,-14.57183],[-69.15003,-14.58031],[-69.1654,-14.58871],[-69.17833,-14.59041],[-69.18989,-14.58613],[-69.22004,-14.58156],[-69.22988,-14.60049],[-69.23051,-14.61469],[-69.22551,-14.62858],[-69.22967,-14.65669],[-69.2424,-14.65937],[-69.25798,-14.68288],[-69.25449,-14.69976],[-69.22526,-14.7407],[-69.23994,-14.75947],[-69.26005,-14.76291],[-69.27085,-14.76957],[-69.2802,-14.76497],[-69.3012,-14.7653],[-69.3228,-14.77775],[-69.33987,-14.79559],[-69.3538,-14.80167]]]}},{"type":"Feature","properties":{"ubigeo":"2111","nombre":"San Román"},"geometry":{"type":"Polygon","coordinates":[[[-70.09488,-15.38389],[-70.09471,-15.38368],[-70.09076,-15.38997],[-70.07878,-15.3876],[-70.07112,-15.39921],[-70.08137,-15.40473],[-70.07113,-15.42524],[-70.07819,-15.43876],[-70.07519,-15.44474],[-70.08404,-15.45524],[-70.04215,-15.44687],[-70.0272,-15.43754],[-70.02904,-15.45559],[-70.00378,-15.47041],[-70.00129,-15.48004],[-69.99015,-15.48871],[-69.99705,-15.49525],[-69.99646,-15.50625],[-69.97276,-15.53598],[-69.96831,-15.53571],[-69.96178,-15.54681],[-69.98041,-15.5467],[-69.99559,-15.54228],[-70.01036,-15.55638],[-69.99818,-15.55965],[-70.02573,-15.5655],[-70.04264,-15.58762],[-70.05893,-15.60188],[-70.06741,-15.61956],[-70.08466,-15.63304],[-70.08374,-15.64246],[-70.11871,-15.6372],[-70.12911,-15.64234],[-70.14547,-15.66988],[-70.14906,-15.65671],[-70.1603,-15.65308],[-70.17058,-15.63417],[-70.1838,-15.62934],[-70.19163,-15.61887],[-70.20186,-15.61734],[-70.20534,-15.64251],[-70.21694,-15.64733],[-70.23322,-15.66576],[-70.24624,-15.67554],[-70.26372,-15.67671],[-70.26897,-15.69207],[-70.28079,-15.69384],[-70.2897,-15.70188],[-70.30787,-15.73246],[-70.3128,-15.73599],[-70.32367,-15.7279],[-70.34143,-15.72613],[-70.35858,-15.73599],[-70.37632,-15.74101],[-70.38115,-15.7348],[-70.4033,-15.73011],[-70.42452,-15.74469],[-70.41974,-15.75669],[-70.43499,-15.77404],[-70.43842,-15.78715],[-70.41906,-15.81941],[-70.43073,-15.83208],[-70.42765,-15.84889],[-70.43299,-15.85805],[-70.44326,-15.86198],[-70.44961,-15.88184],[-70.44617,-15.89573],[-70.47928,-15.9112],[-70.48441,-15.92384],[-70.47949,-15.93211],[-70.48081,-15.9465],[-70.50414,-15.95898],[-70.51755,-15.97645],[-70.54639,-15.97818],[-70.56289,-15.9825],[-70.56997,-15.98898],[-70.58749,-15.98794],[-70.61237,-15.99477],[-70.62477,-16.00302],[-70.64137,-15.98809],[-70.66918,-16.01378],[-70.69212,-16.02295],[-70.7054,-16.03176],[-70.72859,-16.03141],[-70.74156,-16.01606],[-70.7564,-16.01352],[-70.76511,-16.01775],[-70.77446,-16.01383],[-70.79535,-15.9924],[-70.79997,-15.97596],[-70.81117,-15.98668],[-70.8202,-15.97847],[-70.84195,-15.971],[-70.84087,-15.95884],[-70.8322,-15.9491],[-70.84534,-15.92193],[-70.86049,-15.90288],[-70.86578,-15.88939],[-70.87497,-15.88763],[-70.88591,-15.89346],[-70.89382,-15.88691],[-70.89537,-15.85991],[-70.89054,-15.85125],[-70.88835,-15.84155],[-70.8692,-15.83727],[-70.86557,-15.82865],[-70.84477,-15.80586],[-70.82546,-15.80733],[-70.81386,-15.8144],[-70.81356,-15.79334],[-70.79726,-15.78032],[-70.76986,-15.7874],[-70.75636,-15.7778],[-70.74614,-15.77607],[-70.72731,-15.78775],[-70.71669,-15.79023],[-70.71124,-15.78353],[-70.69205,-15.7941],[-70.67563,-15.78927],[-70.66268,-15.77319],[-70.65784,-15.76077],[-70.63382,-15.74491],[-70.6105,-15.75947],[-70.60424,-15.74743],[-70.58631,-15.74089],[-70.57538,-15.72144],[-70.55434,-15.74086],[-70.54685,-15.73898],[-70.54659,-15.72422],[-70.54107,-15.71968],[-70.53462,-15.69631],[-70.52595,-15.68741],[-70.49363,-15.67737],[-70.49115,-15.66784],[-70.46646,-15.6542],[-70.43957,-15.67508],[-70.42918,-15.67727],[-70.41303,-15.67346],[-70.39914,-15.67589],[-70.36661,-15.66429],[-70.3559,-15.64093],[-70.34082,-15.632],[-70.31202,-15.60377],[-70.30143,-15.58847],[-70.29323,-15.58754],[-70.28162,-15.56811],[-70.25733,-15.55155],[-70.27297,-15.52197],[-70.27081,-15.51094],[-70.29674,-15.48874],[-70.28748,-15.46825],[-70.30105,-15.46812],[-70.32778,-15.44559],[-70.32432,-15.4387],[-70.33761,-15.42665],[-70.33991,-15.40961],[-70.33157,-15.40506],[-70.32753,-15.39304],[-70.31539,-15.39579],[-70.30533,-15.38612],[-70.27515,-15.40212],[-70.2687,-15.39548],[-70.26687,-15.37494],[-70.28199,-15.3583],[-70.29237,-15.35422],[-70.28641,-15.33816],[-70.27764,-15.33696],[-70.27574,-15.31393],[-70.25397,-15.3302],[-70.2317,-15.33705],[-70.21499,-15.35152],[-70.21167,-15.36052],[-70.19063,-15.36656],[-70.18074,-15.37699],[-70.15924,-15.35484],[-70.13203,-15.33382],[-70.10731,-15.34516],[-70.09488,-15.38389]]]}},{"type":"Feature","properties":{"ubigeo":"2112","nombre":"Sandia"},"geometry":{"type":"Polygon","coordinates":[[[-69.69096,-14.51782],[-69.6826,-14.49006],[-69.65978,-14.45333],[-69.67483,-14.44054],[-69.6816,-14.44131],[-69.6867,-14.42221],[-69.70274,-14.416],[-69.71546,-14.42356],[-69.72407,-14.41808],[-69.72932,-14.3911],[-69.72689,-14.37759],[-69.73321,-14.35824],[-69.72786,-14.34969],[-69.73755,-14.33422],[-69.7574,-14.33562],[-69.76667,-14.32845],[-69.76856,-14.31889],[-69.78323,-14.31199],[-69.78153,-14.2848],[-69.78633,-14.27499],[-69.79937,-14.26833],[-69.81281,-14.27137],[-69.83124,-14.26932],[-69.84007,-14.27463],[-69.85092,-14.26272],[-69.85119,-14.2322],[-69.84361,-14.22234],[-69.8501,-14.21402],[-69.84162,-14.20724],[-69.83897,-14.19442],[-69.82678,-14.1737],[-69.82333,-14.1619],[-69.82629,-14.14589],[-69.83291,-14.13817],[-69.82137,-14.13152],[-69.81521,-14.11173],[-69.8088,-14.10474],[-69.8059,-14.08283],[-69.77959,-14.05422],[-69.77817,-14.04582],[-69.7632,-14.03059],[-69.75319,-14.035],[-69.72519,-14.01878],[-69.7232,-13.97697],[-69.70493,-13.9521],[-69.70221,-13.93578],[-69.67579,-13.92063],[-69.66436,-13.90143],[-69.6635,-13.88464],[-69.677,-13.87081],[-69.69853,-13.86638],[-69.70852,-13.85886],[-69.72002,-13.84174],[-69.72737,-13.84187],[-69.73428,-13.83064],[-69.73246,-13.81169],[-69.74944,-13.80573],[-69.75309,-13.79606],[-69.7759,-13.77417],[-69.77743,-13.76049],[-69.78574,-13.75072],[-69.7787,-13.7389],[-69.76802,-13.74491],[-69.75372,-13.73789],[-69.75389,-13.72606],[-69.74601,-13.6906],[-69.75251,-13.67724],[-69.74416,-13.65861],[-69.72653,-13.63375],[-69.72342,-13.61034],[-69.71878,-13.60345],[-69.72513,-13.59596],[-69.70744,-13.54652],[-69.7096,-13.53484],[-69.70194,-13.53413],[-69.69748,-13.51906],[-69.7152,-13.52074],[-69.71968,-13.51305],[-69.7365,-13.50792],[-69.72879,-13.49415],[-69.72203,-13.49257],[-69.71314,-13.50558],[-69.7044,-13.49967],[-69.69098,-13.50446],[-69.68164,-13.49984],[-69.66895,-13.47521],[-69.6792,-13.46184],[-69.66716,-13.45484],[-69.65626,-13.45938],[-69.65118,-13.42674],[-69.64135,-13.40814],[-69.63276,-13.4063],[-69.65367,-13.38145],[-69.65511,-13.37153],[-69.64986,-13.34172],[-69.64723,-13.34124],[-69.50744,-13.28107],[-69.3106,-13.19578],[-69.22016,-13.15573],[-69.1138,-13.10982],[-69.04859,-13.08087],[-68.9274,-13.02888],[-68.87187,-13.00393],[-68.86931,-13.01886],[-68.85292,-13.01686],[-68.86599,-13.02921],[-68.85166,-13.03245],[-68.85097,-13.04866],[-68.86157,-13.0457],[-68.86151,-13.05632],[-68.85439,-13.06074],[-68.86861,-13.08007],[-68.8598,-13.09566],[-68.87722,-13.13865],[-68.86688,-13.13499],[-68.86992,-13.1469],[-68.864,-13.15442],[-68.87074,-13.16765],[-68.85727,-13.17235],[-68.86356,-13.1836],[-68.85222,-13.2107],[-68.86193,-13.21366],[-68.86274,-13.22502],[-68.85371,-13.22242],[-68.85767,-13.23454],[-68.84545,-13.24591],[-68.85952,-13.25596],[-68.84931,-13.2691],[-68.86116,-13.2747],[-68.8549,-13.2819],[-68.85806,-13.29635],[-68.86778,-13.29703],[-68.85941,-13.31229],[-68.87805,-13.33217],[-68.86803,-13.3335],[-68.87881,-13.3453],[-68.86766,-13.34982],[-68.8688,-13.35924],[-68.88829,-13.37328],[-68.88316,-13.38141],[-68.88583,-13.39739],[-68.89318,-13.39815],[-68.89755,-13.41378],[-68.89158,-13.42336],[-68.89213,-13.43688],[-68.906,-13.43707],[-68.90584,-13.44824],[-68.89643,-13.4621],[-68.90573,-13.45823],[-68.90207,-13.47153],[-68.91557,-13.48275],[-68.91268,-13.50477],[-68.94256,-13.53819],[-68.9494,-13.55394],[-68.9458,-13.56858],[-68.95353,-13.57679],[-68.95764,-13.5922],[-68.95203,-13.60289],[-68.97528,-13.60414],[-68.97244,-13.60944],[-68.98794,-13.61228],[-69.00517,-13.62484],[-68.99081,-13.63575],[-68.99301,-13.64986],[-69.02099,-13.65727],[-69.033,-13.65386],[-69.03721,-13.64028],[-69.06103,-13.65696],[-69.06724,-13.68675],[-69.05383,-13.69501],[-69.05573,-13.70221],[-69.0355,-13.7162],[-69.02595,-13.73929],[-69.00812,-13.73843],[-68.97446,-13.76059],[-68.98064,-13.78333],[-68.99177,-13.77847],[-68.99423,-13.78751],[-68.97308,-13.79615],[-68.95859,-13.7905],[-68.94993,-13.80058],[-68.91774,-13.81366],[-68.92233,-13.82719],[-68.94105,-13.83954],[-68.94498,-13.86846],[-68.95139,-13.87909],[-68.96615,-13.88477],[-68.9728,-13.88219],[-68.98213,-13.89406],[-68.98283,-13.93008],[-68.97038,-13.94828],[-68.9781,-13.97804],[-68.96285,-13.99086],[-68.95401,-14.00528],[-68.93468,-14.02719],[-68.91891,-14.02732],[-68.90856,-14.04061],[-68.89564,-14.04126],[-68.89295,-14.05171],[-68.8799,-14.06381],[-68.88346,-14.085],[-68.87528,-14.08679],[-68.87113,-14.11106],[-68.84952,-14.13803],[-68.83329,-14.14487],[-68.83309,-14.15321],[-68.84673,-14.15332],[-68.85618,-14.16267],[-68.84642,-14.19665],[-68.83127,-14.20507],[-68.8278,-14.21942],[-68.96241,-14.22005],[-68.96961,-14.22537],[-68.96876,-14.235],[-68.98193,-14.23471],[-68.98868,-14.24248],[-68.98446,-14.26118],[-68.97909,-14.26349],[-68.98985,-14.2816],[-69.00481,-14.29044],[-69.0076,-14.30485],[-69.01524,-14.31471],[-69.00541,-14.33495],[-69.00415,-14.34517],[-68.98541,-14.37466],[-69.00401,-14.39117],[-69.00526,-14.40434],[-69.01813,-14.40323],[-69.02615,-14.40966],[-69.03093,-14.42609],[-69.05038,-14.42913],[-69.06001,-14.44204],[-69.08195,-14.44444],[-69.09878,-14.48609],[-69.11391,-14.4878],[-69.12739,-14.47784],[-69.1427,-14.45507],[-69.1488,-14.45132],[-69.18699,-14.44043],[-69.20871,-14.43749],[-69.22049,-14.43927],[-69.22505,-14.42735],[-69.2209,-14.41689],[-69.2186,-14.39237],[-69.23155,-14.38388],[-69.23121,-14.35859],[-69.23442,-14.3494],[-69.22847,-14.34376],[-69.24528,-14.31682],[-69.26346,-14.30628],[-69.27105,-14.31374],[-69.27043,-14.34607],[-69.30313,-14.40156],[-69.28917,-14.42495],[-69.29062,-14.44997],[-69.29643,-14.48554],[-69.30383,-14.48711],[-69.30913,-14.5041],[-69.30817,-14.51991],[-69.31483,-14.52116],[-69.31725,-14.53397],[-69.31296,-14.54956],[-69.32347,-14.55872],[-69.32381,-14.57116],[-69.3332,-14.57642],[-69.3248,-14.60142],[-69.33132,-14.61592],[-69.34785,-14.62352],[-69.37206,-14.61032],[-69.39132,-14.61758],[-69.41273,-14.62111],[-69.42622,-14.61285],[-69.44467,-14.61163],[-69.44697,-14.59742],[-69.46268,-14.58714],[-69.49277,-14.59269],[-69.50677,-14.60737],[-69.51445,-14.60158],[-69.52991,-14.61151],[-69.53887,-14.61136],[-69.54891,-14.6269],[-69.58176,-14.62722],[-69.61221,-14.66182],[-69.62257,-14.65488],[-69.63545,-14.62586],[-69.65353,-14.61539],[-69.65813,-14.60509],[-69.66131,-14.57077],[-69.66109,-14.54184],[-69.6721,-14.52362],[-69.69096,-14.51782]]]}},{"type":"Feature","properties":{"ubigeo":"2113","nombre":"Yunguyo"},"geometry":{"type":"MultiPolygon","coordinates":[[[[-69.20017,-16.26419],[-69.17626,-16.25704],[-69.1603,-16.25754],[-69.14535,-16.25315],[-69.11598,-16.23774],[-69.09731,-16.24382],[-69.10274,-16.22466],[-69.08154,-16.22138],[-69.06223,-16.20746],[-69.05526,-16.19736],[-69.03235,-16.206],[-69.01276,-16.21976],[-69.00697,-16.20536],[-68.98434,-16.19011],[-68.96698,-16.19122],[-68.95671,-16.19646],[-68.96545,-16.21875],[-68.96959,-16.24084],[-68.98274,-16.26496],[-68.98813,-16.25844],[-68.99146,-16.26968],[-69.0045,-16.27204],[-68.99323,-16.2409],[-69.00067,-16.24541],[-69.00678,-16.26011],[-69.02642,-16.26375],[-69.03257,-16.26956],[-69.0445,-16.26561],[-69.05542,-16.24901],[-69.06285,-16.25602],[-69.07409,-16.25645],[-69.07592,-16.27524],[-69.07074,-16.28123],[-69.05064,-16.2827],[-69.03757,-16.29991],[-69.02196,-16.33191],[-69.02635,-16.34323],[-69.02276,-16.35113],[-69.03082,-16.37578],[-69.02314,-16.40394],[-69.03634,-16.40955],[-69.04295,-16.4204],[-69.06076,-16.40135],[-69.05422,-16.39263],[-69.06668,-16.39294],[-69.07443,-16.38266],[-69.09487,-16.37088],[-69.12413,-16.36538],[-69.1255,-16.39665],[-69.13631,-16.39725],[-69.1451,-16.37397],[-69.13646,-16.35465],[-69.14194,-16.33099],[-69.15004,-16.3318],[-69.16686,-16.32435],[-69.17818,-16.31395],[-69.19094,-16.31455],[-69.20457,-16.29869],[-69.19884,-16.28126],[-69.20017,-16.26419]]],[[[-68.91852,-16.37771],[-68.9184,-16.2333],[-68.8847,-16.26566],[-68.86781,-16.27746],[-68.81422,-16.31977],[-68.81422,-16.34799],[-68.91839,-16.40372],[-68.91852,-16.37771]]],[[[-68.93606,-16.23781],[-68.94277,-16.24542],[-68.95245,-16.23376],[-68.94538,-16.22725],[-68.93606,-16.23781]]]]}}]}