{"type":"FeatureCollection","features":[{"type":"Feature","properties":{"ubigeo":"2201","nombre":"Moyobamba"},"geometry":{"type":"Polygon","coordinates":[[[-76.89454,-5.74623],[-76.86393,-5.73996],[-76.83545,-5.74556],[-76.8246,-5.7573],[-76.82963,-5.77598],[-76.8213,-5.80265],[-76.81633,-5.80757],[-76.82634,-5.81785],[-76.81938,-5.8326],[-76.81805,-5.86214],[-76.78938,-5.89305],[-76.77774,-5.90055],[-76.77586,-5.91859],[-76.76761,-5.92763],[-76.76287,-5.94812],[-76.74673,-5.95403],[-76.74544,-5.97374],[-76.75443,-5.99839],[-76.75923,-6.00847],[-76.78748,-6.02396],[-76.81945,-6.03321],[-76.84708,-6.03072],[-76.86378,-6.05159],[-76.86123,-6.05956],[-76.8801,-6.08292],[-76.87069,-6.09785],[-76.85935,-6.09544],[-76.84035,-6.10499],[-76.83477,-6.12421],[-76.8384,-6.13719],[-76.82786,-6.17465],[-76.83128,-6.19011],[-76.82887,-6.20042],[-76.8172,-6.20271],[-76.81537,-6.24446],[-76.82266,-6.26526],[-76.83514,-6.28515],[-76.86332,-6.26944],[-76.8671,-6.26461],[-76.88603,-6.27006],[-76.90035,-6.28748],[-76.91312,-6.28125],[-76.92129,-6.28472],[-76.94932,-6.28438],[-76.95387,-6.28027],[-76.96464,-6.31146],[-76.97181,-6.32252],[-76.96383,-6.33602],[-76.94813,-6.34865],[-76.94169,-6.35999],[-76.93449,-6.38431],[-76.95252,-6.39716],[-76.95917,-6.39749],[-76.97063,-6.38297],[-76.98154,-6.38746],[-76.98949,-6.40622],[-77.0092,-6.41321],[-77.04371,-6.40268],[-77.05176,-6.40995],[-77.06567,-6.40766],[-77.08874,-6.39059],[-77.10092,-6.38825],[-77.11548,-6.39921],[-77.12797,-6.38681],[-77.12861,-6.37446],[-77.1427,-6.36233],[-77.14658,-6.35111],[-77.1323,-6.32255],[-77.13273,-6.30242],[-77.16061,-6.26945],[-77.17079,-6.2652],[-77.16908,-6.25501],[-77.19728,-6.23342],[-77.17823,-6.23361],[-77.16214,-6.22533],[-77.15366,-6.21019],[-77.13629,-6.20938],[-77.12454,-6.20336],[-77.12512,-6.18831],[-77.12046,-6.15926],[-77.13069,-6.1478],[-77.12386,-6.1323],[-77.13285,-6.12655],[-77.13392,-6.10966],[-77.13986,-6.1142],[-77.14653,-6.10701],[-77.14546,-6.08604],[-77.1388,-6.08821],[-77.13943,-6.07332],[-77.1442,-6.08014],[-77.1511,-6.07109],[-77.14727,-6.0504],[-77.15247,-6.04677],[-77.14801,-6.02771],[-77.15384,-6.01696],[-77.14846,-5.99425],[-77.14225,-5.99713],[-77.14058,-5.9727],[-77.1483,-5.95889],[-77.14002,-5.95115],[-77.1432,-5.93682],[-77.15323,-5.93296],[-77.1656,-5.94347],[-77.20305,-5.93873],[-77.20603,-5.9235],[-77.2132,-5.92442],[-77.22451,-5.89558],[-77.22984,-5.89878],[-77.23573,-5.88328],[-77.24619,-5.88129],[-77.2476,-5.87332],[-77.23772,-5.86208],[-77.24553,-5.85654],[-77.25649,-5.83035],[-77.25203,-5.82622],[-77.25307,-5.80348],[-77.26711,-5.79858],[-77.26336,-5.78943],[-77.27139,-5.77931],[-77.28228,-5.78006],[-77.27766,-5.77078],[-77.29198,-5.77227],[-77.30751,-5.76389],[-77.31436,-5.7543],[-77.31601,-5.76649],[-77.33079,-5.75445],[-77.3406,-5.75734],[-77.35078,-5.73119],[-77.37788,-5.72323],[-77.37121,-5.72008],[-77.38139,-5.7071],[-77.39081,-5.71298],[-77.40165,-5.71021],[-77.40346,-5.69967],[-77.42263,-5.67763],[-77.439,-5.67995],[-77.44686,-5.68954],[-77.46172,-5.67919],[-77.46591,-5.68391],[-77.47862,-5.67644],[-77.48314,-5.68158],[-77.50083,-5.67192],[-77.51602,-5.67664],[-77.50792,-5.68595],[-77.52518,-5.69809],[-77.53263,-5.69227],[-77.53204,-5.70309],[-77.54342,-5.70211],[-77.55496,-5.70927],[-77.56539,-5.70714],[-77.56836,-5.7147],[-77.57718,-5.70211],[-77.5872,-5.69825],[-77.58247,-5.69088],[-77.59466,-5.68215],[-77.60091,-5.6693],[-77.62105,-5.65463],[-77.62719,-5.64363],[-77.62422,-5.6299],[-77.63272,-5.61353],[-77.65129,-5.59262],[-77.65901,-5.57198],[-77.65099,-5.55787],[-77.65338,-5.55042],[-77.641,-5.5263],[-77.64905,-5.51264],[-77.68161,-5.48756],[-77.72304,-5.44],[-77.74219,-5.42338],[-77.74483,-5.4069],[-77.7127,-5.41641],[-77.69596,-5.41105],[-77.67036,-5.40964],[-77.65754,-5.42642],[-77.63913,-5.4303],[-77.62806,-5.4394],[-77.60697,-5.44858],[-77.59481,-5.46422],[-77.58167,-5.46118],[-77.57014,-5.43827],[-77.55812,-5.42558],[-77.53735,-5.45063],[-77.5174,-5.46675],[-77.51347,-5.47984],[-77.49177,-5.52934],[-77.50388,-5.54017],[-77.50807,-5.55148],[-77.49053,-5.5624],[-77.47479,-5.55511],[-77.46204,-5.56837],[-77.46194,-5.58414],[-77.44414,-5.58629],[-77.43626,-5.59226],[-77.43201,-5.58314],[-77.42155,-5.5893],[-77.40873,-5.58916],[-77.40465,-5.57479],[-77.37182,-5.56711],[-77.36866,-5.5766],[-77.34496,-5.58898],[-77.33832,-5.60347],[-77.31857,-5.60092],[-77.30759,-5.60426],[-77.27676,-5.60245],[-77.2728,-5.61252],[-77.2624,-5.6134],[-77.24957,-5.59941],[-77.24082,-5.60242],[-77.23194,-5.59546],[-77.22197,-5.61328],[-77.20752,-5.62238],[-77.20216,-5.63446],[-77.19161,-5.63338],[-77.17867,-5.64142],[-77.16193,-5.62457],[-77.14235,-5.62544],[-77.13713,-5.64403],[-77.12691,-5.65099],[-77.10995,-5.64795],[-77.10223,-5.65582],[-77.0918,-5.65423],[-77.07509,-5.66349],[-77.05895,-5.66694],[-77.05605,-5.66254],[-77.03334,-5.66304],[-77.01393,-5.67075],[-76.99561,-5.66712],[-76.9869,-5.68621],[-76.96135,-5.70608],[-76.93443,-5.71149],[-76.91973,-5.72083],[-76.89454,-5.74623]]]}},{"type":"Feature","properties":{"ubigeo":"2202","nombre":"Bellavista"},"geometry":{"type":"Polygon","coordinates":[[[-75.98565,-8.32222],[-75.99412,-8.31923],[-75.99601,-8.30667],[-76.00556,-8.30607],[-76.01011,-8.31693],[-76.03598,-8.32941],[-76.04141,-8.34083],[-76.05635,-8.32929],[-76.07363,-8.33342],[-76.0858,-8.32803],[-76.10697,-8.33177],[-76.11457,-8.34689],[-76.12823,-8.36053],[-76.13276,-8.37727],[-76.14578,-8.36755],[-76.16384,-8.32609],[-76.16583,-8.31123],[-76.1971,-8.29444],[-76.20263,-8.26462],[-76.21506,-8.24497],[-76.22695,-8.23938],[-76.22566,-8.2255],[-76.23673,-8.21131],[-76.25384,-8.21485],[-76.25995,-8.20827],[-76.28358,-8.21155],[-76.29965,-8.21746],[-76.30374,-8.20684],[-76.33341,-8.20388],[-76.33622,-8.17549],[-76.32903,-8.16186],[-76.33081,-8.153],[-76.35344,-8.137],[-76.37103,-8.14745],[-76.37906,-8.13705],[-76.37639,-8.12972],[-76.39274,-8.12022],[-76.40665,-8.09973],[-76.41607,-8.09482],[-76.43254,-8.07676],[-76.44881,-8.07353],[-76.45692,-8.05482],[-76.49019,-8.04269],[-76.49867,-8.03529],[-76.52005,-8.03136],[-76.53464,-8.01634],[-76.53667,-8.00816],[-76.56328,-7.99212],[-76.57744,-8.00216],[-76.59307,-8.0024],[-76.60717,-7.98453],[-76.61433,-7.98571],[-76.61575,-7.95389],[-76.62715,-7.94525],[-76.62807,-7.92941],[-76.62276,-7.91644],[-76.62452,-7.9068],[-76.61291,-7.89517],[-76.60573,-7.88143],[-76.60594,-7.87083],[-76.61468,-7.86067],[-76.61497,-7.8519],[-76.63141,-7.85658],[-76.63666,-7.85244],[-76.63166,-7.84261],[-76.63641,-7.83059],[-76.62779,-7.81783],[-76.62415,-7.7898],[-76.61608,-7.77671],[-76.63024,-7.75348],[-76.61908,-7.73226],[-76.60999,-7.7029],[-76.59772,-7.68929],[-76.59167,-7.68096],[-76.57731,-7.67885],[-76.56561,-7.65719],[-76.56596,-7.63557],[-76.57081,-7.617],[-76.57968,-7.60762],[-76.5715,-7.58002],[-76.57424,-7.55771],[-76.55711,-7.54856],[-76.5593,-7.53154],[-76.55618,-7.50696],[-76.5513,-7.50434],[-76.55695,-7.47665],[-76.56439,-7.46237],[-76.55779,-7.45388],[-76.56849,-7.40869],[-76.56476,-7.39575],[-76.57381,-7.38591],[-76.56459,-7.36407],[-76.57104,-7.33036],[-76.55741,-7.30674],[-76.5708,-7.27727],[-76.5768,-7.27517],[-76.58355,-7.25825],[-76.59427,-7.25613],[-76.60055,-7.24334],[-76.61173,-7.24568],[-76.62464,-7.22878],[-76.61416,-7.21371],[-76.61845,-7.19456],[-76.63488,-7.15972],[-76.63803,-7.14311],[-76.65811,-7.13587],[-76.66899,-7.12812],[-76.6591,-7.12093],[-76.64535,-7.10194],[-76.63265,-7.09897],[-76.63397,-7.0761],[-76.63029,-7.05903],[-76.63719,-7.04826],[-76.6321,-7.04227],[-76.6428,-7.03099],[-76.65345,-7.00897],[-76.64139,-7.0035],[-76.63392,-6.98627],[-76.6434,-6.96601],[-76.65314,-6.9558],[-76.68118,-6.91663],[-76.7108,-6.87223],[-76.7294,-6.82732],[-76.73447,-6.80269],[-76.69733,-6.7991],[-76.6851,-6.81011],[-76.66331,-6.79573],[-76.63919,-6.78934],[-76.62078,-6.77606],[-76.60697,-6.78034],[-76.59616,-6.79456],[-76.57699,-6.7824],[-76.53455,-6.74879],[-76.52421,-6.7338],[-76.52387,-6.72538],[-76.51673,-6.7403],[-76.50434,-6.75362],[-76.50008,-6.79246],[-76.46734,-6.81526],[-76.46374,-6.82229],[-76.47419,-6.82663],[-76.47135,-6.85598],[-76.50954,-6.89049],[-76.51161,-6.90204],[-76.52341,-6.91119],[-76.53704,-6.91276],[-76.54864,-6.92833],[-76.54145,-6.93993],[-76.54443,-6.94779],[-76.52976,-6.94983],[-76.52832,-6.96165],[-76.52015,-6.96549],[-76.52033,-6.97684],[-76.50285,-6.96999],[-76.49901,-6.9922],[-76.48872,-6.98887],[-76.48425,-6.99565],[-76.4779,-6.98675],[-76.47131,-6.99871],[-76.46496,-6.99218],[-76.46545,-7.00907],[-76.45552,-7.0134],[-76.45119,-7.00611],[-76.42434,-7.01345],[-76.41907,-7.00142],[-76.41768,-7.01832],[-76.40148,-7.01503],[-76.36931,-7.01701],[-76.35219,-7.03371],[-76.34404,-7.03332],[-76.32897,-7.04347],[-76.319,-7.05845],[-76.30518,-7.06171],[-76.29407,-7.05769],[-76.27413,-7.0662],[-76.25727,-7.06134],[-76.23716,-7.07451],[-76.2253,-7.07056],[-76.2101,-7.07806],[-76.18599,-7.07591],[-76.16903,-7.08231],[-76.16708,-7.09419],[-76.15776,-7.10275],[-76.16367,-7.12694],[-76.15727,-7.14523],[-76.16116,-7.15488],[-76.15794,-7.19829],[-76.14353,-7.20396],[-76.14571,-7.21793],[-76.15928,-7.23057],[-76.15479,-7.23188],[-76.16666,-7.2676],[-76.18671,-7.28093],[-76.19539,-7.29506],[-76.21311,-7.31014],[-76.19604,-7.33353],[-76.21455,-7.40452],[-76.2044,-7.43133],[-76.19142,-7.44869],[-76.18621,-7.46542],[-76.17935,-7.4716],[-76.16615,-7.49431],[-76.14197,-7.50526],[-76.13207,-7.52207],[-76.121,-7.52753],[-76.11446,-7.5639],[-76.09666,-7.56019],[-76.0887,-7.56333],[-76.08742,-7.5803],[-76.08127,-7.58235],[-76.08366,-7.60272],[-76.09387,-7.60973],[-76.08262,-7.62034],[-76.08185,-7.63022],[-76.09768,-7.64224],[-76.10133,-7.65046],[-76.09846,-7.66614],[-76.09846,-7.69674],[-76.10271,-7.70427],[-76.10159,-7.72266],[-76.08667,-7.72923],[-76.08488,-7.76181],[-76.06707,-7.76929],[-76.06133,-7.78665],[-76.0438,-7.79234],[-76.0381,-7.815],[-76.02162,-7.83806],[-76.02257,-7.84302],[-76.00992,-7.85431],[-76.00326,-7.87442],[-76.00751,-7.88491],[-76.00236,-7.89316],[-75.98979,-7.8918],[-75.9756,-7.90962],[-75.98597,-7.91998],[-75.98543,-7.93756],[-75.99151,-7.94101],[-75.99285,-7.95428],[-75.96698,-7.96036],[-75.95056,-7.94745],[-75.93946,-7.94612],[-75.92784,-7.95726],[-75.92043,-7.9475],[-75.89476,-7.93373],[-75.88218,-7.93388],[-75.85939,-7.92117],[-75.84921,-7.93985],[-75.84045,-7.9467],[-75.8354,-7.96877],[-75.82949,-7.9735],[-75.8391,-8.00023],[-75.84493,-8.05964],[-75.8525,-8.05847],[-75.86097,-8.06905],[-75.87411,-8.06682],[-75.88731,-8.07488],[-75.91701,-8.07178],[-75.92706,-8.07785],[-75.92936,-8.0893],[-75.95114,-8.10246],[-75.94064,-8.11046],[-75.93403,-8.13443],[-75.93313,-8.15281],[-75.94116,-8.18618],[-75.9237,-8.21679],[-75.92475,-8.23076],[-75.91336,-8.25439],[-75.91435,-8.28283],[-75.92709,-8.30676],[-75.95183,-8.31485],[-75.97249,-8.31663],[-75.98565,-8.32222]]]}},{"type":"Feature","properties":{"ubigeo":"2203","nombre":"El Dorado"},"geometry":{"type":"Polygon","coordinates":[[[-76.52387,-6.72538],[-76.52421,-6.7338],[-76.53455,-6.74879],[-76.57699,-6.7824],[-76.59616,-6.79456],[-76.60697,-6.78034],[-76.62078,-6.77606],[-76.63919,-6.78934],[-76.66331,-6.79573],[-76.6851,-6.81011],[-76.69733,-6.7991],[-76.73447,-6.80269],[-76.73792,-6.78801],[-76.76014,-6.76636],[-76.78541,-6.72912],[-76.78689,-6.71427],[-76.78051,-6.70496],[-76.79498,-6.66257],[-76.79696,-6.64565],[-76.81166,-6.62763],[-76.81521,-6.60793],[-76.83474,-6.57042],[-76.84129,-6.54901],[-76.85524,-6.5254],[-76.8734,-6.50637],[-76.87718,-6.49288],[-76.88768,-6.48269],[-76.92103,-6.47125],[-76.93664,-6.44643],[-76.9445,-6.43915],[-76.95252,-6.39716],[-76.93449,-6.38431],[-76.94169,-6.35999],[-76.94813,-6.34865],[-76.96383,-6.33602],[-76.97181,-6.32252],[-76.96464,-6.31146],[-76.95387,-6.28027],[-76.94932,-6.28438],[-76.92129,-6.28472],[-76.91312,-6.28125],[-76.90035,-6.28748],[-76.88603,-6.27006],[-76.8671,-6.26461],[-76.86332,-6.26944],[-76.83514,-6.28515],[-76.83572,-6.3195],[-76.84177,-6.33892],[-76.84321,-6.36917],[-76.83174,-6.38862],[-76.82482,-6.38864],[-76.80353,-6.40076],[-76.78035,-6.41822],[-76.76245,-6.4168],[-76.75055,-6.42222],[-76.72948,-6.42082],[-76.7242,-6.42682],[-76.69944,-6.42555],[-76.69799,-6.41558],[-76.68436,-6.42525],[-76.67893,-6.43474],[-76.66579,-6.4777],[-76.65857,-6.48374],[-76.65345,-6.51783],[-76.64102,-6.51982],[-76.64597,-6.5343],[-76.64072,-6.5469],[-76.59124,-6.59496],[-76.57714,-6.59282],[-76.55255,-6.59574],[-76.53789,-6.60988],[-76.53458,-6.62549],[-76.55549,-6.6537],[-76.55847,-6.67143],[-76.54955,-6.68129],[-76.52421,-6.69287],[-76.52387,-6.72538]]]}},{"type":"Feature","properties":{"ubigeo":"2204","nombre":"Huallaga"},"geometry":{"type":"Polygon","coordinates":[[[-76.95252,-6.39716],[-76.9445,-6.43915],[-76.93664,-6.44643],[-76.92103,-6.47125],[-76.88768,-6.48269],[-76.87718,-6.49288],[-76.8734,-6.50637],[-76.85524,-6.5254],[-76.84129,-6.54901],[-76.83474,-6.57042],[-76.81521,-6.60793],[-76.81166,-6.62763],[-76.79696,-6.64565],[-76.79498,-6.66257],[-76.78051,-6.70496],[-76.78689,-6.71427],[-76.78541,-6.72912],[-76.76014,-6.76636],[-76.73792,-6.78801],[-76.73447,-6.80269],[-76.7294,-6.82732],[-76.7108,-6.87223],[-76.68118,-6.91663],[-76.65314,-6.9558],[-76.6434,-6.96601],[-76.63392,-6.98627],[-76.64139,-7.0035],[-76.65345,-7.00897],[-76.6428,-7.03099],[-76.6321,-7.04227],[-76.63719,-7.04826],[-76.63029,-7.05903],[-76.63397,-7.0761],[-76.63265,-7.09897],[-76.64535,-7.10194],[-76.6591,-7.12093],[-76.66899,-7.12812],[-76.6692,-7.11395],[-76.68153,-7.08931],[-76.68523,-7.095],[-76.70378,-7.10219],[-76.7153,-7.09769],[-76.73451,-7.10799],[-76.74448,-7.12204],[-76.75903,-7.13094],[-76.77235,-7.12783],[-76.78517,-7.1384],[-76.78389,-7.16287],[-76.79835,-7.17432],[-76.81213,-7.17298],[-76.81854,-7.15565],[-76.84415,-7.1008],[-76.85087,-7.07291],[-76.85841,-7.06919],[-76.87447,-7.07837],[-76.88361,-7.09401],[-76.90708,-7.08618],[-76.90231,-7.06588],[-76.90576,-7.05422],[-76.89734,-7.04669],[-76.89666,-7.03098],[-76.90628,-7.01761],[-76.90257,-7.00972],[-76.9093,-7.00198],[-76.92937,-7.00223],[-76.95203,-6.99632],[-76.9632,-6.97645],[-76.96546,-6.94319],[-76.97466,-6.92108],[-76.98992,-6.90095],[-76.99421,-6.88095],[-77.00668,-6.85681],[-77.0074,-6.84009],[-77.01534,-6.83568],[-77.01068,-6.82479],[-77.01831,-6.79451],[-77.03123,-6.78272],[-77.02771,-6.76897],[-77.0392,-6.7376],[-77.03591,-6.72102],[-77.02542,-6.7135],[-77.03493,-6.69822],[-77.04464,-6.67225],[-77.05697,-6.66599],[-77.06206,-6.64421],[-77.07404,-6.63971],[-77.06442,-6.60101],[-77.04944,-6.5937],[-77.05121,-6.58556],[-77.04661,-6.56569],[-77.05608,-6.56806],[-77.06584,-6.55761],[-77.07937,-6.55347],[-77.09407,-6.54305],[-77.11364,-6.52347],[-77.12278,-6.50862],[-77.13498,-6.50308],[-77.15822,-6.5012],[-77.16108,-6.48538],[-77.17392,-6.47147],[-77.17419,-6.4564],[-77.18536,-6.43671],[-77.19821,-6.43154],[-77.19787,-6.42099],[-77.20995,-6.41678],[-77.22144,-6.4193],[-77.23622,-6.40936],[-77.24859,-6.39051],[-77.26396,-6.38213],[-77.27551,-6.38473],[-77.28255,-6.37334],[-77.28098,-6.36307],[-77.28666,-6.33102],[-77.26001,-6.32771],[-77.25467,-6.33645],[-77.24365,-6.33812],[-77.24128,-6.35264],[-77.23347,-6.35993],[-77.22146,-6.38113],[-77.20824,-6.37518],[-77.19319,-6.38152],[-77.17173,-6.38117],[-77.14941,-6.35894],[-77.14658,-6.35111],[-77.1427,-6.36233],[-77.12861,-6.37446],[-77.12797,-6.38681],[-77.11548,-6.39921],[-77.10092,-6.38825],[-77.08874,-6.39059],[-77.06567,-6.40766],[-77.05176,-6.40995],[-77.04371,-6.40268],[-77.0092,-6.41321],[-76.98949,-6.40622],[-76.98154,-6.38746],[-76.97063,-6.38297],[-76.95917,-6.39749],[-76.95252,-6.39716]]]}},{"type":"Feature","properties":{"ubigeo":"2205","nombre":"Lamas"},"geometry":{"type":"Polygon","coordinates":[[[-76.45632,-6.68001],[-76.47842,-6.69376],[-76.50123,-6.69036],[-76.52421,-6.69287],[-76.54955,-6.68129],[-76.55847,-6.67143],[-76.55549,-6.6537],[-76.53458,-6.62549],[-76.53789,-6.60988],[-76.55255,-6.59574],[-76.57714,-6.59282],[-76.59124,-6.59496],[-76.64072,-6.5469],[-76.64597,-6.5343],[-76.64102,-6.51982],[-76.65345,-6.51783],[-76.65857,-6.48374],[-76.66579,-6.4777],[-76.67893,-6.43474],[-76.68436,-6.42525],[-76.69799,-6.41558],[-76.69944,-6.42555],[-76.7242,-6.42682],[-76.72948,-6.42082],[-76.75055,-6.42222],[-76.76245,-6.4168],[-76.78035,-6.41822],[-76.80353,-6.40076],[-76.82482,-6.38864],[-76.83174,-6.38862],[-76.84321,-6.36917],[-76.84177,-6.33892],[-76.83572,-6.3195],[-76.83514,-6.28515],[-76.82266,-6.26526],[-76.81537,-6.24446],[-76.8172,-6.20271],[-76.82887,-6.20042],[-76.83128,-6.19011],[-76.82786,-6.17465],[-76.8384,-6.13719],[-76.83477,-6.12421],[-76.84035,-6.10499],[-76.85935,-6.09544],[-76.87069,-6.09785],[-76.8801,-6.08292],[-76.86123,-6.05956],[-76.86378,-6.05159],[-76.84708,-6.03072],[-76.81945,-6.03321],[-76.78748,-6.02396],[-76.75923,-6.00847],[-76.75443,-5.99839],[-76.7477,-6.00364],[-76.72956,-6.00535],[-76.71077,-6.01367],[-76.69954,-6.01091],[-76.67373,-6.01246],[-76.66132,-6.0047],[-76.64001,-6.0026],[-76.6231,-6.00832],[-76.61828,-6.0144],[-76.59044,-6.01483],[-76.56296,-6.00157],[-76.54888,-6.01275],[-76.53617,-6.0131],[-76.51799,-6.00341],[-76.48986,-6.01422],[-76.47101,-6.00949],[-76.44115,-6.00702],[-76.42474,-5.99581],[-76.41188,-5.96215],[-76.40001,-5.95366],[-76.37279,-5.97376],[-76.36219,-5.98782],[-76.33401,-6.04211],[-76.31892,-6.05033],[-76.31543,-6.05781],[-76.31971,-6.07357],[-76.3183,-6.08609],[-76.3035,-6.09962],[-76.28508,-6.10383],[-76.26521,-6.11969],[-76.24715,-6.12606],[-76.20198,-6.1325],[-76.14599,-6.14667],[-76.08689,-6.1069],[-76.06472,-6.09965],[-76.04272,-6.101],[-76.01816,-6.0912],[-76.01276,-6.08422],[-76.00575,-6.09522],[-75.96952,-6.09622],[-75.95356,-6.10262],[-75.94818,-6.11461],[-75.93104,-6.13287],[-75.91659,-6.14079],[-75.91621,-6.16099],[-75.93093,-6.18238],[-75.93317,-6.21266],[-75.95216,-6.2425],[-75.97279,-6.26675],[-75.97853,-6.29411],[-75.97199,-6.3066],[-75.94982,-6.32772],[-75.94142,-6.3448],[-75.9292,-6.35684],[-75.92213,-6.37065],[-75.92614,-6.37756],[-75.91903,-6.38625],[-75.92579,-6.40005],[-75.91059,-6.41607],[-75.90187,-6.44101],[-75.902,-6.45917],[-75.94146,-6.4644],[-75.95406,-6.49047],[-75.97404,-6.4906],[-75.97909,-6.49947],[-75.99805,-6.4951],[-76.00728,-6.49863],[-76.02892,-6.48594],[-76.06902,-6.47274],[-76.08443,-6.47842],[-76.10939,-6.47522],[-76.12455,-6.48718],[-76.13258,-6.4995],[-76.15432,-6.49857],[-76.16135,-6.5064],[-76.18055,-6.50083],[-76.18659,-6.48602],[-76.18296,-6.48225],[-76.19765,-6.47434],[-76.18079,-6.45919],[-76.18241,-6.4303],[-76.21486,-6.42722],[-76.22205,-6.42093],[-76.23723,-6.42024],[-76.24689,-6.43171],[-76.2502,-6.4274],[-76.26985,-6.42647],[-76.27376,-6.41758],[-76.29139,-6.40318],[-76.31706,-6.36447],[-76.33767,-6.34694],[-76.35599,-6.33936],[-76.36826,-6.35483],[-76.37959,-6.3913],[-76.38707,-6.39516],[-76.4108,-6.38],[-76.42548,-6.3813],[-76.43332,-6.40029],[-76.44361,-6.40412],[-76.44881,-6.41623],[-76.45227,-6.43884],[-76.45914,-6.46168],[-76.47826,-6.48393],[-76.49156,-6.48716],[-76.47845,-6.49441],[-76.47196,-6.50888],[-76.45625,-6.51613],[-76.46256,-6.52437],[-76.45251,-6.53686],[-76.43969,-6.5412],[-76.41839,-6.56183],[-76.42585,-6.57216],[-76.41163,-6.5822],[-76.40129,-6.59991],[-76.38831,-6.6059],[-76.37397,-6.6187],[-76.387,-6.62836],[-76.40793,-6.63565],[-76.41917,-6.65442],[-76.44286,-6.67425],[-76.45632,-6.68001]]]}},{"type":"Feature","properties":{"ubigeo":"2206","nombre":"Mariscal Cáceres"},"geometry":{"type":"Polygon","coordinates":[[[-76.59772,-7.68929],[-76.61871,-7.69133],[-76.63418,-7.68684],[-76.65779,-7.72642],[-76.68306,-7.73139],[-76.69249,-7.73646],[-76.72132,-7.73402],[-76.74109,-7.73908],[-76.75572,-7.72887],[-76.77018,-7.73377],[-76.77202,-7.74689],[-76.7549,-7.75696],[-76.75523,-7.76505],[-76.77002,-7.76512],[-76.77166,-7.77833],[-76.76151,-7.77397],[-76.76706,-7.78372],[-76.76343,-7.79346],[-76.75292,-7.80039],[-76.74309,-7.79398],[-76.74747,-7.80469],[-76.74271,-7.82264],[-76.73136,-7.82705],[-76.72641,-7.85313],[-76.7193,-7.86453],[-76.73496,-7.87864],[-76.74914,-7.87521],[-76.76462,-7.89264],[-76.76637,-7.90008],[-76.8003,-7.92058],[-76.82184,-7.91882],[-76.83112,-7.90681],[-76.85569,-7.90439],[-76.85509,-7.89916],[-76.86971,-7.90356],[-76.87735,-7.88775],[-76.89567,-7.87686],[-76.90047,-7.86333],[-76.92339,-7.84895],[-76.94087,-7.83171],[-76.95253,-7.82909],[-77.0059,-7.80291],[-77.02084,-7.80587],[-77.02824,-7.8143],[-77.05057,-7.82719],[-77.05293,-7.83656],[-77.07697,-7.84862],[-77.09138,-7.87557],[-77.09384,-7.89515],[-77.08804,-7.91294],[-77.10104,-7.93968],[-77.10252,-7.95267],[-77.08734,-7.96891],[-77.07436,-7.9923],[-77.0687,-8.03951],[-77.10152,-8.02723],[-77.11832,-8.02524],[-77.13199,-8.03197],[-77.15054,-8.03204],[-77.16492,-8.02212],[-77.18214,-8.02249],[-77.20487,-8.01255],[-77.23829,-8.01332],[-77.25472,-8.03375],[-77.2588,-8.04683],[-77.28134,-8.04878],[-77.29226,-8.06009],[-77.30328,-8.06304],[-77.30721,-8.0566],[-77.32449,-8.05804],[-77.3493,-8.05438],[-77.37328,-8.06468],[-77.38547,-8.05539],[-77.3813,-8.03789],[-77.37523,-8.03256],[-77.39961,-8.00806],[-77.40713,-7.99199],[-77.397,-7.96947],[-77.38781,-7.96381],[-77.39052,-7.94731],[-77.38556,-7.94386],[-77.38266,-7.92514],[-77.37537,-7.92006],[-77.37691,-7.90882],[-77.38883,-7.9077],[-77.40165,-7.89845],[-77.40678,-7.90249],[-77.42389,-7.87918],[-77.43746,-7.85172],[-77.43157,-7.84174],[-77.44262,-7.82419],[-77.44286,-7.81364],[-77.47983,-7.80329],[-77.49313,-7.78576],[-77.50532,-7.77863],[-77.50655,-7.77038],[-77.52547,-7.76834],[-77.52778,-7.75758],[-77.49551,-7.73706],[-77.48294,-7.71935],[-77.48453,-7.69971],[-77.47149,-7.69145],[-77.46128,-7.69137],[-77.46653,-7.67488],[-77.49789,-7.68635],[-77.50947,-7.67654],[-77.51126,-7.65773],[-77.53095,-7.65448],[-77.53656,-7.64411],[-77.52271,-7.63182],[-77.52918,-7.62035],[-77.52169,-7.61268],[-77.49419,-7.61361],[-77.48576,-7.60399],[-77.49603,-7.5836],[-77.51545,-7.58378],[-77.52225,-7.57706],[-77.5367,-7.58228],[-77.54019,-7.5629],[-77.5339,-7.55488],[-77.53563,-7.54383],[-77.52986,-7.53635],[-77.52913,-7.51619],[-77.52174,-7.51159],[-77.52692,-7.50484],[-77.53908,-7.50739],[-77.54953,-7.4959],[-77.55954,-7.46482],[-77.59293,-7.44349],[-77.59897,-7.44851],[-77.61027,-7.43486],[-77.61365,-7.41995],[-77.63038,-7.41327],[-77.62168,-7.39736],[-77.62942,-7.3815],[-77.63908,-7.34326],[-77.62865,-7.32002],[-77.63488,-7.29268],[-77.64692,-7.26961],[-77.63734,-7.2545],[-77.64513,-7.25345],[-77.64675,-7.24074],[-77.60553,-7.21916],[-77.60738,-7.20611],[-77.61298,-7.20637],[-77.62105,-7.19163],[-77.61542,-7.17944],[-77.62082,-7.17257],[-77.63363,-7.17003],[-77.64353,-7.149],[-77.68126,-7.13164],[-77.6891,-7.12132],[-77.70072,-7.11787],[-77.71338,-7.10789],[-77.71761,-7.08636],[-77.70674,-7.07247],[-77.73194,-7.04872],[-77.74566,-7.01955],[-77.7471,-6.98672],[-77.75893,-6.96451],[-77.73838,-6.94834],[-77.73985,-6.93549],[-77.73382,-6.92858],[-77.71527,-6.92066],[-77.70731,-6.90885],[-77.72332,-6.89346],[-77.73324,-6.87383],[-77.73163,-6.86638],[-77.74098,-6.85392],[-77.74014,-6.84409],[-77.76472,-6.79844],[-77.75948,-6.79327],[-77.73532,-6.78829],[-77.73717,-6.76033],[-77.74671,-6.75184],[-77.74579,-6.72845],[-77.7395,-6.7111],[-77.74473,-6.69233],[-77.74105,-6.68669],[-77.74561,-6.66516],[-77.7332,-6.64804],[-77.71594,-6.65912],[-77.70966,-6.67202],[-77.6941,-6.6784],[-77.67724,-6.67277],[-77.66266,-6.6599],[-77.65912,-6.64095],[-77.65089,-6.62958],[-77.62666,-6.61274],[-77.61234,-6.61226],[-77.5839,-6.63463],[-77.57578,-6.63453],[-77.5637,-6.64408],[-77.56114,-6.65461],[-77.54407,-6.677],[-77.53497,-6.67404],[-77.52062,-6.67954],[-77.51718,-6.67363],[-77.48942,-6.67562],[-77.47548,-6.68363],[-77.45466,-6.68169],[-77.43736,-6.70099],[-77.41866,-6.70808],[-77.40715,-6.72678],[-77.40014,-6.70845],[-77.38173,-6.69759],[-77.39773,-6.66935],[-77.40499,-6.66305],[-77.40766,-6.64633],[-77.42369,-6.63806],[-77.43565,-6.61807],[-77.43788,-6.60253],[-77.40088,-6.60446],[-77.39387,-6.60269],[-77.38392,-6.57338],[-77.37868,-6.56743],[-77.36096,-6.56507],[-77.34485,-6.54723],[-77.33515,-6.52233],[-77.33048,-6.49749],[-77.33285,-6.49146],[-77.32636,-6.46803],[-77.3046,-6.45132],[-77.29803,-6.42549],[-77.27316,-6.40653],[-77.27551,-6.38473],[-77.26396,-6.38213],[-77.24859,-6.39051],[-77.23622,-6.40936],[-77.22144,-6.4193],[-77.20995,-6.41678],[-77.19787,-6.42099],[-77.19821,-6.43154],[-77.18536,-6.43671],[-77.17419,-6.4564],[-77.17392,-6.47147],[-77.16108,-6.48538],[-77.15822,-6.5012],[-77.13498,-6.50308],[-77.12278,-6.50862],[-77.11364,-6.52347],[-77.09407,-6.54305],[-77.07937,-6.55347],[-77.06584,-6.55761],[-77.05608,-6.56806],[-77.04661,-6.56569],[-77.05121,-6.58556],[-77.04944,-6.5937],[-77.06442,-6.60101],[-77.07404,-6.63971],[-77.06206,-6.64421],[-77.05697,-6.66599],[-77.04464,-6.67225],[-77.03493,-6.69822],[-77.02542,-6.7135],[-77.03591,-6.72102],[-77.0392,-6.7376],[-77.02771,-6.76897],[-77.03123,-6.78272],[-77.01831,-6.79451],[-77.01068,-6.82479],[-77.01534,-6.83568],[-77.0074,-6.84009],[-77.00668,-6.85681],[-76.99421,-6.88095],[-76.98992,-6.90095],[-76.97466,-6.92108],[-76.96546,-6.94319],[-76.9632,-6.97645],[-76.95203,-6.99632],[-76.92937,-7.00223],[-76.9093,-7.00198],[-76.90257,-7.00972],[-76.90628,-7.01761],[-76.89666,-7.03098],[-76.89734,-7.04669],[-76.90576,-7.05422],[-76.90231,-7.06588],[-76.90708,-7.08618],[-76.88361,-7.09401],[-76.87447,-7.07837],[-76.85841,-7.06919],[-76.85087,-7.07291],[-76.84415,-7.1008],[-76.81854,-7.15565],[-76.81213,-7.17298],[-76.79835,-7.17432],[-76.78389,-7.16287],[-76.78517,-7.1384],[-76.77235,-7.12783],[-76.75903,-7.13094],[-76.74448,-7.12204],[-76.73451,-7.10799],[-76.7153,-7.09769],[-76.70378,-7.10219],[-76.68523,-7.095],[-76.68153,-7.08931],[-76.6692,-7.11395],[-76.66899,-7.12812],[-76.65811,-7.13587],[-76.63803,-7.14311],[-76.63488,-7.15972],[-76.61845,-7.19456],[-76.61416,-7.21371],[-76.62464,-7.22878],[-76.61173,-7.24568],[-76.60055,-7.24334],[-76.59427,-7.25613],[-76.58355,-7.25825],[-76.5768,-7.27517],[-76.5708,-7.27727],[-76.55741,-7.30674],[-76.57104,-7.33036],[-76.56459,-7.36407],[-76.57381,-7.38591],[-76.56476,-7.39575],[-76.56849,-7.40869],[-76.55779,-7.45388],[-76.56439,-7.46237],[-76.55695,-7.47665],[-76.5513,-7.50434],[-76.55618,-7.50696],[-76.5593,-7.53154],[-76.55711,-7.54856],[-76.57424,-7.55771],[-76.5715,-7.58002],[-76.57968,-7.60762],[-76.57081,-7.617],[-76.56596,-7.63557],[-76.56561,-7.65719],[-76.57731,-7.67885],[-76.59167,-7.68096],[-76.59772,-7.68929]]]}},{"type":"Feature","properties":{"ubigeo":"2207","nombre":"Picota"},"geometry":{"type":"Polygon","coordinates":[[[-76.14353,-7.20396],[-76.15794,-7.19829],[-76.16116,-7.15488],[-76.15727,-7.14523],[-76.16367,-7.12694],[-76.15776,-7.10275],[-76.16708,-7.09419],[-76.16903,-7.08231],[-76.18599,-7.07591],[-76.2101,-7.07806],[-76.2253,-7.07056],[-76.23716,-7.07451],[-76.25727,-7.06134],[-76.27413,-7.0662],[-76.29407,-7.05769],[-76.30518,-7.06171],[-76.319,-7.05845],[-76.32897,-7.04347],[-76.34404,-7.03332],[-76.35219,-7.03371],[-76.36931,-7.01701],[-76.40148,-7.01503],[-76.41768,-7.01832],[-76.41907,-7.00142],[-76.42434,-7.01345],[-76.45119,-7.00611],[-76.45552,-7.0134],[-76.46545,-7.00907],[-76.46496,-6.99218],[-76.47131,-6.99871],[-76.4779,-6.98675],[-76.48425,-6.99565],[-76.48872,-6.98887],[-76.49901,-6.9922],[-76.50285,-6.96999],[-76.52033,-6.97684],[-76.52015,-6.96549],[-76.52832,-6.96165],[-76.52976,-6.94983],[-76.54443,-6.94779],[-76.54145,-6.93993],[-76.54864,-6.92833],[-76.53704,-6.91276],[-76.52341,-6.91119],[-76.51161,-6.90204],[-76.50954,-6.89049],[-76.47135,-6.85598],[-76.47419,-6.82663],[-76.46374,-6.82229],[-76.46734,-6.81526],[-76.50008,-6.79246],[-76.50434,-6.75362],[-76.51673,-6.7403],[-76.52387,-6.72538],[-76.52421,-6.69287],[-76.50123,-6.69036],[-76.47842,-6.69376],[-76.45632,-6.68001],[-76.43037,-6.67898],[-76.41583,-6.68174],[-76.40882,-6.68992],[-76.38328,-6.6782],[-76.36508,-6.6821],[-76.35105,-6.68922],[-76.33574,-6.68236],[-76.32175,-6.68084],[-76.27505,-6.69207],[-76.26781,-6.74201],[-76.2619,-6.7691],[-76.25682,-6.77261],[-76.23911,-6.76645],[-76.22515,-6.76856],[-76.20799,-6.76099],[-76.19737,-6.74916],[-76.19849,-6.7342],[-76.18819,-6.71231],[-76.17131,-6.70376],[-76.15615,-6.70697],[-76.14577,-6.69627],[-76.12677,-6.68799],[-76.12121,-6.69944],[-76.09541,-6.71486],[-76.10339,-6.72881],[-76.09019,-6.74838],[-76.08535,-6.76479],[-76.06852,-6.80149],[-76.0509,-6.81086],[-76.04886,-6.83033],[-76.03612,-6.84718],[-76.03569,-6.86269],[-76.01053,-6.89361],[-76.01805,-6.91584],[-76.0464,-6.92493],[-76.05146,-6.9443],[-76.04009,-6.97342],[-76.03564,-6.99315],[-76.02254,-6.98978],[-76.01079,-6.99654],[-76.00578,-7.03023],[-76.01226,-7.03805],[-76.01399,-7.07226],[-76.01072,-7.07838],[-76.02187,-7.10089],[-76.0233,-7.11431],[-76.04659,-7.12143],[-76.05994,-7.1613],[-76.07677,-7.17441],[-76.09838,-7.18403],[-76.1118,-7.18305],[-76.14353,-7.20396]]]}},{"type":"Feature","properties":{"ubigeo":"2208","nombre":"Rioja"},"geometry":{"type":"Polygon","coordinates":[[[-77.53381,-6.06337],[-77.54223,-6.05279],[-77.55474,-6.05073],[-77.56513,-6.02918],[-77.5862,-6.03692],[-77.59825,-6.03128],[-77.59346,-6.00935],[-77.59771,-6.00442],[-77.61624,-6.00092],[-77.62208,-6.00483],[-77.63914,-6.00108],[-77.66063,-5.98845],[-77.67167,-5.9741],[-77.67125,-5.96326],[-77.65991,-5.95513],[-77.65189,-5.93533],[-77.66329,-5.91767],[-77.66889,-5.89681],[-77.66611,-5.89385],[-77.68343,-5.87606],[-77.67788,-5.85965],[-77.68153,-5.84949],[-77.69481,-5.84023],[-77.72642,-5.84398],[-77.74614,-5.83511],[-77.76393,-5.81971],[-77.77036,-5.78814],[-77.76074,-5.76923],[-77.77224,-5.75287],[-77.76171,-5.74237],[-77.75936,-5.72985],[-77.76591,-5.71603],[-77.77515,-5.71075],[-77.77371,-5.68521],[-77.76917,-5.6745],[-77.75437,-5.659],[-77.75261,-5.63758],[-77.73892,-5.62217],[-77.73689,-5.60514],[-77.74446,-5.58733],[-77.75168,-5.58226],[-77.74986,-5.57344],[-77.76576,-5.53898],[-77.75704,-5.51394],[-77.77157,-5.49392],[-77.77064,-5.47815],[-77.75083,-5.46419],[-77.74901,-5.45809],[-77.76845,-5.43805],[-77.74672,-5.41379],[-77.74483,-5.4069],[-77.74219,-5.42338],[-77.72304,-5.44],[-77.68161,-5.48756],[-77.64905,-5.51264],[-77.641,-5.5263],[-77.65338,-5.55042],[-77.65099,-5.55787],[-77.65901,-5.57198],[-77.65129,-5.59262],[-77.63272,-5.61353],[-77.62422,-5.6299],[-77.62719,-5.64363],[-77.62105,-5.65463],[-77.60091,-5.6693],[-77.59466,-5.68215],[-77.58247,-5.69088],[-77.5872,-5.69825],[-77.57718,-5.70211],[-77.56836,-5.7147],[-77.56539,-5.70714],[-77.55496,-5.70927],[-77.54342,-5.70211],[-77.53204,-5.70309],[-77.53263,-5.69227],[-77.52518,-5.69809],[-77.50792,-5.68595],[-77.51602,-5.67664],[-77.50083,-5.67192],[-77.48314,-5.68158],[-77.47862,-5.67644],[-77.46591,-5.68391],[-77.46172,-5.67919],[-77.44686,-5.68954],[-77.439,-5.67995],[-77.42263,-5.67763],[-77.40346,-5.69967],[-77.40165,-5.71021],[-77.39081,-5.71298],[-77.38139,-5.7071],[-77.37121,-5.72008],[-77.37788,-5.72323],[-77.35078,-5.73119],[-77.3406,-5.75734],[-77.33079,-5.75445],[-77.31601,-5.76649],[-77.31436,-5.7543],[-77.30751,-5.76389],[-77.29198,-5.77227],[-77.27766,-5.77078],[-77.28228,-5.78006],[-77.27139,-5.77931],[-77.26336,-5.78943],[-77.26711,-5.79858],[-77.25307,-5.80348],[-77.25203,-5.82622],[-77.25649,-5.83035],[-77.24553,-5.85654],[-77.23772,-5.86208],[-77.2476,-5.87332],[-77.24619,-5.88129],[-77.23573,-5.88328],[-77.22984,-5.89878],[-77.22451,-5.89558],[-77.2132,-5.92442],[-77.20603,-5.9235],[-77.20305,-5.93873],[-77.1656,-5.94347],[-77.15323,-5.93296],[-77.1432,-5.93682],[-77.14002,-5.95115],[-77.1483,-5.95889],[-77.14058,-5.9727],[-77.14225,-5.99713],[-77.14846,-5.99425],[-77.15384,-6.01696],[-77.14801,-6.02771],[-77.15247,-6.04677],[-77.14727,-6.0504],[-77.1511,-6.07109],[-77.1442,-6.08014],[-77.13943,-6.07332],[-77.1388,-6.08821],[-77.14546,-6.08604],[-77.14653,-6.10701],[-77.13986,-6.1142],[-77.13392,-6.10966],[-77.13285,-6.12655],[-77.12386,-6.1323],[-77.13069,-6.1478],[-77.12046,-6.15926],[-77.12512,-6.18831],[-77.12454,-6.20336],[-77.13629,-6.20938],[-77.15366,-6.21019],[-77.16214,-6.22533],[-77.17823,-6.23361],[-77.19728,-6.23342],[-77.21242,-6.21419],[-77.21909,-6.19573],[-77.20257,-6.18203],[-77.21212,-6.16083],[-77.22299,-6.1469],[-77.2452,-6.14747],[-77.25383,-6.13851],[-77.28153,-6.14172],[-77.29,-6.13313],[-77.30121,-6.13313],[-77.31687,-6.12555],[-77.33241,-6.11218],[-77.34643,-6.11434],[-77.35122,-6.09019],[-77.36045,-6.07219],[-77.3805,-6.07999],[-77.3955,-6.03938],[-77.4193,-6.03238],[-77.42226,-6.05007],[-77.43446,-6.06041],[-77.46751,-6.01961],[-77.47358,-6.00005],[-77.48731,-6.01117],[-77.48976,-6.02886],[-77.50975,-6.0325],[-77.51884,-6.05594],[-77.53381,-6.06337]]]}},{"type":"Feature","properties":{"ubigeo":"2209","nombre":"San Martín"},"geometry":{"type":"Polygon","coordinates":[[[-76.0509,-6.81086],[-76.06852,-6.80149],[-76.08535,-6.76479],[-76.09019,-6.74838],[-76.10339,-6.72881],[-76.09541,-6.71486],[-76.12121,-6.69944],[-76.12677,-6.68799],[-76.14577,-6.69627],[-76.15615,-6.70697],[-76.17131,-6.70376],[-76.18819,-6.71231],[-76.19849,-6.7342],[-76.19737,-6.74916],[-76.20799,-6.76099],[-76.22515,-6.76856],[-76.23911,-6.76645],[-76.25682,-6.77261],[-76.2619,-6.7691],[-76.26781,-6.74201],[-76.27505,-6.69207],[-76.32175,-6.68084],[-76.33574,-6.68236],[-76.35105,-6.68922],[-76.36508,-6.6821],[-76.38328,-6.6782],[-76.40882,-6.68992],[-76.41583,-6.68174],[-76.43037,-6.67898],[-76.45632,-6.68001],[-76.44286,-6.67425],[-76.41917,-6.65442],[-76.40793,-6.63565],[-76.387,-6.62836],[-76.37397,-6.6187],[-76.38831,-6.6059],[-76.40129,-6.59991],[-76.41163,-6.5822],[-76.42585,-6.57216],[-76.41839,-6.56183],[-76.43969,-6.5412],[-76.45251,-6.53686],[-76.46256,-6.52437],[-76.45625,-6.51613],[-76.47196,-6.50888],[-76.47845,-6.49441],[-76.49156,-6.48716],[-76.47826,-6.48393],[-76.45914,-6.46168],[-76.45227,-6.43884],[-76.44881,-6.41623],[-76.44361,-6.40412],[-76.43332,-6.40029],[-76.42548,-6.3813],[-76.4108,-6.38],[-76.38707,-6.39516],[-76.37959,-6.3913],[-76.36826,-6.35483],[-76.35599,-6.33936],[-76.33767,-6.34694],[-76.31706,-6.36447],[-76.29139,-6.40318],[-76.27376,-6.41758],[-76.26985,-6.42647],[-76.2502,-6.4274],[-76.24689,-6.43171],[-76.23723,-6.42024],[-76.22205,-6.42093],[-76.21486,-6.42722],[-76.18241,-6.4303],[-76.18079,-6.45919],[-76.19765,-6.47434],[-76.18296,-6.48225],[-76.18659,-6.48602],[-76.18055,-6.50083],[-76.16135,-6.5064],[-76.15432,-6.49857],[-76.13258,-6.4995],[-76.12455,-6.48718],[-76.10939,-6.47522],[-76.08443,-6.47842],[-76.06902,-6.47274],[-76.02892,-6.48594],[-76.00728,-6.49863],[-75.99805,-6.4951],[-75.97909,-6.49947],[-75.97404,-6.4906],[-75.95406,-6.49047],[-75.94146,-6.4644],[-75.902,-6.45917],[-75.90187,-6.44101],[-75.91059,-6.41607],[-75.92579,-6.40005],[-75.91903,-6.38625],[-75.92614,-6.37756],[-75.92213,-6.37065],[-75.9292,-6.35684],[-75.94142,-6.3448],[-75.94982,-6.32772],[-75.97199,-6.3066],[-75.97853,-6.29411],[-75.97279,-6.26675],[-75.95216,-6.2425],[-75.93317,-6.21266],[-75.93093,-6.18238],[-75.91621,-6.16099],[-75.91659,-6.14079],[-75.90315,-6.13305],[-75.88563,-6.13311],[-75.85861,-6.1422],[-75.83798,-6.14051],[-75.8462,-6.12955],[-75.84377,-6.12267],[-75.85155,-6.10903],[-75.82769,-6.09875],[-75.79386,-6.10895],[-75.79433,-6.11487],[-75.77901,-6.11812],[-75.768,-6.12722],[-75.77336,-6.14496],[-75.76665,-6.14739],[-75.7378,-6.14177],[-75.72664,-6.14402],[-75.71502,-6.13827],[-75.69856,-6.11249],[-75.6916,-6.11229],[-75.68037,-6.09563],[-75.65477,-6.09831],[-75.62896,-6.08212],[-75.62482,-6.03937],[-75.61389,-6.02324],[-75.58412,-6.01166],[-75.56893,-6.00039],[-75.56503,-6.02554],[-75.54863,-6.05565],[-75.53279,-6.0956],[-75.52937,-6.12216],[-75.52796,-6.15804],[-75.52555,-6.16513],[-75.49825,-6.18584],[-75.48719,-6.20342],[-75.48676,-6.24473],[-75.49031,-6.26704],[-75.50936,-6.30029],[-75.53466,-6.32226],[-75.55009,-6.34771],[-75.54333,-6.36241],[-75.54349,-6.37768],[-75.53645,-6.39154],[-75.54342,-6.40687],[-75.53399,-6.41545],[-75.53764,-6.43714],[-75.53056,-6.43888],[-75.52014,-6.46482],[-75.5233,-6.47708],[-75.5096,-6.49214],[-75.5083,-6.53347],[-75.50298,-6.55223],[-75.5093,-6.58298],[-75.50756,-6.60278],[-75.50023,-6.64032],[-75.50213,-6.67411],[-75.50621,-6.69705],[-75.505,-6.72533],[-75.50038,-6.75729],[-75.50123,-6.76705],[-75.5118,-6.78557],[-75.54404,-6.79964],[-75.56184,-6.80161],[-75.57417,-6.80883],[-75.57434,-6.81868],[-75.58436,-6.82047],[-75.59257,-6.83032],[-75.61689,-6.84119],[-75.63344,-6.84306],[-75.64068,-6.83484],[-75.64217,-6.81596],[-75.65967,-6.81933],[-75.6681,-6.82642],[-75.67292,-6.8444],[-75.68706,-6.84669],[-75.68999,-6.86127],[-75.6977,-6.8686],[-75.7221,-6.85161],[-75.73973,-6.85078],[-75.74606,-6.85655],[-75.76268,-6.85104],[-75.76843,-6.85382],[-75.79148,-6.83405],[-75.79418,-6.8214],[-75.81397,-6.82548],[-75.81375,-6.81747],[-75.84388,-6.79726],[-75.85975,-6.80156],[-75.87889,-6.80191],[-75.89065,-6.79503],[-75.93761,-6.79138],[-75.94369,-6.79486],[-75.96365,-6.78842],[-75.981,-6.79971],[-75.98207,-6.79473],[-75.99969,-6.79498],[-76.01158,-6.80602],[-76.0509,-6.81086]]]}},{"type":"Feature","properties":{"ubigeo":"2210","nombre":"Tocache"},"geometry":{"type":"Polygon","coordinates":[[[-76.12823,-8.36053],[-76.10917,-8.37961],[-76.11323,-8.38424],[-76.1079,-8.39774],[-76.10941,-8.41779],[-76.11882,-8.43041],[-76.11693,-8.44218],[-76.12865,-8.4571],[-76.13021,-8.48037],[-76.12609,-8.51694],[-76.13115,-8.52771],[-76.1264,-8.54542],[-76.13468,-8.57256],[-76.12287,-8.59397],[-76.12451,-8.6045],[-76.11988,-8.63537],[-76.107,-8.64245],[-76.10974,-8.65406],[-76.12385,-8.65292],[-76.13971,-8.66715],[-76.13653,-8.67405],[-76.14542,-8.68787],[-76.14527,-8.71144],[-76.15702,-8.73373],[-76.1618,-8.72948],[-76.16685,-8.75632],[-76.18611,-8.75554],[-76.2038,-8.77395],[-76.22626,-8.78586],[-76.23253,-8.78076],[-76.24014,-8.77068],[-76.23027,-8.75961],[-76.2421,-8.75533],[-76.24393,-8.74772],[-76.22868,-8.74503],[-76.24259,-8.72721],[-76.24687,-8.71539],[-76.2574,-8.70664],[-76.25563,-8.68303],[-76.24834,-8.68303],[-76.25274,-8.66543],[-76.26823,-8.65462],[-76.26344,-8.63605],[-76.27078,-8.62846],[-76.26406,-8.6103],[-76.27524,-8.60471],[-76.27303,-8.5949],[-76.28616,-8.5873],[-76.28036,-8.57356],[-76.2861,-8.56912],[-76.30383,-8.57432],[-76.30078,-8.55497],[-76.31519,-8.54044],[-76.31591,-8.5313],[-76.3249,-8.52312],[-76.31318,-8.50356],[-76.32217,-8.49373],[-76.32743,-8.47991],[-76.3222,-8.46756],[-76.32812,-8.4619],[-76.33347,-8.42947],[-76.34126,-8.42448],[-76.35704,-8.42441],[-76.37127,-8.41092],[-76.37579,-8.42258],[-76.38962,-8.42633],[-76.40043,-8.43747],[-76.4168,-8.44344],[-76.43617,-8.47011],[-76.44959,-8.51753],[-76.45733,-8.52802],[-76.45547,-8.53544],[-76.46786,-8.55843],[-76.46617,-8.56974],[-76.49531,-8.57576],[-76.49909,-8.56394],[-76.49351,-8.55184],[-76.50513,-8.53555],[-76.51542,-8.53351],[-76.5395,-8.5135],[-76.54781,-8.49764],[-76.56629,-8.50815],[-76.60131,-8.51216],[-76.61399,-8.5106],[-76.63706,-8.51515],[-76.64147,-8.52289],[-76.66632,-8.52601],[-76.67835,-8.52127],[-76.67976,-8.5275],[-76.69353,-8.53205],[-76.70729,-8.53018],[-76.7299,-8.51482],[-76.74099,-8.52465],[-76.75459,-8.51964],[-76.76842,-8.52681],[-76.77859,-8.52164],[-76.79137,-8.52236],[-76.79675,-8.51085],[-76.81872,-8.51766],[-76.83158,-8.51666],[-76.84349,-8.52673],[-76.84727,-8.54648],[-76.86171,-8.55201],[-76.8647,-8.56635],[-76.87489,-8.5582],[-76.89056,-8.55612],[-76.89708,-8.56875],[-76.9163,-8.57016],[-76.93597,-8.56697],[-76.94003,-8.55258],[-76.95537,-8.54559],[-76.96702,-8.55959],[-76.9773,-8.5606],[-76.99578,-8.55495],[-77.0116,-8.53769],[-77.03071,-8.54082],[-77.03737,-8.55334],[-77.0498,-8.55372],[-77.06065,-8.53855],[-77.07566,-8.5342],[-77.09165,-8.51698],[-77.08055,-8.49833],[-77.08083,-8.48818],[-77.08888,-8.48282],[-77.1009,-8.48823],[-77.10873,-8.47983],[-77.12516,-8.48379],[-77.14257,-8.47583],[-77.1335,-8.46239],[-77.13384,-8.44002],[-77.12078,-8.44741],[-77.10392,-8.44404],[-77.0932,-8.43447],[-77.09399,-8.42775],[-77.08548,-8.40622],[-77.07536,-8.40587],[-77.06525,-8.3966],[-77.04372,-8.40454],[-77.0325,-8.40397],[-77.00247,-8.38305],[-76.99268,-8.39538],[-76.97648,-8.39594],[-76.97455,-8.37893],[-76.96555,-8.36967],[-76.95006,-8.37502],[-76.9442,-8.36177],[-76.927,-8.35926],[-76.93185,-8.34348],[-76.91375,-8.32609],[-76.907,-8.30443],[-76.91112,-8.29749],[-76.90124,-8.28347],[-76.91503,-8.2324],[-76.9256,-8.2185],[-76.92363,-8.20645],[-76.91227,-8.18978],[-76.907,-8.17074],[-76.91177,-8.1589],[-76.93021,-8.13846],[-76.94703,-8.13992],[-76.96921,-8.12068],[-76.98672,-8.11123],[-76.98625,-8.10388],[-76.99732,-8.0823],[-77.00359,-8.08135],[-77.01956,-8.05269],[-77.03137,-8.04612],[-77.0687,-8.03951],[-77.07436,-7.9923],[-77.08734,-7.96891],[-77.10252,-7.95267],[-77.10104,-7.93968],[-77.08804,-7.91294],[-77.09384,-7.89515],[-77.09138,-7.87557],[-77.07697,-7.84862],[-77.05293,-7.83656],[-77.05057,-7.82719],[-77.02824,-7.8143],[-77.02084,-7.80587],[-77.0059,-7.80291],[-76.95253,-7.82909],[-76.94087,-7.83171],[-76.92339,-7.84895],[-76.90047,-7.86333],[-76.89567,-7.87686],[-76.87735,-7.88775],[-76.86971,-7.90356],[-76.85509,-7.89916],[-76.85569,-7.90439],[-76.83112,-7.90681],[-76.82184,-7.91882],[-76.8003,-7.92058],[-76.76637,-7.90008],[-76.76462,-7.89264],[-76.74914,-7.87521],[-76.73496,-7.87864],[-76.7193,-7.86453],[-76.72641,-7.85313],[-76.73136,-7.82705],[-76.74271,-7.82264],[-76.74747,-7.80469],[-76.74309,-7.79398],[-76.75292,-7.80039],[-76.76343,-7.79346],[-76.76706,-7.78372],[-76.76151,-7.77397],[-76.77166,-7.77833],[-76.77002,-7.76512],[-76.75523,-7.76505],[-76.7549,-7.75696],[-76.77202,-7.74689],[-76.77018,-7.73377],[-76.75572,-7.72887],[-76.74109,-7.73908],[-76.72132,-7.73402],[-76.69249,-7.73646],[-76.68306,-7.73139],[-76.65779,-7.72642],[-76.63418,-7.68684],[-76.61871,-7.69133],[-76.59772,-7.68929],[-76.60999,-7.7029],[-76.61908,-7.73226],[-76.63024,-7.75348],[-76.61608,-7.77671],[-76.62415,-7.7898],[-76.62779,-7.81783],[-76.63641,-7.83059],[-76.63166,-7.84261],[-76.63666,-7.85244],[-76.63141,-7.85658],[-76.61497,-7.8519],[-76.61468,-7.86067],[-76.60594,-7.87083],[-76.60573,-7.88143],[-76.61291,-7.89517],[-76.62452,-7.9068],[-76.62276,-7.91644],[-76.62807,-7.92941],[-76.62715,-7.94525],[-76.61575,-7.95389],[-76.61433,-7.98571],[-76.60717,-7.98453],[-76.59307,-8.0024],[-76.57744,-8.00216],[-76.56328,-7.99212],[-76.53667,-8.00816],[-76.53464,-8.01634],[-76.52005,-8.03136],[-76.49867,-8.03529],[-76.49019,-8.04269],[-76.45692,-8.05482],[-76.44881,-8.07353],[-76.43254,-8.07676],[-76.41607,-8.09482],[-76.40665,-8.09973],[-76.39274,-8.12022],[-76.37639,-8.12972],[-76.37906,-8.13705],[-76.37103,-8.14745],[-76.35344,-8.137],[-76.33081,-8.153],[-76.32903,-8.16186],[-76.33622,-8.17549],[-76.33341,-8.20388],[-76.30374,-8.20684],[-76.29965,-8.21746],[-76.28358,-8.21155],[-76.25995,-8.20827],[-76.25384,-8.21485],[-76.23673,-8.21131],[-76.22566,-8.2255],[-76.22695,-8.23938],[-76.21506,-8.24497],[-76.20263,-8.26462],[-76.1971,-8.29444],[-76.16583,-8.31123],[-76.16384,-8.32609],[-76.14578,-8.36755],[-76.13276,-8.37727],[-76.12823,-8.36053]]]}}]}