{"type":"FeatureCollection","features":[{"type":"Feature","properties":{"ubigeo":"2301","nombre":"Tacna"},"geometry":{"type":"Polygon","coordinates":[[[-70.88947,-17.97652],[-70.86334,-17.9668],[-70.84921,-17.94303],[-70.8487,-17.93144],[-70.84149,-17.92594],[-70.8393,-17.91152],[-70.82874,-17.90593],[-70.82286,-17.89394],[-70.81001,-17.89166],[-70.7905,-17.85777],[-70.76424,-17.829],[-70.76006,-17.81823],[-70.73209,-17.79226],[-70.72932,-17.78509],[-70.69787,-17.76803],[-70.6974,-17.75685],[-70.68306,-17.71962],[-70.67608,-17.71152],[-70.65547,-17.70017],[-70.64984,-17.69103],[-70.60842,-17.65628],[-70.57259,-17.61992],[-70.51462,-17.55642],[-70.5089,-17.54534],[-70.44683,-17.51591],[-70.43414,-17.50003],[-70.42828,-17.48334],[-70.40533,-17.47838],[-70.39225,-17.46431],[-70.37346,-17.45956],[-70.34579,-17.46074],[-70.34164,-17.48279],[-70.3318,-17.50932],[-70.31287,-17.51956],[-70.3047,-17.53781],[-70.28584,-17.54061],[-70.28125,-17.56073],[-70.26094,-17.57725],[-70.23745,-17.58967],[-70.18073,-17.58928],[-70.17143,-17.58745],[-70.1608,-17.59947],[-70.15003,-17.59927],[-70.15183,-17.62414],[-70.14339,-17.63171],[-70.14557,-17.64848],[-70.15161,-17.65932],[-70.15372,-17.6934],[-70.18958,-17.73727],[-70.20138,-17.76294],[-70.19528,-17.77394],[-70.18075,-17.77821],[-70.16208,-17.77317],[-70.13761,-17.77267],[-70.109,-17.7593],[-70.09977,-17.74403],[-70.09691,-17.72865],[-70.0822,-17.71863],[-70.0652,-17.70066],[-70.05466,-17.69398],[-70.04106,-17.66554],[-70.02031,-17.66158],[-70.0073,-17.64206],[-70.01466,-17.62641],[-69.99852,-17.61739],[-69.98322,-17.59714],[-69.97248,-17.59565],[-69.96714,-17.58622],[-69.95765,-17.59075],[-69.94552,-17.57883],[-69.93171,-17.58907],[-69.91981,-17.58925],[-69.89407,-17.58277],[-69.87575,-17.58484],[-69.87205,-17.57812],[-69.87533,-17.56257],[-69.87211,-17.54637],[-69.85983,-17.53288],[-69.85624,-17.51793],[-69.84662,-17.50646],[-69.8498,-17.48942],[-69.83669,-17.47138],[-69.83826,-17.46008],[-69.81955,-17.45465],[-69.80298,-17.46127],[-69.77286,-17.45604],[-69.72316,-17.46105],[-69.7075,-17.47422],[-69.67988,-17.45757],[-69.69047,-17.44363],[-69.66412,-17.42769],[-69.65419,-17.4123],[-69.64634,-17.4103],[-69.62145,-17.41885],[-69.61015,-17.41412],[-69.59849,-17.39304],[-69.58936,-17.40094],[-69.57678,-17.40019],[-69.5388,-17.40597],[-69.52379,-17.41299],[-69.51915,-17.42388],[-69.4944,-17.43245],[-69.46838,-17.46479],[-69.46829,-17.50417],[-69.55136,-17.57509],[-69.61801,-17.62291],[-69.66541,-17.6599],[-69.75233,-17.64969],[-69.79599,-17.64624],[-69.8212,-17.68636],[-69.82504,-17.70441],[-69.82168,-17.74381],[-69.80005,-17.76233],[-69.79991,-17.7844],[-69.79571,-17.86226],[-69.77672,-17.90816],[-69.74718,-17.94394],[-69.7515,-17.98559],[-69.81308,-18.11448],[-69.85431,-18.16535],[-69.90075,-18.20191],[-69.96055,-18.26288],[-69.98023,-18.27026],[-70.05071,-18.2688],[-70.07475,-18.2825],[-70.14965,-18.31837],[-70.19717,-18.32219],[-70.24895,-18.31314],[-70.2868,-18.30811],[-70.31745,-18.3097],[-70.33515,-18.31557],[-70.35388,-18.32619],[-70.37083,-18.3411],[-70.37671,-18.35093],[-70.39596,-18.33362],[-70.43902,-18.30237],[-70.48129,-18.27341],[-70.52473,-18.24666],[-70.59789,-18.20391],[-70.67925,-18.1617],[-70.70701,-18.13824],[-70.71189,-18.12887],[-70.72906,-18.11682],[-70.7316,-18.10633],[-70.77943,-18.06574],[-70.79992,-18.05214],[-70.81024,-18.05084],[-70.81316,-18.04049],[-70.85526,-18.02708],[-70.86445,-18.01883],[-70.87919,-18.01475],[-70.88921,-18.00398],[-70.88256,-17.99397],[-70.88947,-17.97652]]]}},{"type":"Feature","properties":{"ubigeo":"2302","nombre":"Candarave"},"geometry":{"type":"Polygon","coordinates":[[[-70.07315,-17.03491],[-70.07715,-17.04797],[-70.07,-17.08118],[-70.0809,-17.0895],[-70.08676,-17.10982],[-70.09531,-17.12289],[-70.09935,-17.16476],[-70.09622,-17.18671],[-70.08637,-17.19614],[-70.1019,-17.20126],[-70.09906,-17.21733],[-70.11442,-17.2356],[-70.10903,-17.24135],[-70.10136,-17.27276],[-70.09332,-17.29005],[-70.1004,-17.30487],[-70.12447,-17.31991],[-70.1424,-17.31453],[-70.15625,-17.32166],[-70.16813,-17.3162],[-70.19438,-17.3243],[-70.21765,-17.34189],[-70.22558,-17.35778],[-70.2438,-17.35871],[-70.26338,-17.37824],[-70.26457,-17.38814],[-70.28347,-17.39781],[-70.27583,-17.40534],[-70.29063,-17.40928],[-70.29423,-17.41591],[-70.32415,-17.4394],[-70.32579,-17.44677],[-70.34579,-17.46074],[-70.3504,-17.44993],[-70.40051,-17.42123],[-70.40545,-17.39919],[-70.39008,-17.38584],[-70.37961,-17.38459],[-70.36391,-17.37391],[-70.43529,-17.33468],[-70.43902,-17.33558],[-70.45296,-17.31949],[-70.45427,-17.30064],[-70.57251,-17.19411],[-70.55505,-17.19766],[-70.55002,-17.18576],[-70.5278,-17.16831],[-70.51687,-17.14286],[-70.49513,-17.11034],[-70.49186,-17.09137],[-70.47999,-17.08441],[-70.44833,-17.07983],[-70.44408,-17.04563],[-70.45375,-17.01731],[-70.46324,-17.00861],[-70.46082,-16.99712],[-70.45203,-16.9864],[-70.44347,-16.96205],[-70.46472,-16.94568],[-70.45342,-16.92857],[-70.45919,-16.92274],[-70.45169,-16.91312],[-70.45175,-16.90001],[-70.44202,-16.89313],[-70.45012,-16.8801],[-70.45037,-16.86032],[-70.44327,-16.8531],[-70.44069,-16.84005],[-70.40939,-16.83019],[-70.39969,-16.8188],[-70.38523,-16.81587],[-70.37279,-16.79818],[-70.34493,-16.79146],[-70.32368,-16.78299],[-70.30761,-16.77305],[-70.29186,-16.78135],[-70.2698,-16.77057],[-70.25388,-16.78885],[-70.25284,-16.79888],[-70.2255,-16.80953],[-70.20335,-16.8086],[-70.19426,-16.81811],[-70.18155,-16.81716],[-70.18407,-16.83469],[-70.19737,-16.84184],[-70.21687,-16.84331],[-70.22308,-16.85609],[-70.23766,-16.85485],[-70.24377,-16.86024],[-70.25228,-16.88942],[-70.25907,-16.90203],[-70.25931,-16.92052],[-70.25433,-16.94003],[-70.24718,-16.95244],[-70.22511,-16.95855],[-70.21134,-16.9436],[-70.20097,-16.94401],[-70.18129,-16.93212],[-70.17731,-16.91619],[-70.14837,-16.92187],[-70.152,-16.93317],[-70.14662,-16.93873],[-70.13342,-16.94527],[-70.11878,-16.96011],[-70.11709,-16.97261],[-70.09577,-16.98523],[-70.09964,-17.00601],[-70.08195,-17.02226],[-70.07315,-17.03491]]]}},{"type":"Feature","properties":{"ubigeo":"2303","nombre":"Jorge Basadre"},"geometry":{"type":"Polygon","coordinates":[[[-70.88947,-17.97652],[-70.89077,-17.96873],[-70.90994,-17.95219],[-70.90931,-17.94159],[-70.92333,-17.93779],[-70.92378,-17.92858],[-70.93543,-17.92931],[-70.94351,-17.9136],[-70.95968,-17.91067],[-70.97518,-17.89679],[-71.01101,-17.87675],[-71.02985,-17.88483],[-71.04121,-17.87899],[-71.09684,-17.86772],[-71.10579,-17.84314],[-71.13944,-17.82148],[-71.12628,-17.81283],[-71.12107,-17.80146],[-71.12158,-17.786],[-71.10314,-17.75528],[-71.10113,-17.7395],[-71.09424,-17.73324],[-71.08199,-17.73399],[-71.08334,-17.71753],[-71.07348,-17.71375],[-71.06054,-17.71864],[-71.04938,-17.70883],[-71.03694,-17.70965],[-71.02692,-17.70387],[-71.01663,-17.70877],[-71.00514,-17.6926],[-71.00335,-17.6837],[-70.98969,-17.67926],[-70.98316,-17.68463],[-70.95628,-17.67596],[-70.93089,-17.68768],[-70.9125,-17.68737],[-70.90746,-17.66177],[-70.90781,-17.64722],[-70.9026,-17.6195],[-70.89708,-17.61232],[-70.89316,-17.59285],[-70.88408,-17.58164],[-70.87965,-17.55524],[-70.86676,-17.54738],[-70.85603,-17.5316],[-70.84376,-17.52466],[-70.82036,-17.49315],[-70.77998,-17.4506],[-70.75463,-17.43758],[-70.75115,-17.42238],[-70.73931,-17.41196],[-70.7356,-17.40123],[-70.7524,-17.38057],[-70.74614,-17.34953],[-70.73001,-17.31823],[-70.7208,-17.31103],[-70.70592,-17.28961],[-70.71227,-17.28748],[-70.71592,-17.27365],[-70.70428,-17.26721],[-70.7012,-17.2546],[-70.68832,-17.23964],[-70.68422,-17.22498],[-70.65241,-17.2095],[-70.61887,-17.20917],[-70.60998,-17.2145],[-70.57658,-17.19838],[-70.57251,-17.19411],[-70.45427,-17.30064],[-70.45296,-17.31949],[-70.43902,-17.33558],[-70.43529,-17.33468],[-70.36391,-17.37391],[-70.37961,-17.38459],[-70.39008,-17.38584],[-70.40545,-17.39919],[-70.40051,-17.42123],[-70.3504,-17.44993],[-70.34579,-17.46074],[-70.37346,-17.45956],[-70.39225,-17.46431],[-70.40533,-17.47838],[-70.42828,-17.48334],[-70.43414,-17.50003],[-70.44683,-17.51591],[-70.5089,-17.54534],[-70.51462,-17.55642],[-70.57259,-17.61992],[-70.60842,-17.65628],[-70.64984,-17.69103],[-70.65547,-17.70017],[-70.67608,-17.71152],[-70.68306,-17.71962],[-70.6974,-17.75685],[-70.69787,-17.76803],[-70.72932,-17.78509],[-70.73209,-17.79226],[-70.76006,-17.81823],[-70.76424,-17.829],[-70.7905,-17.85777],[-70.81001,-17.89166],[-70.82286,-17.89394],[-70.82874,-17.90593],[-70.8393,-17.91152],[-70.84149,-17.92594],[-70.8487,-17.93144],[-70.84921,-17.94303],[-70.86334,-17.9668],[-70.88947,-17.97652]]]}},{"type":"Feature","properties":{"ubigeo":"2304","nombre":"Tarata"},"geometry":{"type":"Polygon","coordinates":[[[-69.46838,-17.46479],[-69.4944,-17.43245],[-69.51915,-17.42388],[-69.52379,-17.41299],[-69.5388,-17.40597],[-69.57678,-17.40019],[-69.58936,-17.40094],[-69.59849,-17.39304],[-69.61015,-17.41412],[-69.62145,-17.41885],[-69.64634,-17.4103],[-69.65419,-17.4123],[-69.66412,-17.42769],[-69.69047,-17.44363],[-69.67988,-17.45757],[-69.7075,-17.47422],[-69.72316,-17.46105],[-69.77286,-17.45604],[-69.80298,-17.46127],[-69.81955,-17.45465],[-69.83826,-17.46008],[-69.83669,-17.47138],[-69.8498,-17.48942],[-69.84662,-17.50646],[-69.85624,-17.51793],[-69.85983,-17.53288],[-69.87211,-17.54637],[-69.87533,-17.56257],[-69.87205,-17.57812],[-69.87575,-17.58484],[-69.89407,-17.58277],[-69.91981,-17.58925],[-69.93171,-17.58907],[-69.94552,-17.57883],[-69.95765,-17.59075],[-69.96714,-17.58622],[-69.97248,-17.59565],[-69.98322,-17.59714],[-69.99852,-17.61739],[-70.01466,-17.62641],[-70.0073,-17.64206],[-70.02031,-17.66158],[-70.04106,-17.66554],[-70.05466,-17.69398],[-70.0652,-17.70066],[-70.0822,-17.71863],[-70.09691,-17.72865],[-70.09977,-17.74403],[-70.109,-17.7593],[-70.13761,-17.77267],[-70.16208,-17.77317],[-70.18075,-17.77821],[-70.19528,-17.77394],[-70.20138,-17.76294],[-70.18958,-17.73727],[-70.15372,-17.6934],[-70.15161,-17.65932],[-70.14557,-17.64848],[-70.14339,-17.63171],[-70.15183,-17.62414],[-70.15003,-17.59927],[-70.1608,-17.59947],[-70.17143,-17.58745],[-70.18073,-17.58928],[-70.23745,-17.58967],[-70.26094,-17.57725],[-70.28125,-17.56073],[-70.28584,-17.54061],[-70.3047,-17.53781],[-70.31287,-17.51956],[-70.3318,-17.50932],[-70.34164,-17.48279],[-70.34579,-17.46074],[-70.32579,-17.44677],[-70.32415,-17.4394],[-70.29423,-17.41591],[-70.29063,-17.40928],[-70.27583,-17.40534],[-70.28347,-17.39781],[-70.26457,-17.38814],[-70.26338,-17.37824],[-70.2438,-17.35871],[-70.22558,-17.35778],[-70.21765,-17.34189],[-70.19438,-17.3243],[-70.16813,-17.3162],[-70.15625,-17.32166],[-70.1424,-17.31453],[-70.12447,-17.31991],[-70.1004,-17.30487],[-70.09332,-17.29005],[-70.10136,-17.27276],[-70.10903,-17.24135],[-70.11442,-17.2356],[-70.09906,-17.21733],[-70.1019,-17.20126],[-70.08637,-17.19614],[-70.09622,-17.18671],[-70.09935,-17.16476],[-70.09531,-17.12289],[-70.08676,-17.10982],[-70.0809,-17.0895],[-70.07,-17.08118],[-70.07715,-17.04797],[-70.07315,-17.03491],[-70.04677,-17.05638],[-70.04157,-17.0774],[-70.0468,-17.09943],[-70.03972,-17.12797],[-70.02313,-17.12381],[-70.01199,-17.14139],[-69.98763,-17.15142],[-69.98136,-17.16862],[-69.97312,-17.16564],[-69.96767,-17.17882],[-69.93857,-17.20015],[-69.92296,-17.20407],[-69.89813,-17.22107],[-69.8731,-17.22383],[-69.86893,-17.23171],[-69.85879,-17.23328],[-69.8514,-17.24374],[-69.81967,-17.24136],[-69.79873,-17.23201],[-69.78825,-17.23644],[-69.76497,-17.26402],[-69.76184,-17.28044],[-69.73107,-17.29547],[-69.71563,-17.29163],[-69.71108,-17.28194],[-69.6936,-17.27464],[-69.68293,-17.27874],[-69.65474,-17.27078],[-69.64132,-17.28745],[-69.61628,-17.28644],[-69.57522,-17.29259],[-69.46732,-17.37354],[-69.46838,-17.46479]]]}}]}