{"type":"FeatureCollection","features":[{"type":"Feature","properties":{"ubigeo":"2401","nombre":"Tumbes"},"geometry":{"type":"Polygon","coordinates":[[[-80.18074,-3.92583],[-80.18773,-3.93684],[-80.21542,-3.95616],[-80.23447,-3.94847],[-80.2368,-3.96317],[-80.25392,-3.97936],[-80.26182,-3.99889],[-80.27223,-4.0081],[-80.29808,-4.01726],[-80.32369,-4.01117],[-80.33909,-3.99214],[-80.35276,-3.99476],[-80.3656,-3.98182],[-80.37711,-3.98964],[-80.38908,-3.9881],[-80.39861,-3.98081],[-80.42544,-3.99653],[-80.43024,-3.9895],[-80.44685,-3.99802],[-80.44151,-4.00544],[-80.44558,-4.01633],[-80.4547,-4.01619],[-80.45153,-4.03168],[-80.46838,-4.03587],[-80.46997,-4.0463],[-80.4798,-4.05554],[-80.47376,-4.05962],[-80.47182,-4.07359],[-80.47622,-4.08191],[-80.48733,-4.08313],[-80.5172,-4.09804],[-80.52435,-4.10741],[-80.52642,-4.12036],[-80.53299,-4.1217],[-80.54166,-4.14139],[-80.55898,-4.16108],[-80.56083,-4.1747],[-80.57245,-4.18117],[-80.57768,-4.19604],[-80.58723,-4.19951],[-80.58982,-4.21412],[-80.60458,-4.21115],[-80.61133,-4.22539],[-80.62322,-4.23178],[-80.64523,-4.22956],[-80.66645,-4.21506],[-80.64545,-4.20603],[-80.63593,-4.19061],[-80.63564,-4.17926],[-80.61251,-4.17194],[-80.59548,-4.14678],[-80.58348,-4.13891],[-80.57889,-4.11069],[-80.565,-4.09378],[-80.55866,-4.05662],[-80.55181,-4.05097],[-80.53809,-4.0285],[-80.52559,-4.02928],[-80.51547,-4.01823],[-80.52766,-4.00207],[-80.52387,-4.00077],[-80.52128,-3.97304],[-80.52999,-3.95957],[-80.53329,-3.93008],[-80.52349,-3.90765],[-80.54022,-3.89908],[-80.55057,-3.88262],[-80.54265,-3.86991],[-80.53979,-3.84319],[-80.54498,-3.83591],[-80.57849,-3.83631],[-80.58996,-3.83121],[-80.58931,-3.8142],[-80.5766,-3.78486],[-80.55735,-3.78304],[-80.55217,-3.77221],[-80.55573,-3.76401],[-80.55398,-3.73355],[-80.56672,-3.73337],[-80.5808,-3.72706],[-80.5758,-3.7091],[-80.58731,-3.69686],[-80.60384,-3.67058],[-80.60495,-3.65425],[-80.5992,-3.64734],[-80.60473,-3.6372],[-80.58322,-3.63621],[-80.5729,-3.62792],[-80.54485,-3.58973],[-80.50487,-3.50895],[-80.49035,-3.49912],[-80.47982,-3.50568],[-80.46077,-3.50375],[-80.42249,-3.4862],[-80.43242,-3.49732],[-80.41368,-3.50025],[-80.42373,-3.50624],[-80.41946,-3.51221],[-80.37883,-3.49461],[-80.34321,-3.61876],[-80.33779,-3.63147],[-80.31329,-3.64361],[-80.30127,-3.65574],[-80.29583,-3.67384],[-80.30287,-3.71354],[-80.29817,-3.73008],[-80.30254,-3.74168],[-80.2993,-3.75861],[-80.305,-3.77257],[-80.27172,-3.80511],[-80.25581,-3.83277],[-80.25258,-3.86836],[-80.26222,-3.8797],[-80.25879,-3.90211],[-80.24359,-3.89754],[-80.23312,-3.90601],[-80.22152,-3.90139],[-80.19624,-3.91145],[-80.19679,-3.91619],[-80.18074,-3.92583]]]}},{"type":"Feature","properties":{"ubigeo":"2402","nombre":"Contralmirante Villar"},"geometry":{"type":"Polygon","coordinates":[[[-80.93638,-4.17824],[-80.94275,-4.169],[-80.96756,-4.1726],[-80.97078,-4.16691],[-80.96189,-4.15049],[-80.97132,-4.12712],[-81.00065,-4.1112],[-81.01197,-4.11423],[-81.02888,-4.10522],[-81.04191,-4.08292],[-81.00585,-4.0306],[-80.98739,-3.98571],[-80.97053,-3.9734],[-80.96242,-3.95754],[-80.95654,-3.9562],[-80.8881,-3.91353],[-80.8744,-3.89997],[-80.85453,-3.89319],[-80.83365,-3.87576],[-80.82869,-3.8373],[-80.79462,-3.7602],[-80.78723,-3.74819],[-80.77176,-3.73962],[-80.7536,-3.71817],[-80.72593,-3.71044],[-80.68427,-3.67985],[-80.6677,-3.67668],[-80.65656,-3.66678],[-80.63412,-3.66613],[-80.6229,-3.65948],[-80.60473,-3.6372],[-80.5992,-3.64734],[-80.60495,-3.65425],[-80.60384,-3.67058],[-80.58731,-3.69686],[-80.5758,-3.7091],[-80.5808,-3.72706],[-80.56672,-3.73337],[-80.55398,-3.73355],[-80.55573,-3.76401],[-80.55217,-3.77221],[-80.55735,-3.78304],[-80.5766,-3.78486],[-80.58931,-3.8142],[-80.58996,-3.83121],[-80.57849,-3.83631],[-80.54498,-3.83591],[-80.53979,-3.84319],[-80.54265,-3.86991],[-80.55057,-3.88262],[-80.54022,-3.89908],[-80.52349,-3.90765],[-80.53329,-3.93008],[-80.52999,-3.95957],[-80.52128,-3.97304],[-80.52387,-4.00077],[-80.52766,-4.00207],[-80.51547,-4.01823],[-80.52559,-4.02928],[-80.53809,-4.0285],[-80.55181,-4.05097],[-80.55866,-4.05662],[-80.565,-4.09378],[-80.57889,-4.11069],[-80.58348,-4.13891],[-80.59548,-4.14678],[-80.61251,-4.17194],[-80.63564,-4.17926],[-80.63593,-4.19061],[-80.64545,-4.20603],[-80.66645,-4.21506],[-80.68037,-4.20078],[-80.70032,-4.1878],[-80.71865,-4.19425],[-80.73338,-4.17889],[-80.74551,-4.18403],[-80.77046,-4.17422],[-80.79015,-4.18024],[-80.80331,-4.17597],[-80.82402,-4.18562],[-80.85053,-4.19099],[-80.8657,-4.18888],[-80.88282,-4.1928],[-80.90077,-4.17942],[-80.92831,-4.16903],[-80.93638,-4.17824]]]}},{"type":"Feature","properties":{"ubigeo":"2403","nombre":"Zarumilla"},"geometry":{"type":"Polygon","coordinates":[[[-80.37883,-3.49461],[-80.34446,-3.4594],[-80.32729,-3.43683],[-80.31285,-3.4027],[-80.31479,-3.38334],[-80.29236,-3.4088],[-80.2701,-3.41496],[-80.26021,-3.4126],[-80.24589,-3.41863],[-80.22238,-3.43515],[-80.22052,-3.44386],[-80.24032,-3.46173],[-80.24362,-3.48741],[-80.23191,-3.49007],[-80.22853,-3.50113],[-80.21573,-3.5],[-80.21692,-3.51084],[-80.21071,-3.51856],[-80.21489,-3.52563],[-80.20617,-3.53452],[-80.21053,-3.53894],[-80.20541,-3.55108],[-80.21812,-3.57298],[-80.21113,-3.59221],[-80.18877,-3.59793],[-80.19642,-3.6248],[-80.18662,-3.62913],[-80.18515,-3.6472],[-80.18746,-3.67141],[-80.19838,-3.68706],[-80.19361,-3.708],[-80.18502,-3.71534],[-80.18081,-3.73858],[-80.19194,-3.74854],[-80.18853,-3.76254],[-80.19271,-3.77473],[-80.1852,-3.7753],[-80.17606,-3.79275],[-80.16092,-3.80208],[-80.16311,-3.82767],[-80.15179,-3.8551],[-80.15855,-3.86982],[-80.12717,-3.89552],[-80.14024,-3.91296],[-80.15781,-3.91315],[-80.16463,-3.92243],[-80.18074,-3.92583],[-80.19679,-3.91619],[-80.19624,-3.91145],[-80.22152,-3.90139],[-80.23312,-3.90601],[-80.24359,-3.89754],[-80.25879,-3.90211],[-80.26222,-3.8797],[-80.25258,-3.86836],[-80.25581,-3.83277],[-80.27172,-3.80511],[-80.305,-3.77257],[-80.2993,-3.75861],[-80.30254,-3.74168],[-80.29817,-3.73008],[-80.30287,-3.71354],[-80.29583,-3.67384],[-80.30127,-3.65574],[-80.31329,-3.64361],[-80.33779,-3.63147],[-80.34321,-3.61876],[-80.37883,-3.49461]]]}}]}