{"type":"FeatureCollection","features":[{"type":"Feature","properties":{"ubigeo":"2501","nombre":"Coronel Portillo"},"geometry":{"type":"Polygon","coordinates":[[[-73.20044,-9.4114],[-73.19171,-9.42901],[-73.20464,-9.44435],[-73.19381,-9.46093],[-73.20541,-9.47433],[-73.20617,-9.48432],[-73.19823,-9.49561],[-73.19813,-9.50904],[-73.18963,-9.5268],[-73.20088,-9.53999],[-73.20398,-9.56002],[-73.19922,-9.56589],[-73.21248,-9.57415],[-73.2186,-9.62209],[-73.22425,-9.63977],[-73.21592,-9.64549],[-73.21893,-9.66304],[-73.22714,-9.65685],[-73.24507,-9.65842],[-73.24915,-9.66337],[-73.2734,-9.66459],[-73.26766,-9.67834],[-73.27658,-9.68421],[-73.26921,-9.69773],[-73.25353,-9.70901],[-73.24293,-9.7311],[-73.24653,-9.75185],[-73.24411,-9.76531],[-73.22907,-9.79515],[-73.22953,-9.81453],[-73.21776,-9.82747],[-73.22517,-9.83316],[-73.22849,-9.84651],[-73.20888,-9.85396],[-73.20255,-9.8668],[-73.18884,-9.87097],[-73.17075,-9.86346],[-73.13968,-9.86683],[-73.13047,-9.87206],[-73.1032,-9.87523],[-73.09682,-9.88868],[-73.11404,-9.90284],[-73.10988,-9.92328],[-73.09239,-9.94352],[-73.09318,-9.94954],[-73.07145,-9.96313],[-73.06664,-9.97263],[-73.08073,-9.98861],[-73.0983,-9.98696],[-73.10255,-10.00996],[-73.14585,-10.03777],[-73.15274,-10.03953],[-73.15617,-10.05711],[-73.17947,-10.09385],[-73.19372,-10.082],[-73.19703,-10.04765],[-73.18716,-10.01834],[-73.19454,-10.01023],[-73.2193,-9.99931],[-73.22143,-9.9722],[-73.26795,-9.95227],[-73.28319,-9.93832],[-73.30922,-9.89299],[-73.35524,-9.8727],[-73.37038,-9.86162],[-73.37543,-9.84786],[-73.37097,-9.82678],[-73.39347,-9.82257],[-73.42898,-9.80625],[-73.45935,-9.79561],[-73.4635,-9.76317],[-73.46938,-9.75078],[-73.48931,-9.73366],[-73.49754,-9.73099],[-73.51781,-9.715],[-73.53372,-9.71116],[-73.54747,-9.68955],[-73.56044,-9.67573],[-73.57008,-9.65745],[-73.58372,-9.65568],[-73.60919,-9.64441],[-73.62879,-9.61041],[-73.64306,-9.59039],[-73.66531,-9.57197],[-73.65987,-9.55143],[-73.66321,-9.54309],[-73.69049,-9.52775],[-73.70622,-9.53299],[-73.74339,-9.54035],[-73.75901,-9.53177],[-73.77737,-9.53225],[-73.80701,-9.52801],[-73.82096,-9.53197],[-73.85321,-9.56881],[-73.87554,-9.59656],[-73.89362,-9.60369],[-73.95975,-9.61079],[-73.98578,-9.63518],[-74.00771,-9.64598],[-74.0379,-9.65556],[-74.04755,-9.65583],[-74.05956,-9.66894],[-74.06946,-9.68661],[-74.06579,-9.70554],[-74.08299,-9.71068],[-74.1038,-9.71234],[-74.13261,-9.70219],[-74.1524,-9.70968],[-74.16638,-9.72864],[-74.18398,-9.7638],[-74.21632,-9.77334],[-74.25342,-9.77173],[-74.26709,-9.7773],[-74.29063,-9.79301],[-74.29948,-9.80753],[-74.31696,-9.80158],[-74.31967,-9.82635],[-74.33001,-9.83333],[-74.3358,-9.84852],[-74.33307,-9.8601],[-74.35743,-9.85504],[-74.36806,-9.8463],[-74.37585,-9.86927],[-74.35922,-9.89291],[-74.36177,-9.9033],[-74.37375,-9.91893],[-74.39258,-9.92961],[-74.41233,-9.95396],[-74.41147,-9.93616],[-74.41665,-9.93082],[-74.41103,-9.9157],[-74.41455,-9.90211],[-74.43757,-9.87238],[-74.4502,-9.87023],[-74.45115,-9.81067],[-74.44724,-9.77715],[-74.45536,-9.74598],[-74.47409,-9.73012],[-74.4842,-9.69496],[-74.49014,-9.6852],[-74.48965,-9.65327],[-74.49729,-9.6376],[-74.49073,-9.61878],[-74.49389,-9.61612],[-74.49477,-9.59114],[-74.51081,-9.5941],[-74.53165,-9.5921],[-74.55693,-9.57715],[-74.57556,-9.57049],[-74.57324,-9.55089],[-74.58238,-9.53374],[-74.58162,-9.52701],[-74.59317,-9.50962],[-74.58318,-9.49844],[-74.57822,-9.48217],[-74.58109,-9.4766],[-74.60831,-9.47209],[-74.62245,-9.46111],[-74.66396,-9.45434],[-74.67596,-9.44691],[-74.68907,-9.4349],[-74.69767,-9.43564],[-74.70942,-9.42221],[-74.69635,-9.41794],[-74.68328,-9.40718],[-74.67275,-9.38888],[-74.65783,-9.38201],[-74.65632,-9.3702],[-74.63623,-9.36944],[-74.62661,-9.36306],[-74.62537,-9.35021],[-74.61557,-9.33988],[-74.60709,-9.3215],[-74.59394,-9.30947],[-74.58715,-9.29558],[-74.59121,-9.29109],[-74.5899,-9.26717],[-74.61529,-9.23798],[-74.62447,-9.21556],[-74.62697,-9.19705],[-74.63956,-9.15968],[-74.64098,-9.1418],[-74.63654,-9.12551],[-74.64071,-9.11856],[-74.67186,-9.11054],[-74.67809,-9.09404],[-74.65706,-9.0686],[-74.65137,-9.04877],[-74.66406,-9.03392],[-74.66916,-9.02026],[-74.66171,-9.00383],[-74.65108,-8.99983],[-74.6478,-8.98957],[-74.65274,-8.97958],[-74.64431,-8.91878],[-74.63638,-8.91225],[-74.62422,-8.88873],[-74.62141,-8.84557],[-74.61831,-8.83203],[-74.60892,-8.82023],[-74.58809,-8.81265],[-74.57287,-8.79265],[-74.53218,-8.77613],[-74.52535,-8.74932],[-74.52779,-8.71097],[-74.53612,-8.62986],[-74.54713,-8.58457],[-74.57757,-8.55379],[-74.58975,-8.54872],[-74.61782,-8.54872],[-74.64419,-8.55413],[-74.66415,-8.56191],[-74.6925,-8.58118],[-74.79753,-8.63171],[-74.84668,-8.66124],[-74.84155,-8.68227],[-74.84708,-8.68893],[-74.84651,-8.71351],[-74.85071,-8.73001],[-74.85056,-8.75689],[-74.86534,-8.78095],[-74.89574,-8.80476],[-74.94071,-8.85789],[-74.95447,-8.86357],[-74.96615,-8.81858],[-74.96465,-8.80514],[-74.94634,-8.77983],[-74.94193,-8.75766],[-74.9456,-8.73076],[-74.94397,-8.71016],[-74.95361,-8.70347],[-74.95844,-8.68502],[-74.96696,-8.67136],[-74.96339,-8.64796],[-74.95456,-8.6329],[-74.95148,-8.60986],[-74.94273,-8.60426],[-74.93941,-8.59179],[-74.94813,-8.57323],[-74.95979,-8.56634],[-74.9702,-8.53486],[-74.98689,-8.51269],[-74.99924,-8.50515],[-75.00374,-8.48309],[-75.01143,-8.47018],[-75.01372,-8.44918],[-75.02502,-8.44263],[-75.02964,-8.41615],[-75.01282,-8.40717],[-75.01592,-8.39232],[-75.00703,-8.38999],[-75.00484,-8.38063],[-75.02664,-8.36286],[-75.03232,-8.33129],[-75.04036,-8.31256],[-75.06915,-8.28032],[-75.08145,-8.2739],[-75.13029,-8.2658],[-75.1311,-8.27213],[-75.14261,-8.27271],[-75.15115,-8.26478],[-75.17263,-8.26707],[-75.18457,-8.25727],[-75.20303,-8.25727],[-75.21661,-8.24042],[-75.24548,-8.2446],[-75.27104,-8.26348],[-75.29032,-8.25668],[-75.3166,-8.2536],[-75.33294,-8.24776],[-75.37852,-8.24438],[-75.39603,-8.23597],[-75.41573,-8.24366],[-75.42032,-8.23586],[-75.43651,-8.23002],[-75.44454,-8.21513],[-75.45297,-8.21007],[-75.43763,-8.19485],[-75.43924,-8.17487],[-75.4301,-8.1666],[-75.41811,-8.17098],[-75.40145,-8.16972],[-75.39118,-8.16253],[-75.38995,-8.15226],[-75.37615,-8.13878],[-75.36549,-8.13788],[-75.34378,-8.12922],[-75.32895,-8.13828],[-75.31127,-8.13612],[-75.2978,-8.12632],[-75.2878,-8.12551],[-75.26692,-8.13589],[-75.26049,-8.1476],[-75.24388,-8.15552],[-75.2347,-8.14985],[-75.23578,-8.1404],[-75.21457,-8.12714],[-75.20954,-8.11624],[-75.21253,-8.1008],[-75.20438,-8.08887],[-75.18978,-8.07993],[-75.189,-8.06905],[-75.19567,-8.0544],[-75.18632,-8.03568],[-75.18434,-8.0166],[-75.16768,-8.00522],[-75.14943,-8.00182],[-75.14586,-7.98128],[-75.09222,-7.97368],[-75.07056,-7.96047],[-75.03335,-7.95005],[-75.01596,-7.96521],[-75.00553,-7.97015],[-74.98226,-7.96899],[-74.96314,-7.99415],[-74.9534,-8.01271],[-74.93357,-8.03165],[-74.92902,-8.04121],[-74.89644,-8.08127],[-74.8844,-8.0839],[-74.86588,-8.07693],[-74.84038,-8.05835],[-74.81931,-8.05748],[-74.7877,-8.04679],[-74.77126,-8.03606],[-74.76057,-8.01641],[-74.72794,-7.98101],[-74.71128,-7.979],[-74.66844,-7.94564],[-74.62798,-7.93983],[-74.60436,-7.9008],[-74.60128,-7.87346],[-74.59669,-7.8614],[-74.56975,-7.81598],[-74.55712,-7.80884],[-74.54059,-7.7915],[-74.51711,-7.78357],[-74.51955,-7.76098],[-74.52603,-7.75609],[-74.5432,-7.75562],[-74.55789,-7.74848],[-74.57165,-7.72689],[-74.58403,-7.69849],[-74.58346,-7.68507],[-74.57082,-7.66849],[-74.57724,-7.63587],[-74.59103,-7.62858],[-74.62753,-7.58602],[-74.64314,-7.56229],[-74.64116,-7.53483],[-74.64553,-7.51748],[-74.6429,-7.50009],[-74.63063,-7.48158],[-74.61607,-7.43504],[-74.59287,-7.42377],[-74.57952,-7.40993],[-74.57133,-7.38866],[-74.56601,-7.35971],[-74.55668,-7.34152],[-74.53571,-7.32025],[-74.53573,-7.29443],[-74.52074,-7.27601],[-74.51473,-7.27676],[-74.50009,-7.26205],[-74.49678,-7.26626],[-74.47305,-7.27462],[-74.46265,-7.29894],[-74.45375,-7.29825],[-74.44412,-7.30714],[-74.4308,-7.30207],[-74.42271,-7.31147],[-74.39397,-7.31782],[-74.37018,-7.31727],[-74.36157,-7.33661],[-74.34764,-7.3431],[-74.31623,-7.35127],[-74.27907,-7.35324],[-74.25902,-7.34405],[-74.24455,-7.34741],[-74.2381,-7.35784],[-74.21751,-7.36116],[-74.18086,-7.35875],[-74.16182,-7.37112],[-74.14164,-7.37777],[-74.13839,-7.39635],[-74.11539,-7.40607],[-74.06663,-7.43821],[-74.03997,-7.44815],[-74.0338,-7.48486],[-74.01837,-7.49145],[-74.01339,-7.5124],[-73.99788,-7.51972],[-73.98303,-7.53436],[-73.97912,-7.56081],[-73.9584,-7.56444],[-73.94186,-7.57926],[-73.92667,-7.58152],[-73.91075,-7.59687],[-73.88946,-7.60318],[-73.89552,-7.618],[-73.89472,-7.63465],[-73.90023,-7.64056],[-73.87965,-7.65613],[-73.86908,-7.67407],[-73.85595,-7.67759],[-73.84464,-7.6674],[-73.83727,-7.6706],[-73.83537,-7.69383],[-73.82246,-7.70052],[-73.81982,-7.71576],[-73.8099,-7.71943],[-73.80329,-7.71399],[-73.77148,-7.72724],[-73.74142,-7.73329],[-73.73555,-7.74411],[-73.72599,-7.74008],[-73.71403,-7.74296],[-73.71172,-7.76091],[-73.68904,-7.76668],[-73.67858,-7.78339],[-73.67631,-7.80003],[-73.68282,-7.81789],[-73.67816,-7.85796],[-73.6888,-7.8692],[-73.70611,-7.87654],[-73.72091,-7.8724],[-73.73545,-7.87881],[-73.74382,-7.87132],[-73.76582,-7.86622],[-73.75522,-7.89081],[-73.76511,-7.89537],[-73.77203,-7.90997],[-73.75483,-7.92541],[-73.7397,-7.93079],[-73.74779,-7.94668],[-73.73149,-7.9518],[-73.72742,-7.96533],[-73.72076,-7.95819],[-73.70542,-7.95507],[-73.7049,-7.96779],[-73.69733,-7.97769],[-73.69175,-7.97526],[-73.68067,-7.98464],[-73.68166,-7.99675],[-73.6689,-8.01229],[-73.65343,-8.01308],[-73.6403,-8.00651],[-73.62963,-8.02313],[-73.62422,-8.0232],[-73.61676,-8.03882],[-73.62596,-8.04975],[-73.62553,-8.05905],[-73.61652,-8.06906],[-73.60078,-8.10362],[-73.58966,-8.11301],[-73.58477,-8.12684],[-73.58963,-8.15501],[-73.59547,-8.1658],[-73.58978,-8.1793],[-73.5892,-8.19594],[-73.5752,-8.21133],[-73.57146,-8.22464],[-73.58395,-8.23128],[-73.58739,-8.24086],[-73.56491,-8.24489],[-73.526,-8.27436],[-73.53745,-8.29597],[-73.52681,-8.31439],[-73.53216,-8.33598],[-73.54187,-8.34443],[-73.53827,-8.35239],[-73.52512,-8.3567],[-73.52033,-8.3727],[-73.51197,-8.37301],[-73.48529,-8.38422],[-73.44131,-8.4254],[-73.42169,-8.43469],[-73.40776,-8.43061],[-73.39857,-8.4502],[-73.39059,-8.45785],[-73.38916,-8.46944],[-73.378,-8.46423],[-73.37312,-8.47179],[-73.35929,-8.47045],[-73.33098,-8.47586],[-73.32901,-8.52405],[-73.33424,-8.53105],[-73.33774,-8.57556],[-73.34414,-8.60274],[-73.33778,-8.62058],[-73.31967,-8.61062],[-73.31306,-8.61808],[-73.31025,-8.63305],[-73.30427,-8.62922],[-73.29691,-8.64723],[-73.2845,-8.66477],[-73.26569,-8.67133],[-73.25119,-8.69064],[-73.23718,-8.68679],[-73.21783,-8.69165],[-73.20392,-8.68781],[-73.1909,-8.69328],[-73.17912,-8.69123],[-73.16724,-8.6983],[-73.15016,-8.72483],[-73.13598,-8.73912],[-73.14017,-8.74768],[-73.13414,-8.76736],[-73.11426,-8.78551],[-73.11201,-8.8193],[-73.09523,-8.83664],[-73.07899,-8.84128],[-73.07985,-8.86065],[-73.07239,-8.86152],[-73.07015,-8.87836],[-73.0591,-8.89591],[-73.05901,-8.90561],[-73.0371,-8.91618],[-73.01976,-8.91136],[-73.0111,-8.91854],[-73.00127,-8.91691],[-72.98744,-8.93584],[-72.97646,-8.96663],[-72.96238,-8.98376],[-72.94167,-8.98377],[-72.94288,-8.99152],[-72.95707,-8.99977],[-72.9631,-9.01285],[-72.94795,-9.02887],[-72.94319,-9.05221],[-72.94912,-9.07208],[-72.93999,-9.09325],[-72.94532,-9.10394],[-72.9461,-9.11909],[-72.9591,-9.14342],[-72.99016,-9.16203],[-73.00503,-9.16166],[-73.01178,-9.17413],[-73.02682,-9.18071],[-73.01513,-9.1863],[-73.01188,-9.19535],[-73.00425,-9.19416],[-73.00397,-9.21099],[-73.0093,-9.22236],[-73.0249,-9.22156],[-73.03413,-9.23377],[-73.06409,-9.22769],[-73.07352,-9.23461],[-73.09436,-9.26928],[-73.10647,-9.27419],[-73.10943,-9.28278],[-73.10043,-9.30168],[-73.10143,-9.30812],[-73.11583,-9.3176],[-73.13141,-9.31832],[-73.13518,-9.33172],[-73.14809,-9.33672],[-73.14745,-9.35299],[-73.16938,-9.36039],[-73.17667,-9.35501],[-73.18876,-9.36322],[-73.1914,-9.38884],[-73.18693,-9.39904],[-73.20023,-9.40369],[-73.20044,-9.4114]]]}},{"type":"Feature","properties":{"ubigeo":"2502","nombre":"Atalaya"},"geometry":{"type":"Polygon","coordinates":[[[-72.18519,-11.00893],[-72.17532,-11.02483],[-72.17761,-11.04067],[-72.19306,-11.04968],[-72.18251,-11.0578],[-72.18698,-11.06865],[-72.1833,-11.09259],[-72.15177,-11.08644],[-72.12588,-11.10115],[-72.12141,-11.10714],[-72.12247,-11.12358],[-72.13825,-11.13689],[-72.16928,-11.14374],[-72.17648,-11.15911],[-72.18432,-11.15554],[-72.18794,-11.16373],[-72.19386,-11.15666],[-72.20488,-11.17096],[-72.19593,-11.17401],[-72.18966,-11.19092],[-72.20024,-11.2053],[-72.19706,-11.22786],[-72.20518,-11.2399],[-72.19941,-11.26424],[-72.21147,-11.2776],[-72.21846,-11.30029],[-72.20462,-11.34743],[-72.22667,-11.34261],[-72.23926,-11.34506],[-72.24602,-11.34616],[-72.24886,-11.33332],[-72.27946,-11.33939],[-72.28018,-11.32605],[-72.28664,-11.31394],[-72.29469,-11.31568],[-72.30771,-11.307],[-72.32255,-11.32458],[-72.3233,-11.31676],[-72.33698,-11.31672],[-72.3393,-11.32382],[-72.34995,-11.32362],[-72.36568,-11.33484],[-72.37883,-11.33264],[-72.38738,-11.34765],[-72.40066,-11.34496],[-72.40648,-11.35705],[-72.41294,-11.3516],[-72.42589,-11.35803],[-72.42513,-11.36849],[-72.43604,-11.3661],[-72.44118,-11.37499],[-72.44985,-11.37148],[-72.44743,-11.38452],[-72.45933,-11.38883],[-72.46936,-11.38526],[-72.48723,-11.39405],[-72.48221,-11.39812],[-72.50308,-11.39884],[-72.51011,-11.42425],[-72.52588,-11.43936],[-72.54592,-11.43297],[-72.54613,-11.44691],[-72.5517,-11.43366],[-72.56693,-11.43182],[-72.58182,-11.43912],[-72.58082,-11.4308],[-72.59104,-11.43209],[-72.59566,-11.42056],[-72.60479,-11.42304],[-72.60321,-11.43261],[-72.62433,-11.42561],[-72.6174,-11.41933],[-72.62312,-11.41282],[-72.63254,-11.41518],[-72.63212,-11.4064],[-72.64557,-11.41277],[-72.65032,-11.39831],[-72.66455,-11.39382],[-72.6644,-11.38719],[-72.68002,-11.38897],[-72.68861,-11.39683],[-72.69862,-11.38041],[-72.70656,-11.38151],[-72.71446,-11.35862],[-72.70726,-11.35221],[-72.71417,-11.3474],[-72.7218,-11.36146],[-72.72424,-11.35006],[-72.73824,-11.34743],[-72.76335,-11.37161],[-72.7847,-11.37596],[-72.79429,-11.38429],[-72.81706,-11.37527],[-72.82178,-11.38963],[-72.84246,-11.38684],[-72.83349,-11.37866],[-72.8437,-11.37349],[-72.8451,-11.36257],[-72.85205,-11.36528],[-72.8615,-11.35469],[-72.87706,-11.36431],[-72.89496,-11.34838],[-72.89405,-11.35796],[-72.92237,-11.34338],[-72.93284,-11.35038],[-72.93367,-11.34381],[-72.92133,-11.33523],[-72.92585,-11.32731],[-72.94474,-11.33991],[-72.95191,-11.33063],[-72.95197,-11.32037],[-72.96074,-11.31639],[-72.94443,-11.30987],[-72.94197,-11.3225],[-72.93346,-11.30427],[-72.95472,-11.30547],[-72.95308,-11.29418],[-72.93709,-11.29275],[-72.93913,-11.28208],[-72.95357,-11.27472],[-72.95539,-11.26377],[-72.96551,-11.26843],[-72.96912,-11.25211],[-72.97422,-11.25068],[-72.97548,-11.22435],[-72.96789,-11.21582],[-72.97706,-11.21229],[-73.01857,-11.23417],[-73.02458,-11.26312],[-73.06774,-11.28459],[-73.08214,-11.27328],[-73.13166,-11.29393],[-73.15868,-11.29092],[-73.1684,-11.29332],[-73.18646,-11.28598],[-73.19145,-11.29208],[-73.2033,-11.28999],[-73.21319,-11.29908],[-73.23713,-11.29951],[-73.25745,-11.31271],[-73.2689,-11.3097],[-73.29101,-11.31206],[-73.29688,-11.30837],[-73.33337,-11.30899],[-73.34617,-11.31345],[-73.35168,-11.33234],[-73.37866,-11.35074],[-73.38626,-11.37127],[-73.40164,-11.37585],[-73.40856,-11.38598],[-73.41975,-11.38394],[-73.44976,-11.36808],[-73.47065,-11.34401],[-73.48069,-11.3541],[-73.48564,-11.34432],[-73.47987,-11.33033],[-73.48409,-11.31934],[-73.47132,-11.30556],[-73.46011,-11.30271],[-73.46113,-11.27694],[-73.44987,-11.23557],[-73.4501,-11.22475],[-73.4592,-11.20878],[-73.45838,-11.19545],[-73.47519,-11.12836],[-73.46692,-11.11997],[-73.47418,-11.09896],[-73.47133,-11.087],[-73.4826,-11.06524],[-73.49827,-11.06399],[-73.50659,-11.05789],[-73.52294,-11.05797],[-73.54258,-11.04742],[-73.54134,-11.02155],[-73.55301,-11.01405],[-73.55824,-10.99914],[-73.55867,-10.97535],[-73.57149,-10.95809],[-73.56484,-10.93675],[-73.56727,-10.90595],[-73.55902,-10.87414],[-73.56026,-10.86061],[-73.57427,-10.85226],[-73.59433,-10.85256],[-73.6104,-10.84657],[-73.66754,-10.79941],[-73.66565,-10.79316],[-73.67678,-10.79008],[-73.69619,-10.77303],[-73.70426,-10.77126],[-73.71486,-10.75989],[-73.734,-10.75109],[-73.74212,-10.73401],[-73.7572,-10.7359],[-73.77653,-10.7493],[-73.78328,-10.75802],[-73.77848,-10.77504],[-73.7907,-10.79636],[-73.81422,-10.7999],[-73.81679,-10.83014],[-73.82216,-10.83607],[-73.81601,-10.85795],[-73.82077,-10.87901],[-73.8142,-10.8916],[-73.82684,-10.91279],[-73.82341,-10.92107],[-73.85575,-10.95697],[-73.86109,-10.97412],[-73.86657,-11.03735],[-73.86283,-11.07012],[-73.86565,-11.09868],[-73.85968,-11.13256],[-73.8613,-11.14553],[-73.85271,-11.16433],[-73.86306,-11.16912],[-73.89227,-11.16811],[-73.8993,-11.15578],[-73.91649,-11.1431],[-73.93474,-11.14234],[-73.94183,-11.15122],[-73.95738,-11.14814],[-73.95842,-11.14153],[-73.97827,-11.12063],[-73.98366,-11.09271],[-73.97828,-11.08314],[-73.97874,-11.07003],[-73.98911,-11.04112],[-73.99075,-11.02687],[-74.0055,-10.99319],[-74.02211,-10.99335],[-74.03626,-10.98901],[-74.06136,-10.99574],[-74.09178,-10.98681],[-74.11652,-10.99086],[-74.13685,-10.9886],[-74.14799,-10.99884],[-74.19087,-10.986],[-74.19837,-10.99715],[-74.20147,-11.01966],[-74.25644,-11.01822],[-74.28154,-11.03313],[-74.29386,-11.03133],[-74.32002,-11.03842],[-74.33945,-11.05396],[-74.37365,-11.05652],[-74.41342,-11.03357],[-74.41864,-11.02524],[-74.44541,-11.00485],[-74.46244,-11.00055],[-74.49453,-11.00112],[-74.50008,-10.996],[-74.50268,-10.96516],[-74.50838,-10.9503],[-74.54107,-10.93154],[-74.56236,-10.91368],[-74.56996,-10.91521],[-74.56923,-10.90404],[-74.5433,-10.89126],[-74.53841,-10.89628],[-74.50322,-10.89418],[-74.48619,-10.88745],[-74.48854,-10.87175],[-74.48454,-10.85587],[-74.49172,-10.84876],[-74.48007,-10.83509],[-74.46659,-10.83634],[-74.45832,-10.82827],[-74.42958,-10.81269],[-74.42014,-10.8161],[-74.40052,-10.81148],[-74.38568,-10.81177],[-74.37452,-10.7849],[-74.38291,-10.77351],[-74.3839,-10.74748],[-74.36814,-10.75185],[-74.35971,-10.75941],[-74.34926,-10.75369],[-74.34934,-10.74556],[-74.33702,-10.73386],[-74.31644,-10.72593],[-74.31097,-10.71491],[-74.28829,-10.68538],[-74.28688,-10.67041],[-74.27105,-10.67886],[-74.25892,-10.68043],[-74.25993,-10.66935],[-74.24574,-10.6545],[-74.22758,-10.65184],[-74.22966,-10.6346],[-74.2017,-10.63114],[-74.19276,-10.63918],[-74.16924,-10.63711],[-74.15778,-10.64853],[-74.14045,-10.65677],[-74.13862,-10.67073],[-74.13098,-10.65474],[-74.1394,-10.6252],[-74.13925,-10.61319],[-74.13267,-10.60491],[-74.1415,-10.58337],[-74.15093,-10.57208],[-74.15692,-10.5492],[-74.1692,-10.53163],[-74.18235,-10.50333],[-74.17753,-10.49948],[-74.18139,-10.48516],[-74.22689,-10.44305],[-74.23929,-10.44119],[-74.24489,-10.42289],[-74.25288,-10.41714],[-74.24683,-10.40593],[-74.242,-10.38317],[-74.254,-10.37733],[-74.26274,-10.36366],[-74.2478,-10.332],[-74.23686,-10.32009],[-74.25017,-10.31445],[-74.24609,-10.29718],[-74.23437,-10.29544],[-74.22716,-10.27733],[-74.22396,-10.2562],[-74.22914,-10.25114],[-74.2264,-10.2305],[-74.23465,-10.22001],[-74.22734,-10.19875],[-74.23166,-10.18505],[-74.24325,-10.17747],[-74.26685,-10.17169],[-74.28522,-10.1718],[-74.3037,-10.16386],[-74.30673,-10.13887],[-74.31502,-10.11316],[-74.33127,-10.10855],[-74.35565,-10.11877],[-74.36697,-10.1129],[-74.37709,-10.09987],[-74.37772,-10.07356],[-74.3899,-10.05135],[-74.40432,-10.0506],[-74.41832,-10.02482],[-74.4124,-10.00824],[-74.42403,-9.98944],[-74.41233,-9.95396],[-74.39258,-9.92961],[-74.37375,-9.91893],[-74.36177,-9.9033],[-74.35922,-9.89291],[-74.37585,-9.86927],[-74.36806,-9.8463],[-74.35743,-9.85504],[-74.33307,-9.8601],[-74.3358,-9.84852],[-74.33001,-9.83333],[-74.31967,-9.82635],[-74.31696,-9.80158],[-74.29948,-9.80753],[-74.29063,-9.79301],[-74.26709,-9.7773],[-74.25342,-9.77173],[-74.21632,-9.77334],[-74.18398,-9.7638],[-74.16638,-9.72864],[-74.1524,-9.70968],[-74.13261,-9.70219],[-74.1038,-9.71234],[-74.08299,-9.71068],[-74.06579,-9.70554],[-74.06946,-9.68661],[-74.05956,-9.66894],[-74.04755,-9.65583],[-74.0379,-9.65556],[-74.00771,-9.64598],[-73.98578,-9.63518],[-73.95975,-9.61079],[-73.89362,-9.60369],[-73.87554,-9.59656],[-73.85321,-9.56881],[-73.82096,-9.53197],[-73.80701,-9.52801],[-73.77737,-9.53225],[-73.75901,-9.53177],[-73.74339,-9.54035],[-73.70622,-9.53299],[-73.69049,-9.52775],[-73.66321,-9.54309],[-73.65987,-9.55143],[-73.66531,-9.57197],[-73.64306,-9.59039],[-73.62879,-9.61041],[-73.60919,-9.64441],[-73.58372,-9.65568],[-73.57008,-9.65745],[-73.56044,-9.67573],[-73.54747,-9.68955],[-73.53372,-9.71116],[-73.51781,-9.715],[-73.49754,-9.73099],[-73.48931,-9.73366],[-73.46938,-9.75078],[-73.4635,-9.76317],[-73.45935,-9.79561],[-73.42898,-9.80625],[-73.39347,-9.82257],[-73.37097,-9.82678],[-73.37543,-9.84786],[-73.37038,-9.86162],[-73.35524,-9.8727],[-73.30922,-9.89299],[-73.28319,-9.93832],[-73.26795,-9.95227],[-73.22143,-9.9722],[-73.2193,-9.99931],[-73.19454,-10.01023],[-73.18716,-10.01834],[-73.19703,-10.04765],[-73.19372,-10.082],[-73.17947,-10.09385],[-73.15617,-10.05711],[-73.15274,-10.03953],[-73.14585,-10.03777],[-73.10255,-10.00996],[-73.0983,-9.98696],[-73.08073,-9.98861],[-73.06664,-9.97263],[-73.07145,-9.96313],[-73.09318,-9.94954],[-73.09239,-9.94352],[-73.10988,-9.92328],[-73.11404,-9.90284],[-73.09682,-9.88868],[-73.1032,-9.87523],[-73.13047,-9.87206],[-73.13968,-9.86683],[-73.17075,-9.86346],[-73.18884,-9.87097],[-73.20255,-9.8668],[-73.20888,-9.85396],[-73.22849,-9.84651],[-73.22517,-9.83316],[-73.21776,-9.82747],[-73.22953,-9.81453],[-73.22907,-9.79515],[-73.24411,-9.76531],[-73.24653,-9.75185],[-73.24293,-9.7311],[-73.25353,-9.70901],[-73.26921,-9.69773],[-73.27658,-9.68421],[-73.26766,-9.67834],[-73.2734,-9.66459],[-73.24915,-9.66337],[-73.24507,-9.65842],[-73.22714,-9.65685],[-73.21893,-9.66304],[-73.21592,-9.64549],[-73.22425,-9.63977],[-73.2186,-9.62209],[-73.21248,-9.57415],[-73.19922,-9.56589],[-73.20398,-9.56002],[-73.20088,-9.53999],[-73.18963,-9.5268],[-73.19813,-9.50904],[-73.19823,-9.49561],[-73.20617,-9.48432],[-73.20541,-9.47433],[-73.19381,-9.46093],[-73.20464,-9.44435],[-73.19171,-9.42901],[-73.20044,-9.4114],[-73.064,-9.41204],[-72.71691,-9.41219],[-72.71158,-9.43],[-72.6977,-9.43596],[-72.68232,-9.43361],[-72.65317,-9.45143],[-72.64225,-9.44232],[-72.62715,-9.44324],[-72.62085,-9.45223],[-72.61245,-9.44924],[-72.57265,-9.46399],[-72.56273,-9.46306],[-72.53358,-9.47325],[-72.52098,-9.49092],[-72.48703,-9.48025],[-72.48124,-9.48637],[-72.46093,-9.4853],[-72.4551,-9.48968],[-72.44145,-9.4776],[-72.41621,-9.48344],[-72.40706,-9.47729],[-72.38526,-9.49257],[-72.37436,-9.49498],[-72.36698,-9.4897],[-72.34082,-9.5066],[-72.3391,-9.52237],[-72.31798,-9.54414],[-72.29019,-9.53499],[-72.28133,-9.5423],[-72.28323,-9.57819],[-72.28832,-9.60282],[-72.26866,-9.62062],[-72.25918,-9.61466],[-72.2521,-9.6199],[-72.25958,-9.63927],[-72.25202,-9.65642],[-72.24602,-9.65728],[-72.25226,-9.70194],[-72.25899,-9.71219],[-72.25465,-9.73383],[-72.26296,-9.75086],[-72.24666,-9.75062],[-72.24149,-9.76043],[-72.23132,-9.76196],[-72.21487,-9.77882],[-72.19352,-9.77643],[-72.17057,-9.78393],[-72.15136,-9.79742],[-72.15494,-9.8163],[-72.16206,-9.83107],[-72.1482,-9.87223],[-72.13594,-9.87439],[-72.14792,-9.88857],[-72.15071,-9.90574],[-72.16331,-9.90851],[-72.1738,-9.93282],[-72.15643,-9.94165],[-72.16063,-9.95564],[-72.14985,-9.96081],[-72.15779,-9.97819],[-72.1758,-9.98423],[-72.1804,-9.99967],[-72.18909,-10.00608],[-72.18935,-10.02087],[-72.17978,-10.04109],[-72.17218,-10.04824],[-72.1629,-10.07609],[-72.14107,-10.09055],[-72.14657,-10.09846],[-72.14351,-10.11211],[-72.14268,-10.13948],[-72.15695,-10.16526],[-72.17982,-10.16488],[-72.21413,-10.15971],[-72.23528,-10.16608],[-72.23561,-10.18207],[-72.24255,-10.18881],[-72.27116,-10.18582],[-72.28337,-10.18709],[-72.29333,-10.18145],[-72.30066,-10.18506],[-72.31163,-10.17948],[-72.3361,-10.17948],[-72.3443,-10.19032],[-72.36544,-10.2015],[-72.36807,-10.21349],[-72.38177,-10.2225],[-72.40218,-10.22592],[-72.41889,-10.23344],[-72.43576,-10.25263],[-72.44472,-10.25504],[-72.46278,-10.28862],[-72.47306,-10.30171],[-72.47712,-10.33291],[-72.4654,-10.34591],[-72.4782,-10.36771],[-72.47717,-10.37869],[-72.46136,-10.39316],[-72.45149,-10.41668],[-72.42245,-10.44647],[-72.4204,-10.47955],[-72.42767,-10.48955],[-72.46359,-10.50468],[-72.4626,-10.5098],[-72.44358,-10.51453],[-72.43226,-10.51235],[-72.40789,-10.51705],[-72.3983,-10.52873],[-72.3808,-10.53783],[-72.37884,-10.5477],[-72.39228,-10.5745],[-72.38794,-10.59466],[-72.39462,-10.60223],[-72.39879,-10.62699],[-72.40509,-10.63265],[-72.4061,-10.64946],[-72.42663,-10.64762],[-72.44337,-10.63649],[-72.45852,-10.67568],[-72.45577,-10.68875],[-72.45946,-10.70772],[-72.46686,-10.71627],[-72.46575,-10.74062],[-72.46919,-10.75833],[-72.48033,-10.76588],[-72.48435,-10.79219],[-72.47232,-10.81707],[-72.44802,-10.8323],[-72.43721,-10.84259],[-72.42821,-10.86196],[-72.43137,-10.8798],[-72.41904,-10.90629],[-72.39951,-10.91788],[-72.40006,-10.92981],[-72.39025,-10.93588],[-72.36183,-10.96102],[-72.34674,-10.96969],[-72.33036,-10.96898],[-72.3203,-10.98028],[-72.31083,-10.98309],[-72.29925,-10.97562],[-72.26213,-10.97168],[-72.2383,-10.98542],[-72.21027,-11.01328],[-72.19418,-11.00449],[-72.18519,-11.00893]]]}},{"type":"Feature","properties":{"ubigeo":"2503","nombre":"Padre Abad"},"geometry":{"type":"Polygon","coordinates":[[[-75.62918,-9.41086],[-75.67045,-9.41794],[-75.67113,-9.38587],[-75.69501,-9.36292],[-75.68862,-9.34937],[-75.70569,-9.33627],[-75.71078,-9.314],[-75.71604,-9.30796],[-75.72024,-9.27723],[-75.74019,-9.26383],[-75.74976,-9.24426],[-75.76412,-9.23684],[-75.7592,-9.23204],[-75.76379,-9.2171],[-75.77081,-9.22031],[-75.78429,-9.20801],[-75.7957,-9.20332],[-75.79581,-9.18195],[-75.79963,-9.16173],[-75.80999,-9.13239],[-75.82152,-9.11801],[-75.82013,-9.10059],[-75.82502,-9.09005],[-75.83787,-9.08489],[-75.83788,-9.06194],[-75.84965,-9.05114],[-75.85852,-9.05151],[-75.86657,-9.03569],[-75.87575,-9.02947],[-75.87898,-9.01763],[-75.89186,-9.00202],[-75.8945,-8.98371],[-75.88487,-8.98015],[-75.88937,-8.94963],[-75.89904,-8.91886],[-75.90312,-8.9155],[-75.90127,-8.89815],[-75.90988,-8.89679],[-75.91118,-8.88489],[-75.9217,-8.86684],[-75.9276,-8.84609],[-75.92877,-8.80801],[-75.92165,-8.78081],[-75.93661,-8.75464],[-75.94003,-8.73775],[-75.94789,-8.72251],[-75.94601,-8.71519],[-75.93212,-8.69693],[-75.92595,-8.69804],[-75.90928,-8.67792],[-75.90085,-8.67771],[-75.89132,-8.66022],[-75.85349,-8.64916],[-75.84531,-8.65498],[-75.83251,-8.65178],[-75.8168,-8.63602],[-75.82073,-8.62864],[-75.81236,-8.60771],[-75.80153,-8.60274],[-75.79246,-8.58563],[-75.79069,-8.57003],[-75.78001,-8.55349],[-75.77929,-8.53195],[-75.78447,-8.5217],[-75.79922,-8.51216],[-75.78221,-8.50371],[-75.78754,-8.49719],[-75.77897,-8.49357],[-75.76898,-8.4978],[-75.76069,-8.48739],[-75.7353,-8.48495],[-75.71646,-8.48689],[-75.7175,-8.47598],[-75.70814,-8.44651],[-75.68732,-8.42329],[-75.65818,-8.41513],[-75.64813,-8.40975],[-75.61808,-8.40832],[-75.59906,-8.41198],[-75.58828,-8.42357],[-75.58346,-8.44119],[-75.57229,-8.44458],[-75.55861,-8.44192],[-75.54922,-8.43299],[-75.53275,-8.43321],[-75.52896,-8.43977],[-75.51084,-8.43204],[-75.48579,-8.43734],[-75.47521,-8.43616],[-75.46029,-8.4492],[-75.43554,-8.45221],[-75.42395,-8.44248],[-75.45236,-8.41204],[-75.46144,-8.40666],[-75.46382,-8.39384],[-75.48067,-8.3804],[-75.48134,-8.36092],[-75.47785,-8.35258],[-75.48368,-8.34476],[-75.49882,-8.34589],[-75.51005,-8.33482],[-75.49779,-8.33139],[-75.4913,-8.31729],[-75.50288,-8.28941],[-75.48838,-8.26403],[-75.47146,-8.25207],[-75.47315,-8.24429],[-75.45881,-8.23052],[-75.45881,-8.21756],[-75.45297,-8.21007],[-75.44454,-8.21513],[-75.43651,-8.23002],[-75.42032,-8.23586],[-75.41573,-8.24366],[-75.39603,-8.23597],[-75.37852,-8.24438],[-75.33294,-8.24776],[-75.3166,-8.2536],[-75.29032,-8.25668],[-75.27104,-8.26348],[-75.24548,-8.2446],[-75.21661,-8.24042],[-75.20303,-8.25727],[-75.18457,-8.25727],[-75.17263,-8.26707],[-75.15115,-8.26478],[-75.14261,-8.27271],[-75.1311,-8.27213],[-75.13029,-8.2658],[-75.08145,-8.2739],[-75.06915,-8.28032],[-75.04036,-8.31256],[-75.03232,-8.33129],[-75.02664,-8.36286],[-75.00484,-8.38063],[-75.00703,-8.38999],[-75.01592,-8.39232],[-75.01282,-8.40717],[-75.02964,-8.41615],[-75.02502,-8.44263],[-75.01372,-8.44918],[-75.01143,-8.47018],[-75.00374,-8.48309],[-74.99924,-8.50515],[-74.98689,-8.51269],[-74.9702,-8.53486],[-74.95979,-8.56634],[-74.94813,-8.57323],[-74.93941,-8.59179],[-74.94273,-8.60426],[-74.95148,-8.60986],[-74.95456,-8.6329],[-74.96339,-8.64796],[-74.96696,-8.67136],[-74.95844,-8.68502],[-74.95361,-8.70347],[-74.94397,-8.71016],[-74.9456,-8.73076],[-74.94193,-8.75766],[-74.94634,-8.77983],[-74.96465,-8.80514],[-74.96615,-8.81858],[-74.95447,-8.86357],[-74.97898,-8.87165],[-75.005,-8.86973],[-75.02365,-8.85907],[-75.03322,-8.86772],[-75.04687,-8.86824],[-75.06737,-8.88141],[-75.07139,-8.8736],[-75.09431,-8.87636],[-75.10872,-8.88254],[-75.12259,-8.88095],[-75.12008,-8.90434],[-75.11022,-8.92928],[-75.12856,-8.93571],[-75.13474,-8.94483],[-75.12056,-8.95985],[-75.11958,-8.98118],[-75.14009,-8.99433],[-75.13921,-8.9995],[-75.15469,-8.99964],[-75.15762,-9.0105],[-75.17453,-9.01253],[-75.17571,-9.02473],[-75.1624,-9.03395],[-75.17638,-9.04155],[-75.20122,-9.06384],[-75.19607,-9.0759],[-75.2049,-9.08029],[-75.20528,-9.09937],[-75.22007,-9.10462],[-75.24058,-9.10015],[-75.23176,-9.11844],[-75.2339,-9.12882],[-75.22875,-9.1477],[-75.21648,-9.15508],[-75.21282,-9.17716],[-75.21914,-9.17825],[-75.233,-9.20932],[-75.25669,-9.23248],[-75.27192,-9.23342],[-75.26811,-9.25001],[-75.27188,-9.26632],[-75.2797,-9.27694],[-75.3147,-9.30161],[-75.31903,-9.29366],[-75.33406,-9.28876],[-75.34949,-9.30454],[-75.37215,-9.31023],[-75.39233,-9.3004],[-75.40225,-9.30196],[-75.41849,-9.29261],[-75.42809,-9.29636],[-75.45197,-9.29634],[-75.45625,-9.325],[-75.48141,-9.35967],[-75.48779,-9.37265],[-75.50967,-9.38315],[-75.51796,-9.38217],[-75.53864,-9.39347],[-75.56247,-9.40118],[-75.5822,-9.4028],[-75.60066,-9.41381],[-75.61138,-9.40614],[-75.61666,-9.41408],[-75.62918,-9.41086]]]}},{"type":"Feature","properties":{"ubigeo":"2504","nombre":"Purús"},"geometry":{"type":"Polygon","coordinates":[[[-72.1804,-9.99967],[-72.01968,-9.99987],[-72.00069,-9.99924],[-71.88682,-9.99996],[-71.7648,-9.99962],[-71.50316,-10.00032],[-71.37504,-10.00014],[-71.36001,-9.98374],[-71.35007,-9.98519],[-71.35128,-9.97693],[-71.34276,-9.96677],[-71.32963,-9.97375],[-71.32243,-9.98572],[-71.31125,-9.99165],[-71.29744,-9.99218],[-71.29187,-9.9825],[-71.28518,-9.98587],[-71.27171,-9.97782],[-71.25132,-9.97405],[-71.25321,-9.96293],[-71.23645,-9.96441],[-71.22284,-9.97001],[-71.20939,-9.96505],[-71.21,-9.95255],[-71.19199,-9.94039],[-71.18861,-9.92012],[-71.17876,-9.91812],[-71.17951,-9.90802],[-71.17275,-9.90038],[-71.15765,-9.87215],[-71.14954,-9.87026],[-71.13475,-9.85384],[-71.1094,-9.85438],[-71.08678,-9.84109],[-71.07516,-9.82696],[-71.05744,-9.8236],[-71.05096,-9.81584],[-71.04369,-9.81903],[-71.03165,-9.81386],[-70.99838,-9.81821],[-70.99085,-9.81123],[-70.99226,-9.79589],[-70.98058,-9.77803],[-70.97032,-9.75604],[-70.95181,-9.7422],[-70.92451,-9.74164],[-70.91441,-9.72697],[-70.89766,-9.71371],[-70.89687,-9.70338],[-70.86813,-9.66476],[-70.85339,-9.65559],[-70.8387,-9.65667],[-70.83484,-9.64313],[-70.80468,-9.64361],[-70.79322,-9.63748],[-70.78524,-9.62356],[-70.78569,-9.61394],[-70.75893,-9.60567],[-70.7587,-9.5877],[-70.74976,-9.56929],[-70.75114,-9.56094],[-70.73832,-9.55901],[-70.72548,-9.56705],[-70.71476,-9.54715],[-70.69288,-9.53931],[-70.69267,-9.53546],[-70.67265,-9.52713],[-70.6512,-9.51177],[-70.65322,-9.50118],[-70.6366,-9.50135],[-70.63075,-9.49309],[-70.6364,-9.48705],[-70.61799,-9.47514],[-70.611,-9.45732],[-70.59789,-9.46086],[-70.59581,-9.4425],[-70.58777,-9.4464],[-70.56113,-9.43027],[-70.54901,-9.43488],[-70.5475,-9.42842],[-70.53788,-9.43828],[-70.52672,-9.42889],[-70.51047,-9.42468],[-70.49598,-9.42549],[-70.49587,-9.44088],[-70.51168,-9.44955],[-70.50478,-9.46334],[-70.51482,-9.46614],[-70.52455,-9.45936],[-70.5213,-9.47653],[-70.50387,-9.49645],[-70.51083,-9.49465],[-70.52005,-9.50393],[-70.53152,-9.50355],[-70.52979,-9.51272],[-70.54702,-9.51821],[-70.53973,-9.52892],[-70.54213,-9.5377],[-70.55541,-9.53917],[-70.56319,-9.53113],[-70.56908,-9.55435],[-70.55524,-9.56235],[-70.55926,-9.57489],[-70.57505,-9.56401],[-70.58881,-9.56572],[-70.58467,-9.55601],[-70.59185,-9.54855],[-70.60042,-9.563],[-70.58565,-9.57558],[-70.58511,-9.59069],[-70.59824,-9.60729],[-70.59268,-9.62314],[-70.56663,-9.66741],[-70.55117,-9.66981],[-70.54292,-9.67978],[-70.52807,-9.72602],[-70.53504,-9.7342],[-70.53273,-9.74538],[-70.53939,-9.75013],[-70.53663,-9.76584],[-70.55637,-9.78819],[-70.5625,-9.78887],[-70.57777,-9.77779],[-70.58661,-9.78571],[-70.59187,-9.80322],[-70.6014,-9.79997],[-70.61228,-9.8054],[-70.62342,-9.82105],[-70.62003,-9.82791],[-70.62108,-9.85614],[-70.6138,-9.87339],[-70.63954,-9.88438],[-70.63348,-9.89896],[-70.65075,-9.93318],[-70.64695,-9.94592],[-70.65039,-9.95463],[-70.66763,-9.97245],[-70.65716,-10.00193],[-70.66648,-10.00659],[-70.67232,-10.02313],[-70.65206,-10.04006],[-70.66003,-10.05147],[-70.64454,-10.06874],[-70.65138,-10.0807],[-70.66103,-10.08496],[-70.67075,-10.09985],[-70.68098,-10.10264],[-70.68388,-10.11258],[-70.69817,-10.11803],[-70.70785,-10.13561],[-70.70511,-10.15868],[-70.71703,-10.17265],[-70.73439,-10.1854],[-70.75349,-10.19406],[-70.76155,-10.20916],[-70.7803,-10.21992],[-70.79041,-10.24104],[-70.8032,-10.25115],[-70.81493,-10.25467],[-70.84157,-10.25067],[-70.86685,-10.25305],[-70.88083,-10.26197],[-70.88262,-10.27595],[-70.87399,-10.3007],[-70.88946,-10.33514],[-70.8974,-10.33741],[-70.92009,-10.33068],[-70.96801,-10.33555],[-70.97068,-10.34602],[-70.95811,-10.37779],[-70.96037,-10.39362],[-70.99327,-10.41616],[-70.99688,-10.4272],[-71.00497,-10.43082],[-71.00064,-10.44222],[-71.0132,-10.45608],[-71.02453,-10.4782],[-71.04089,-10.48866],[-71.06708,-10.49355],[-71.07076,-10.49847],[-71.10838,-10.50778],[-71.11674,-10.50129],[-71.13256,-10.50721],[-71.1468,-10.53098],[-71.16457,-10.53126],[-71.16308,-10.54677],[-71.16649,-10.57161],[-71.19621,-10.57986],[-71.20517,-10.59154],[-71.21091,-10.61916],[-71.2208,-10.63673],[-71.20629,-10.65216],[-71.21283,-10.66833],[-71.22896,-10.67853],[-71.23146,-10.69131],[-71.22439,-10.70774],[-71.21604,-10.71331],[-71.2246,-10.73065],[-71.21889,-10.74921],[-71.21957,-10.76103],[-71.22743,-10.7613],[-71.22156,-10.7767],[-71.23074,-10.78008],[-71.24384,-10.77676],[-71.25872,-10.78493],[-71.27147,-10.81905],[-71.27094,-10.84735],[-71.27534,-10.85639],[-71.29471,-10.8763],[-71.30902,-10.8787],[-71.31646,-10.89737],[-71.3173,-10.90957],[-71.33613,-10.91679],[-71.34179,-10.93288],[-71.35137,-10.93923],[-71.35209,-10.9479],[-71.36144,-10.95161],[-71.37042,-10.94735],[-71.37628,-10.95268],[-71.39486,-10.94763],[-71.41294,-10.95807],[-71.42611,-10.95566],[-71.44336,-10.95875],[-71.47056,-10.95547],[-71.48595,-10.96379],[-71.50813,-10.96609],[-71.52715,-10.96173],[-71.53161,-10.95223],[-71.55885,-10.9648],[-71.56959,-10.96279],[-71.58791,-10.97106],[-71.60432,-10.97054],[-71.65134,-10.97702],[-71.6665,-10.98166],[-71.68072,-10.97156],[-71.69217,-10.97943],[-71.70541,-10.97558],[-71.72016,-10.99655],[-71.73,-10.98359],[-71.74525,-10.99273],[-71.77004,-10.99281],[-71.78023,-10.98781],[-71.78759,-10.99257],[-71.80895,-10.99383],[-71.82436,-11.00408],[-71.82846,-11.01187],[-71.84701,-10.99568],[-71.87736,-10.99993],[-71.89507,-10.99453],[-71.93838,-11.0039],[-71.94459,-10.99745],[-71.96813,-10.99661],[-71.98035,-10.99098],[-71.98656,-10.9955],[-72.01394,-10.9884],[-72.02983,-10.99793],[-72.0437,-10.99692],[-72.05174,-11.01091],[-72.09279,-11.00168],[-72.10471,-10.99293],[-72.12503,-10.99562],[-72.12793,-10.97984],[-72.15286,-10.99421],[-72.15825,-11.00529],[-72.17354,-10.99553],[-72.18519,-11.00893],[-72.19418,-11.00449],[-72.21027,-11.01328],[-72.2383,-10.98542],[-72.26213,-10.97168],[-72.29925,-10.97562],[-72.31083,-10.98309],[-72.3203,-10.98028],[-72.33036,-10.96898],[-72.34674,-10.96969],[-72.36183,-10.96102],[-72.39025,-10.93588],[-72.40006,-10.92981],[-72.39951,-10.91788],[-72.41904,-10.90629],[-72.43137,-10.8798],[-72.42821,-10.86196],[-72.43721,-10.84259],[-72.44802,-10.8323],[-72.47232,-10.81707],[-72.48435,-10.79219],[-72.48033,-10.76588],[-72.46919,-10.75833],[-72.46575,-10.74062],[-72.46686,-10.71627],[-72.45946,-10.70772],[-72.45577,-10.68875],[-72.45852,-10.67568],[-72.44337,-10.63649],[-72.42663,-10.64762],[-72.4061,-10.64946],[-72.40509,-10.63265],[-72.39879,-10.62699],[-72.39462,-10.60223],[-72.38794,-10.59466],[-72.39228,-10.5745],[-72.37884,-10.5477],[-72.3808,-10.53783],[-72.3983,-10.52873],[-72.40789,-10.51705],[-72.43226,-10.51235],[-72.44358,-10.51453],[-72.4626,-10.5098],[-72.46359,-10.50468],[-72.42767,-10.48955],[-72.4204,-10.47955],[-72.42245,-10.44647],[-72.45149,-10.41668],[-72.46136,-10.39316],[-72.47717,-10.37869],[-72.4782,-10.36771],[-72.4654,-10.34591],[-72.47712,-10.33291],[-72.47306,-10.30171],[-72.46278,-10.28862],[-72.44472,-10.25504],[-72.43576,-10.25263],[-72.41889,-10.23344],[-72.40218,-10.22592],[-72.38177,-10.2225],[-72.36807,-10.21349],[-72.36544,-10.2015],[-72.3443,-10.19032],[-72.3361,-10.17948],[-72.31163,-10.17948],[-72.30066,-10.18506],[-72.29333,-10.18145],[-72.28337,-10.18709],[-72.27116,-10.18582],[-72.24255,-10.18881],[-72.23561,-10.18207],[-72.23528,-10.16608],[-72.21413,-10.15971],[-72.17982,-10.16488],[-72.15695,-10.16526],[-72.14268,-10.13948],[-72.14351,-10.11211],[-72.14657,-10.09846],[-72.14107,-10.09055],[-72.1629,-10.07609],[-72.17218,-10.04824],[-72.17978,-10.04109],[-72.18935,-10.02087],[-72.18909,-10.00608],[-72.1804,-9.99967]]]}}]}